[{"pincode":"744107","office":"Stewertgunj B.O","district":"SOUTH ANDAMANS","state":"ANDAMAN AND NICOBAR ISLANDS","circle":"West Bengal Circle","region":"DivReportingCircle"},{"pincode":"744302","office":"Gandhinagar B.O","district":"NICOBARS","state":"ANDAMAN AND NICOBAR ISLANDS","circle":"West Bengal Circle","region":"DivReportingCircle"},{"pincode":"744302","office":"Pilomilo Island B.O","district":"NICOBARS","state":"ANDAMAN AND NICOBAR ISLANDS","circle":"West Bengal Circle","region":"DivReportingCircle"},{"pincode":"744301","office":"Sawai B.O","district":"NICOBARS","state":"ANDAMAN AND NICOBAR ISLANDS","circle":"West Bengal Circle","region":"DivReportingCircle"},{"pincode":"744202","office":"Aerial Bay B.O","district":"NORTH AND MIDDLE ANDAMAN","state":"ANDAMAN AND NICOBAR ISLANDS","circle":"West Bengal Circle","region":"DivReportingCircle"},{"pincode":"744202","office":"Swarajgram B.O","district":"NORTH AND MIDDLE ANDAMAN","state":"ANDAMAN AND NICOBAR ISLANDS","circle":"West Bengal Circle","region":"DivReportingCircle"},{"pincode":"744105","office":"Sippighat B.O","district":"SOUTH ANDAMANS","state":"ANDAMAN AND NICOBAR ISLANDS","circle":"West Bengal Circle","region":"DivReportingCircle"},{"pincode":"744103","office":"Dollygunj B.O","district":"SOUTH ANDAMANS","state":"ANDAMAN AND NICOBAR ISLANDS","circle":"West Bengal Circle","region":"DivReportingCircle"},{"pincode":"744204","office":"Rampur B.O","district":"NORTH AND MIDDLE ANDAMAN","state":"ANDAMAN AND NICOBAR ISLANDS","circle":"West Bengal Circle","region":"DivReportingCircle"},{"pincode":"744210","office":"Kanchangarh B.O","district":"NORTH AND MIDDLE ANDAMAN","state":"ANDAMAN AND NICOBAR ISLANDS","circle":"West Bengal Circle","region":"DivReportingCircle"},{"pincode":"744205","office":"Nimbutala B.O","district":"NORTH AND MIDDLE ANDAMAN","state":"ANDAMAN AND NICOBAR ISLANDS","circle":"West Bengal Circle","region":"DivReportingCircle"},{"pincode":"744206","office":"Kalatong B.O","district":"SOUTH ANDAMANS","state":"ANDAMAN AND NICOBAR ISLANDS","circle":"West Bengal Circle","region":"DivReportingCircle"},{"pincode":"744104","office":"Aberdeen  Bazar S.O","district":"SOUTH ANDAMANS","state":"ANDAMAN AND NICOBAR ISLANDS","circle":"West Bengal Circle","region":"DivReportingCircle"},{"pincode":"744102","office":"Haddo S.O","district":"SOUTH ANDAMANS","state":"ANDAMAN AND NICOBAR ISLANDS","circle":"West Bengal Circle","region":"DivReportingCircle"},{"pincode":"744101","office":"N.S.Building S.O","district":"SOUTH ANDAMANS","state":"ANDAMAN AND NICOBAR ISLANDS","circle":"West Bengal Circle","region":"DivReportingCircle"},{"pincode":"744205","office":"Rangat S.O","district":"NORTH AND MIDDLE ANDAMAN","state":"ANDAMAN AND NICOBAR ISLANDS","circle":"West Bengal Circle","region":"DivReportingCircle"},{"pincode":"744104","office":"Shaheed Dweep BO","district":"SOUTH ANDAMANS","state":"ANDAMAN AND NICOBAR ISLANDS","circle":"West Bengal Circle","region":"DivReportingCircle"},{"pincode":"744201","office":"Nimbudera B.O","district":"NORTH AND MIDDLE ANDAMAN","state":"ANDAMAN AND NICOBAR ISLANDS","circle":"West Bengal Circle","region":"DivReportingCircle"},{"pincode":"744302","office":"Shabnamnagar B.O","district":"NICOBARS","state":"ANDAMAN AND NICOBAR ISLANDS","circle":"West Bengal Circle","region":"DivReportingCircle"},{"pincode":"744301","office":"Lapathy B.O","district":"NICOBARS","state":"ANDAMAN AND NICOBAR ISLANDS","circle":"West Bengal Circle","region":"DivReportingCircle"},{"pincode":"744202","office":"Kalighat B.O","district":"NORTH AND MIDDLE ANDAMAN","state":"ANDAMAN AND NICOBAR ISLANDS","circle":"West Bengal Circle","region":"DivReportingCircle"},{"pincode":"744202","office":"Kishorinagar B.O","district":"NORTH AND MIDDLE ANDAMAN","state":"ANDAMAN AND NICOBAR ISLANDS","circle":"West Bengal Circle","region":"DivReportingCircle"},{"pincode":"744202","office":"Sitanagar B.O","district":"NORTH AND MIDDLE ANDAMAN","state":"ANDAMAN AND NICOBAR ISLANDS","circle":"West Bengal Circle","region":"DivReportingCircle"},{"pincode":"744204","office":"Tugapur B.O","district":"NORTH AND MIDDLE ANDAMAN","state":"ANDAMAN AND NICOBAR ISLANDS","circle":"West Bengal Circle","region":"DivReportingCircle"},{"pincode":"744204","office":"Weby B.O","district":"NORTH AND MIDDLE ANDAMAN","state":"ANDAMAN AND NICOBAR ISLANDS","circle":"West Bengal Circle","region":"DivReportingCircle"},{"pincode":"744204","office":"Mohanpur B.O","district":"NORTH AND MIDDLE ANDAMAN","state":"ANDAMAN AND NICOBAR ISLANDS","circle":"West Bengal Circle","region":"DivReportingCircle"},{"pincode":"744210","office":"Sankarnalla B.O","district":"NORTH AND MIDDLE ANDAMAN","state":"ANDAMAN AND NICOBAR ISLANDS","circle":"West Bengal Circle","region":"DivReportingCircle"},{"pincode":"744206","office":"Dundas Point B.O","district":"SOUTH ANDAMANS","state":"ANDAMAN AND NICOBAR ISLANDS","circle":"West Bengal Circle","region":"DivReportingCircle"},{"pincode":"744206","office":"Jirkatong B.O","district":"SOUTH ANDAMANS","state":"ANDAMAN AND NICOBAR ISLANDS","circle":"West Bengal Circle","region":"DivReportingCircle"},{"pincode":"744206","office":"R.R Station B.O","district":"SOUTH ANDAMANS","state":"ANDAMAN AND NICOBAR ISLANDS","circle":"West Bengal Circle","region":"DivReportingCircle"},{"pincode":"744211","office":"Swaraj Dweep SO","district":"SOUTH ANDAMANS","state":"ANDAMAN AND NICOBAR ISLANDS","circle":"West Bengal Circle","region":"DivReportingCircle"},{"pincode":"744207","office":"Hut  Bay S.O","district":"SOUTH ANDAMANS","state":"ANDAMAN AND NICOBAR ISLANDS","circle":"West Bengal Circle","region":"DivReportingCircle"},{"pincode":"744206","office":"Wimberlygunj S.O","district":"SOUTH ANDAMANS","state":"ANDAMAN AND NICOBAR ISLANDS","circle":"West Bengal Circle","region":"DivReportingCircle"},{"pincode":"744302","office":"Kondul Island B.O","district":"NICOBARS","state":"ANDAMAN AND NICOBAR ISLANDS","circle":"West Bengal Circle","region":"DivReportingCircle"},{"pincode":"744302","office":"Little Nicobar B.O","district":"NICOBARS","state":"ANDAMAN AND NICOBAR ISLANDS","circle":"West Bengal Circle","region":"DivReportingCircle"},{"pincode":"744105","office":"Calicut B.O","district":"SOUTH ANDAMANS","state":"ANDAMAN AND NICOBAR ISLANDS","circle":"West Bengal Circle","region":"DivReportingCircle"},{"pincode":"744102","office":"Radio Colony B.O","district":"SOUTH ANDAMANS","state":"ANDAMAN AND NICOBAR ISLANDS","circle":"West Bengal Circle","region":"DivReportingCircle"},{"pincode":"744211","office":"Kalapather B.O","district":"SOUTH ANDAMANS","state":"ANDAMAN AND NICOBAR ISLANDS","circle":"West Bengal Circle","region":"DivReportingCircle"},{"pincode":"744103","office":"Ograbanj B.O","district":"SOUTH ANDAMANS","state":"ANDAMAN AND NICOBAR ISLANDS","circle":"West Bengal Circle","region":"DivReportingCircle"},{"pincode":"744209","office":"Uttara B.O","district":"NORTH AND MIDDLE ANDAMAN","state":"ANDAMAN AND NICOBAR ISLANDS","circle":"West Bengal Circle","region":"DivReportingCircle"},{"pincode":"744304","office":"Mildera B.O","district":"NICOBARS","state":"ANDAMAN AND NICOBAR ISLANDS","circle":"West Bengal Circle","region":"DivReportingCircle"},{"pincode":"744303","office":"Champin B.O","district":"NICOBARS","state":"ANDAMAN AND NICOBAR ISLANDS","circle":"West Bengal Circle","region":"DivReportingCircle"},{"pincode":"744303","office":"Chowra B.O","district":"NICOBARS","state":"ANDAMAN AND NICOBAR ISLANDS","circle":"West Bengal Circle","region":"DivReportingCircle"},{"pincode":"744303","office":"Trinket B.O","district":"NICOBARS","state":"ANDAMAN AND NICOBAR ISLANDS","circle":"West Bengal Circle","region":"DivReportingCircle"},{"pincode":"744205","office":"Parnasala B.O","district":"NORTH AND MIDDLE ANDAMAN","state":"ANDAMAN AND NICOBAR ISLANDS","circle":"West Bengal Circle","region":"DivReportingCircle"},{"pincode":"744206","office":"Mathura B.O","district":"SOUTH ANDAMANS","state":"ANDAMAN AND NICOBAR ISLANDS","circle":"West Bengal Circle","region":"DivReportingCircle"},{"pincode":"744206","office":"Shoalbay B.O","district":"SOUTH ANDAMANS","state":"ANDAMAN AND NICOBAR ISLANDS","circle":"West Bengal Circle","region":"DivReportingCircle"},{"pincode":"744302","office":"Campbelbay S.O","district":"NICOBARS","state":"ANDAMAN AND NICOBAR ISLANDS","circle":"West Bengal Circle","region":"DivReportingCircle"},{"pincode":"744105","office":"Garacharama S.O","district":"SOUTH ANDAMANS","state":"ANDAMAN AND NICOBAR ISLANDS","circle":"West Bengal Circle","region":"DivReportingCircle"},{"pincode":"744209","office":"Kadamtala S.O (North And Middle Andaman)","district":"NORTH AND MIDDLE ANDAMAN","state":"ANDAMAN AND NICOBAR ISLANDS","circle":"West Bengal Circle","region":"DivReportingCircle"},{"pincode":"744203","office":"Long Island S.O","district":"NORTH AND MIDDLE ANDAMAN","state":"ANDAMAN AND NICOBAR ISLANDS","circle":"West Bengal Circle","region":"DivReportingCircle"},{"pincode":"744103","office":"Minnie Bay S.O","district":"SOUTH ANDAMANS","state":"ANDAMAN AND NICOBAR ISLANDS","circle":"West Bengal Circle","region":"DivReportingCircle"},{"pincode":"744201","office":"Pitchernalla B.O","district":"NORTH AND MIDDLE ANDAMAN","state":"ANDAMAN AND NICOBAR ISLANDS","circle":"West Bengal Circle","region":"DivReportingCircle"},{"pincode":"744201","office":"Swdeshnagar B.O","district":"NORTH AND MIDDLE ANDAMAN","state":"ANDAMAN AND NICOBAR ISLANDS","circle":"West Bengal Circle","region":"DivReportingCircle"},{"pincode":"744301","office":"Mus B.O","district":"NICOBARS","state":"ANDAMAN AND NICOBAR ISLANDS","circle":"West Bengal Circle","region":"DivReportingCircle"},{"pincode":"744202","office":"Hathilevel B.O","district":"NORTH AND MIDDLE ANDAMAN","state":"ANDAMAN AND NICOBAR ISLANDS","circle":"West Bengal Circle","region":"DivReportingCircle"},{"pincode":"744202","office":"Laxmipur B.O","district":"NORTH AND MIDDLE ANDAMAN","state":"ANDAMAN AND NICOBAR ISLANDS","circle":"West Bengal Circle","region":"DivReportingCircle"},{"pincode":"744202","office":"Navagram B.O","district":"NORTH AND MIDDLE ANDAMAN","state":"ANDAMAN AND NICOBAR ISLANDS","circle":"West Bengal Circle","region":"DivReportingCircle"},{"pincode":"744202","office":"Pashimsagar B.O","district":"NORTH AND MIDDLE ANDAMAN","state":"ANDAMAN AND NICOBAR ISLANDS","circle":"West Bengal Circle","region":"DivReportingCircle"},{"pincode":"744202","office":"Ramnagar B.O","district":"NORTH AND MIDDLE ANDAMAN","state":"ANDAMAN AND NICOBAR ISLANDS","circle":"West Bengal Circle","region":"DivReportingCircle"},{"pincode":"744202","office":"Smith  Island B.O","district":"NORTH AND MIDDLE ANDAMAN","state":"ANDAMAN AND NICOBAR ISLANDS","circle":"West Bengal Circle","region":"DivReportingCircle"},{"pincode":"744105","office":"Beodnabad B.O","district":"SOUTH ANDAMANS","state":"ANDAMAN AND NICOBAR ISLANDS","circle":"West Bengal Circle","region":"DivReportingCircle"},{"pincode":"744105","office":"Bimbiton B.O","district":"SOUTH ANDAMANS","state":"ANDAMAN AND NICOBAR ISLANDS","circle":"West Bengal Circle","region":"DivReportingCircle"},{"pincode":"744211","office":"Swaraj Dweep BO","district":"SOUTH ANDAMANS","state":"ANDAMAN AND NICOBAR ISLANDS","circle":"West Bengal Circle","region":"DivReportingCircle"},{"pincode":"744207","office":"Netajinagar B.O","district":"SOUTH ANDAMANS","state":"ANDAMAN AND NICOBAR ISLANDS","circle":"West Bengal Circle","region":"DivReportingCircle"},{"pincode":"744207","office":"Vivekandapur B.O","district":"SOUTH ANDAMANS","state":"ANDAMAN AND NICOBAR ISLANDS","circle":"West Bengal Circle","region":"DivReportingCircle"},{"pincode":"744103","office":"Brijgunj B.O","district":"SOUTH ANDAMANS","state":"ANDAMAN AND NICOBAR ISLANDS","circle":"West Bengal Circle","region":"DivReportingCircle"},{"pincode":"744103","office":"Guptapara B.O","district":"SOUTH ANDAMANS","state":"ANDAMAN AND NICOBAR ISLANDS","circle":"West Bengal Circle","region":"DivReportingCircle"},{"pincode":"744103","office":"Wandoor B.O","district":"SOUTH ANDAMANS","state":"ANDAMAN AND NICOBAR ISLANDS","circle":"West Bengal Circle","region":"DivReportingCircle"},{"pincode":"744103","office":"Herbertabad B.O","district":"SOUTH ANDAMANS","state":"ANDAMAN AND NICOBAR ISLANDS","circle":"West Bengal Circle","region":"DivReportingCircle"},{"pincode":"744205","office":"Bakultala B.O","district":"NORTH AND MIDDLE ANDAMAN","state":"ANDAMAN AND NICOBAR ISLANDS","circle":"West Bengal Circle","region":"DivReportingCircle"},{"pincode":"744205","office":"Kaushalyanagar B.O","district":"NORTH AND MIDDLE ANDAMAN","state":"ANDAMAN AND NICOBAR ISLANDS","circle":"West Bengal Circle","region":"DivReportingCircle"},{"pincode":"744205","office":"Panchawati B.O","district":"NORTH AND MIDDLE ANDAMAN","state":"ANDAMAN AND NICOBAR ISLANDS","circle":"West Bengal Circle","region":"DivReportingCircle"},{"pincode":"744205","office":"Sabari B.O","district":"NORTH AND MIDDLE ANDAMAN","state":"ANDAMAN AND NICOBAR ISLANDS","circle":"West Bengal Circle","region":"DivReportingCircle"},{"pincode":"744206","office":"Miletilak B.O","district":"SOUTH ANDAMANS","state":"ANDAMAN AND NICOBAR ISLANDS","circle":"West Bengal Circle","region":"DivReportingCircle"},{"pincode":"744101","office":"Port Blair H.O","district":"SOUTH ANDAMANS","state":"ANDAMAN AND NICOBAR ISLANDS","circle":"West Bengal Circle","region":"DivReportingCircle"},{"pincode":"744107","office":"Bambooflat S.O","district":"SOUTH ANDAMANS","state":"ANDAMAN AND NICOBAR ISLANDS","circle":"West Bengal Circle","region":"DivReportingCircle"},{"pincode":"744112","office":"Chakargoan S.O","district":"SOUTH ANDAMANS","state":"ANDAMAN AND NICOBAR ISLANDS","circle":"West Bengal Circle","region":"DivReportingCircle"},{"pincode":"744102","office":"Chatham S.O","district":"SOUTH ANDAMANS","state":"ANDAMAN AND NICOBAR ISLANDS","circle":"West Bengal Circle","region":"DivReportingCircle"},{"pincode":"744202","office":"Diglipur S.O","district":"NORTH AND MIDDLE ANDAMAN","state":"ANDAMAN AND NICOBAR ISLANDS","circle":"West Bengal Circle","region":"DivReportingCircle"},{"pincode":"744103","office":"Junglighat S.O","district":"SOUTH ANDAMANS","state":"ANDAMAN AND NICOBAR ISLANDS","circle":"West Bengal Circle","region":"DivReportingCircle"},{"pincode":"744101","office":"Marine Jetty S.O","district":"SOUTH ANDAMANS","state":"ANDAMAN AND NICOBAR ISLANDS","circle":"West Bengal Circle","region":"DivReportingCircle"},{"pincode":"744204","office":"Mayabander S.O","district":"NORTH AND MIDDLE ANDAMAN","state":"ANDAMAN AND NICOBAR ISLANDS","circle":"West Bengal Circle","region":"DivReportingCircle"},{"pincode":"744303","office":"Nancowrie S.O","district":"NICOBARS","state":"ANDAMAN AND NICOBAR ISLANDS","circle":"West Bengal Circle","region":"DivReportingCircle"},{"pincode":"744210","office":"Oralkatcha S.O","district":"NORTH AND MIDDLE ANDAMAN","state":"ANDAMAN AND NICOBAR ISLANDS","circle":"West Bengal Circle","region":"DivReportingCircle"},{"pincode":"744106","office":"Shadipur S.O","district":"SOUTH ANDAMANS","state":"ANDAMAN AND NICOBAR ISLANDS","circle":"West Bengal Circle","region":"DivReportingCircle"},{"pincode":"744104","office":"Sitapur B.O","district":"SOUTH ANDAMANS","state":"ANDAMAN AND NICOBAR ISLANDS","circle":"West Bengal Circle","region":"DivReportingCircle"},{"pincode":"744301","office":"Kakana B.O","district":"NICOBARS","state":"ANDAMAN AND NICOBAR ISLANDS","circle":"West Bengal Circle","region":"DivReportingCircle"},{"pincode":"744105","office":"Humferygunj B.O","district":"SOUTH ANDAMANS","state":"ANDAMAN AND NICOBAR ISLANDS","circle":"West Bengal Circle","region":"DivReportingCircle"},{"pincode":"744105","office":"Rutland B.O","district":"SOUTH ANDAMANS","state":"ANDAMAN AND NICOBAR ISLANDS","circle":"West Bengal Circle","region":"DivReportingCircle"},{"pincode":"744211","office":"Peal Island B.O","district":"SOUTH ANDAMANS","state":"ANDAMAN AND NICOBAR ISLANDS","circle":"West Bengal Circle","region":"DivReportingCircle"},{"pincode":"744207","office":"Ramakrishnapur B.O","district":"SOUTH ANDAMANS","state":"ANDAMAN AND NICOBAR ISLANDS","circle":"West Bengal Circle","region":"DivReportingCircle"},{"pincode":"744103","office":"Chouldari B.O","district":"SOUTH ANDAMANS","state":"ANDAMAN AND NICOBAR ISLANDS","circle":"West Bengal Circle","region":"DivReportingCircle"},{"pincode":"744103","office":"Tushnabad B.O","district":"SOUTH ANDAMANS","state":"ANDAMAN AND NICOBAR ISLANDS","circle":"West Bengal Circle","region":"DivReportingCircle"},{"pincode":"744303","office":"Teressa B.O","district":"NICOBARS","state":"ANDAMAN AND NICOBAR ISLANDS","circle":"West Bengal Circle","region":"DivReportingCircle"},{"pincode":"744206","office":"Beachdera B.O","district":"SOUTH ANDAMANS","state":"ANDAMAN AND NICOBAR ISLANDS","circle":"West Bengal Circle","region":"DivReportingCircle"},{"pincode":"744201","office":"Betapur S.O","district":"NORTH AND MIDDLE ANDAMAN","state":"ANDAMAN AND NICOBAR ISLANDS","circle":"West Bengal Circle","region":"DivReportingCircle"},{"pincode":"744301","office":"Carnicobar S.O","district":"NICOBARS","state":"ANDAMAN AND NICOBAR ISLANDS","circle":"West Bengal Circle","region":"DivReportingCircle"},{"pincode":"744102","office":"Delanipur S.O","district":"SOUTH ANDAMANS","state":"ANDAMAN AND NICOBAR ISLANDS","circle":"West Bengal Circle","region":"DivReportingCircle"},{"pincode":"744304","office":"Kapanga S.O","district":"NICOBARS","state":"ANDAMAN AND NICOBAR ISLANDS","circle":"West Bengal Circle","region":"DivReportingCircle"}]