[{"pincode":"791001","office":"Bagra B.O","district":"WEST SIANG","state":"ARUNACHAL PRADESH","circle":"North Eastern Circle","region":"Shillong HQ Region"},{"pincode":"791001","office":"Darak B.O","district":"WEST SIANG","state":"ARUNACHAL PRADESH","circle":"North Eastern Circle","region":"Shillong HQ Region"},{"pincode":"791001","office":"Kaying B.O","district":"SIANG","state":"ARUNACHAL PRADESH","circle":"North Eastern Circle","region":"Shillong HQ Region"},{"pincode":"791001","office":"Logum Jining B.O","district":"WEST SIANG","state":"ARUNACHAL PRADESH","circle":"North Eastern Circle","region":"Shillong HQ Region"},{"pincode":"791001","office":"Payum B.O","district":"SIANG","state":"ARUNACHAL PRADESH","circle":"North Eastern Circle","region":"Shillong HQ Region"},{"pincode":"791001","office":"Pessing B.O","district":"SIANG","state":"ARUNACHAL PRADESH","circle":"North Eastern Circle","region":"Shillong HQ Region"},{"pincode":"791001","office":"Yoji Yora B.O","district":"WEST SIANG","state":"ARUNACHAL PRADESH","circle":"North Eastern Circle","region":"Shillong HQ Region"},{"pincode":"791001","office":"Mega","district":"WEST SIANG","state":"ARUNACHAL PRADESH","circle":"North Eastern Circle","region":"Shillong HQ Region"},{"pincode":"791001","office":"Jomlo Bari","district":"WEST SIANG","state":"ARUNACHAL PRADESH","circle":"North Eastern Circle","region":"Shillong HQ Region"},{"pincode":"791001","office":"Jomlo Mongku","district":"WEST SIANG","state":"ARUNACHAL PRADESH","circle":"North Eastern Circle","region":"Shillong HQ Region"},{"pincode":"791001","office":"Damda Deku","district":"WEST SIANG","state":"ARUNACHAL PRADESH","circle":"North Eastern Circle","region":"Shillong HQ Region"},{"pincode":"791001","office":"Pokto","district":"WEST SIANG","state":"ARUNACHAL PRADESH","circle":"North Eastern Circle","region":"Shillong HQ Region"},{"pincode":"791001","office":"Laggi Gamlin","district":"WEST SIANG","state":"ARUNACHAL PRADESH","circle":"North Eastern Circle","region":"Shillong HQ Region"},{"pincode":"791001","office":"Tapiyor","district":"WEST SIANG","state":"ARUNACHAL PRADESH","circle":"North Eastern Circle","region":"Shillong HQ Region"},{"pincode":"791001","office":"Ragyi","district":"WEST SIANG","state":"ARUNACHAL PRADESH","circle":"North Eastern Circle","region":"Shillong HQ Region"},{"pincode":"791001","office":"Vivek Nagar (R.K. Mission)","district":"WEST SIANG","state":"ARUNACHAL PRADESH","circle":"North Eastern Circle","region":"Shillong HQ Region"},{"pincode":"792110","office":"Angrim Valley","district":"DIBANG VALLEY","state":"ARUNACHAL PRADESH","circle":"North Eastern Circle","region":"Shillong HQ Region"},{"pincode":"792110","office":"Alinye","district":"DIBANG VALLEY","state":"ARUNACHAL PRADESH","circle":"North Eastern Circle","region":"Shillong HQ Region"},{"pincode":"792110","office":"Ayeso","district":"DIBANG VALLEY","state":"ARUNACHAL PRADESH","circle":"North Eastern Circle","region":"Shillong HQ Region"},{"pincode":"792110","office":"Char - Kilo (Tapo)","district":"DIBANG VALLEY","state":"ARUNACHAL PRADESH","circle":"North Eastern Circle","region":"Shillong HQ Region"},{"pincode":"792110","office":"Aranli","district":"DIBANG VALLEY","state":"ARUNACHAL PRADESH","circle":"North Eastern Circle","region":"Shillong HQ Region"},{"pincode":"792110","office":"Eranli","district":"DIBANG VALLEY","state":"ARUNACHAL PRADESH","circle":"North Eastern Circle","region":"Shillong HQ Region"},{"pincode":"792110","office":"Athunli","district":"DIBANG VALLEY","state":"ARUNACHAL PRADESH","circle":"North Eastern Circle","region":"Shillong HQ Region"},{"pincode":"792110","office":"Edilin","district":"DIBANG VALLEY","state":"ARUNACHAL PRADESH","circle":"North Eastern Circle","region":"Shillong HQ Region"},{"pincode":"792110","office":"New Arope(Hipui)","district":"DIBANG VALLEY","state":"ARUNACHAL PRADESH","circle":"North Eastern Circle","region":"Shillong HQ Region"},{"pincode":"792110","office":"Ihinli","district":"DIBANG VALLEY","state":"ARUNACHAL PRADESH","circle":"North Eastern Circle","region":"Shillong HQ Region"},{"pincode":"792101","office":"Aiso","district":"DIBANG VALLEY","state":"ARUNACHAL PRADESH","circle":"North Eastern Circle","region":"Shillong HQ Region"},{"pincode":"791123","office":"Kokila B.O","district":"PAPUM PARE","state":"ARUNACHAL PRADESH","circle":"North Eastern Circle","region":"Shillong HQ Region"},{"pincode":"791123","office":"Lanka","district":"PAPUM PARE","state":"ARUNACHAL PRADESH","circle":"North Eastern Circle","region":"Shillong HQ Region"},{"pincode":"791123","office":"Hollongi Chariali","district":"PAPUM PARE","state":"ARUNACHAL PRADESH","circle":"North Eastern Circle","region":"Shillong HQ Region"},{"pincode":"791101","office":"Bame B.O","district":"LEPARADA","state":"ARUNACHAL PRADESH","circle":"North Eastern Circle","region":"Shillong HQ Region"},{"pincode":"791101","office":"Zirdo","district":"WEST SIANG","state":"ARUNACHAL PRADESH","circle":"North Eastern Circle","region":"Shillong HQ Region"},{"pincode":"790114","office":"Elephant Flat","district":"WEST KAMENG","state":"ARUNACHAL PRADESH","circle":"North Eastern Circle","region":"Shillong HQ Region"},{"pincode":"790114","office":"Sessa","district":"WEST KAMENG","state":"ARUNACHAL PRADESH","circle":"North Eastern Circle","region":"Shillong HQ Region"},{"pincode":"790114","office":"Upper Bhalukpong HQ","district":"WEST KAMENG","state":"ARUNACHAL PRADESH","circle":"North Eastern Circle","region":"Shillong HQ Region"},{"pincode":"792056","office":"New Mohang B.O","district":"CHANGLANG","state":"ARUNACHAL PRADESH","circle":"North Eastern Circle","region":"Shillong HQ Region"},{"pincode":"792120","office":"Khemiyong B.O","district":"CHANGLANG","state":"ARUNACHAL PRADESH","circle":"North Eastern Circle","region":"Shillong HQ Region"},{"pincode":"792120","office":"Bubang - III","district":"CHANGLANG","state":"ARUNACHAL PRADESH","circle":"North Eastern Circle","region":"Shillong HQ Region"},{"pincode":"792120","office":"Saching - III","district":"CHANGLANG","state":"ARUNACHAL PRADESH","circle":"North Eastern Circle","region":"Shillong HQ Region"},{"pincode":"792120","office":"Nampong H.Q.BL.-III (Lower)","district":"CHANGLANG","state":"ARUNACHAL PRADESH","circle":"North Eastern Circle","region":"Shillong HQ Region"},{"pincode":"791122","office":"Maro B.O","district":"UPPER SUBANSIRI","state":"ARUNACHAL PRADESH","circle":"North Eastern Circle","region":"Shillong HQ Region"},{"pincode":"791122","office":"Sippi B.O","district":"UPPER SUBANSIRI","state":"ARUNACHAL PRADESH","circle":"North Eastern Circle","region":"Shillong HQ Region"},{"pincode":"791122","office":"Ishneya(Isnia) I","district":"UPPER SUBANSIRI","state":"ARUNACHAL PRADESH","circle":"North Eastern Circle","region":"Shillong HQ Region"},{"pincode":"791122","office":"Ngoju","district":"UPPER SUBANSIRI","state":"ARUNACHAL PRADESH","circle":"North Eastern Circle","region":"Shillong HQ Region"},{"pincode":"791122","office":"Nava","district":"UPPER SUBANSIRI","state":"ARUNACHAL PRADESH","circle":"North Eastern Circle","region":"Shillong HQ Region"},{"pincode":"791122","office":"Nilo","district":"UPPER SUBANSIRI","state":"ARUNACHAL PRADESH","circle":"North Eastern Circle","region":"Shillong HQ Region"},{"pincode":"791122","office":"Nyare","district":"UPPER SUBANSIRI","state":"ARUNACHAL PRADESH","circle":"North Eastern Circle","region":"Shillong HQ Region"},{"pincode":"791122","office":"Gelinceniak Camp","district":"UPPER SUBANSIRI","state":"ARUNACHAL PRADESH","circle":"North Eastern Circle","region":"Shillong HQ Region"},{"pincode":"791122","office":"Gingba","district":"UPPER SUBANSIRI","state":"ARUNACHAL PRADESH","circle":"North Eastern Circle","region":"Shillong HQ Region"},{"pincode":"791122","office":"Kangring","district":"UPPER SUBANSIRI","state":"ARUNACHAL PRADESH","circle":"North Eastern Circle","region":"Shillong HQ Region"},{"pincode":"791122","office":"Zingpuring","district":"UPPER SUBANSIRI","state":"ARUNACHAL PRADESH","circle":"North Eastern Circle","region":"Shillong HQ Region"},{"pincode":"791122","office":"Pagring","district":"UPPER SUBANSIRI","state":"ARUNACHAL PRADESH","circle":"North Eastern Circle","region":"Shillong HQ Region"},{"pincode":"791122","office":"Duku","district":"UPPER SUBANSIRI","state":"ARUNACHAL PRADESH","circle":"North Eastern Circle","region":"Shillong HQ Region"},{"pincode":"791122","office":"Chingringmuring","district":"UPPER SUBANSIRI","state":"ARUNACHAL PRADESH","circle":"North Eastern Circle","region":"Shillong HQ Region"},{"pincode":"791122","office":"Nimpu","district":"UPPER SUBANSIRI","state":"ARUNACHAL PRADESH","circle":"North Eastern Circle","region":"Shillong HQ Region"},{"pincode":"791122","office":"Sinamsing","district":"UPPER SUBANSIRI","state":"ARUNACHAL PRADESH","circle":"North Eastern Circle","region":"Shillong HQ Region"},{"pincode":"791122","office":"Papa","district":"UPPER SUBANSIRI","state":"ARUNACHAL PRADESH","circle":"North Eastern Circle","region":"Shillong HQ Region"},{"pincode":"791122","office":"Doyom","district":"UPPER SUBANSIRI","state":"ARUNACHAL PRADESH","circle":"North Eastern Circle","region":"Shillong HQ Region"},{"pincode":"791122","office":"Nadam","district":"UPPER SUBANSIRI","state":"ARUNACHAL PRADESH","circle":"North Eastern Circle","region":"Shillong HQ Region"},{"pincode":"791122","office":"Dumpin","district":"UPPER SUBANSIRI","state":"ARUNACHAL PRADESH","circle":"North Eastern Circle","region":"Shillong HQ Region"},{"pincode":"791122","office":"Rago","district":"UPPER SUBANSIRI","state":"ARUNACHAL PRADESH","circle":"North Eastern Circle","region":"Shillong HQ Region"},{"pincode":"791122","office":"Bate","district":"UPPER SUBANSIRI","state":"ARUNACHAL PRADESH","circle":"North Eastern Circle","region":"Shillong HQ Region"},{"pincode":"791122","office":"Luchi","district":"UPPER SUBANSIRI","state":"ARUNACHAL PRADESH","circle":"North Eastern Circle","region":"Shillong HQ Region"},{"pincode":"791122","office":"Magria","district":"UPPER SUBANSIRI","state":"ARUNACHAL PRADESH","circle":"North Eastern Circle","region":"Shillong HQ Region"},{"pincode":"791122","office":"Sebing","district":"UPPER SUBANSIRI","state":"ARUNACHAL PRADESH","circle":"North Eastern Circle","region":"Shillong HQ Region"},{"pincode":"791122","office":"Jeke","district":"UPPER SUBANSIRI","state":"ARUNACHAL PRADESH","circle":"North Eastern Circle","region":"Shillong HQ Region"},{"pincode":"791122","office":"Pobo","district":"UPPER SUBANSIRI","state":"ARUNACHAL PRADESH","circle":"North Eastern Circle","region":"Shillong HQ Region"},{"pincode":"791122","office":"Mite","district":"UPPER SUBANSIRI","state":"ARUNACHAL PRADESH","circle":"North Eastern Circle","region":"Shillong HQ Region"},{"pincode":"791122","office":"Mottu","district":"UPPER SUBANSIRI","state":"ARUNACHAL PRADESH","circle":"North Eastern Circle","region":"Shillong HQ Region"},{"pincode":"791122","office":"Puchi Geku H.Q.","district":"UPPER SUBANSIRI","state":"ARUNACHAL PRADESH","circle":"North Eastern Circle","region":"Shillong HQ Region"},{"pincode":"791122","office":"Bulo","district":"UPPER SUBANSIRI","state":"ARUNACHAL PRADESH","circle":"North Eastern Circle","region":"Shillong HQ Region"},{"pincode":"791122","office":"Gichi","district":"UPPER SUBANSIRI","state":"ARUNACHAL PRADESH","circle":"North Eastern Circle","region":"Shillong HQ Region"},{"pincode":"791122","office":"Paksok","district":"UPPER SUBANSIRI","state":"ARUNACHAL PRADESH","circle":"North Eastern Circle","region":"Shillong HQ Region"},{"pincode":"791122","office":"Dego","district":"UPPER SUBANSIRI","state":"ARUNACHAL PRADESH","circle":"North Eastern Circle","region":"Shillong HQ Region"},{"pincode":"791122","office":"Dula","district":"UPPER SUBANSIRI","state":"ARUNACHAL PRADESH","circle":"North Eastern Circle","region":"Shillong HQ Region"},{"pincode":"791122","office":"Tasi Doni","district":"UPPER SUBANSIRI","state":"ARUNACHAL PRADESH","circle":"North Eastern Circle","region":"Shillong HQ Region"},{"pincode":"792129","office":"Hukanjuri B.O","district":"TIRAP","state":"ARUNACHAL PRADESH","circle":"North Eastern Circle","region":"Shillong HQ Region"},{"pincode":"791112","office":"Khyate","district":"PAPUM PARE","state":"ARUNACHAL PRADESH","circle":"North Eastern Circle","region":"Shillong HQ Region"},{"pincode":"791112","office":"Totpu - I","district":"PAPUM PARE","state":"ARUNACHAL PRADESH","circle":"North Eastern Circle","region":"Shillong HQ Region"},{"pincode":"792104","office":"Chaglagam B.O","district":"ANJAW","state":"ARUNACHAL PRADESH","circle":"North Eastern Circle","region":"Shillong HQ Region"},{"pincode":"792104","office":"Wallong B.O","district":"ANJAW","state":"ARUNACHAL PRADESH","circle":"North Eastern Circle","region":"Shillong HQ Region"},{"pincode":"792104","office":"Kaho","district":"ANJAW","state":"ARUNACHAL PRADESH","circle":"North Eastern Circle","region":"Shillong HQ Region"},{"pincode":"792104","office":"Krowti","district":"ANJAW","state":"ARUNACHAL PRADESH","circle":"North Eastern Circle","region":"Shillong HQ Region"},{"pincode":"792104","office":"Dhanbari","district":"ANJAW","state":"ARUNACHAL PRADESH","circle":"North Eastern Circle","region":"Shillong HQ Region"},{"pincode":"792104","office":"Walla","district":"ANJAW","state":"ARUNACHAL PRADESH","circle":"North Eastern Circle","region":"Shillong HQ Region"},{"pincode":"791103","office":"Komsing(Karo)","district":"EAST SIANG","state":"ARUNACHAL PRADESH","circle":"North Eastern Circle","region":"Shillong HQ Region"},{"pincode":"791103","office":"Lissing","district":"EAST SIANG","state":"ARUNACHAL PRADESH","circle":"North Eastern Circle","region":"Shillong HQ Region"},{"pincode":"790105","office":"Lhou B.O","district":"TAWANG","state":"ARUNACHAL PRADESH","circle":"North Eastern Circle","region":"Shillong HQ Region"},{"pincode":"790002","office":"Balemu B.O","district":"WEST KAMENG","state":"ARUNACHAL PRADESH","circle":"North Eastern Circle","region":"Shillong HQ Region"},{"pincode":"792130","office":"Kaimai B.O","district":"TIRAP","state":"ARUNACHAL PRADESH","circle":"North Eastern Circle","region":"Shillong HQ Region"},{"pincode":"792130","office":"Vally View B.O","district":"TIRAP","state":"ARUNACHAL PRADESH","circle":"North Eastern Circle","region":"Shillong HQ Region"},{"pincode":"792130","office":"Old Lainwang","district":"TIRAP","state":"ARUNACHAL PRADESH","circle":"North Eastern Circle","region":"Shillong HQ Region"},{"pincode":"791125","office":"Taramori","district":"LOWER SIANG","state":"ARUNACHAL PRADESH","circle":"North Eastern Circle","region":"Shillong HQ Region"},{"pincode":"791125","office":"Durpai","district":"LOWER SIANG","state":"ARUNACHAL PRADESH","circle":"North Eastern Circle","region":"Shillong HQ Region"},{"pincode":"791125","office":"Hime","district":"LOWER SIANG","state":"ARUNACHAL PRADESH","circle":"North Eastern Circle","region":"Shillong HQ Region"},{"pincode":"791125","office":"Bali Sori","district":"LOWER SIANG","state":"ARUNACHAL PRADESH","circle":"North Eastern Circle","region":"Shillong HQ Region"},{"pincode":"791125","office":"Kangku","district":"LOWER SIANG","state":"ARUNACHAL PRADESH","circle":"North Eastern Circle","region":"Shillong HQ Region"},{"pincode":"791125","office":"Upper Borajan","district":"LOWER SIANG","state":"ARUNACHAL PRADESH","circle":"North Eastern Circle","region":"Shillong HQ Region"},{"pincode":"791125","office":"Kamcham","district":"LOWER SIANG","state":"ARUNACHAL PRADESH","circle":"North Eastern Circle","region":"Shillong HQ Region"},{"pincode":"791001","office":"Ngomdir","district":"LOWER SIANG","state":"ARUNACHAL PRADESH","circle":"North Eastern Circle","region":"Shillong HQ Region"},{"pincode":"792131","office":"Tissa B.O","district":"LONGDING","state":"ARUNACHAL PRADESH","circle":"North Eastern Circle","region":"Shillong HQ Region"},{"pincode":"792131","office":"Rusa","district":"LONGDING","state":"ARUNACHAL PRADESH","circle":"North Eastern Circle","region":"Shillong HQ Region"},{"pincode":"792131","office":"Kamku Rusa","district":"LONGDING","state":"ARUNACHAL PRADESH","circle":"North Eastern Circle","region":"Shillong HQ Region"},{"pincode":"792131","office":"Kamnu","district":"LONGDING","state":"ARUNACHAL PRADESH","circle":"North Eastern Circle","region":"Shillong HQ Region"},{"pincode":"792131","office":"Longsom","district":"LONGDING","state":"ARUNACHAL PRADESH","circle":"North Eastern Circle","region":"Shillong HQ Region"},{"pincode":"792131","office":"Pumao","district":"LONGDING","state":"ARUNACHAL PRADESH","circle":"North Eastern Circle","region":"Shillong HQ Region"},{"pincode":"790106","office":"Gispu B.O","district":"TAWANG","state":"ARUNACHAL PRADESH","circle":"North Eastern Circle","region":"Shillong HQ Region"},{"pincode":"790106","office":"Mangnam","district":"TAWANG","state":"ARUNACHAL PRADESH","circle":"North Eastern Circle","region":"Shillong HQ Region"},{"pincode":"791104","office":"Silluk B.O","district":"EAST SIANG","state":"ARUNACHAL PRADESH","circle":"North Eastern Circle","region":"Shillong HQ Region"},{"pincode":"791003","office":"Rapum","district":"SHI YOMI","state":"ARUNACHAL PRADESH","circle":"North Eastern Circle","region":"Shillong HQ Region"},{"pincode":"791003","office":"Geching","district":"SHI YOMI","state":"ARUNACHAL PRADESH","circle":"North Eastern Circle","region":"Shillong HQ Region"},{"pincode":"791003","office":"Pidi H.Q.","district":"SHI YOMI","state":"ARUNACHAL PRADESH","circle":"North Eastern Circle","region":"Shillong HQ Region"},{"pincode":"792122","office":"Deban B.O","district":"CHANGLANG","state":"ARUNACHAL PRADESH","circle":"North Eastern Circle","region":"Shillong HQ Region"},{"pincode":"792122","office":"Manabhum B.O","district":"CHANGLANG","state":"ARUNACHAL PRADESH","circle":"North Eastern Circle","region":"Shillong HQ Region"},{"pincode":"792123","office":"Sangwal Khamlang","district":"CHANGLANG","state":"ARUNACHAL PRADESH","circle":"North Eastern Circle","region":"Shillong HQ Region"},{"pincode":"792123","office":"Tengpong","district":"CHANGLANG","state":"ARUNACHAL PRADESH","circle":"North Eastern Circle","region":"Shillong HQ Region"},{"pincode":"792123","office":"Nayang","district":"CHANGLANG","state":"ARUNACHAL PRADESH","circle":"North Eastern Circle","region":"Shillong HQ Region"},{"pincode":"792103","office":"Nanam B.O","district":"NAMSAI","state":"ARUNACHAL PRADESH","circle":"North Eastern Circle","region":"Shillong HQ Region"},{"pincode":"792103","office":"Udaipur B.O","district":"NAMSAI","state":"ARUNACHAL PRADESH","circle":"North Eastern Circle","region":"Shillong HQ Region"},{"pincode":"792103","office":"Wingko B.O","district":"NAMSAI","state":"ARUNACHAL PRADESH","circle":"North Eastern Circle","region":"Shillong HQ Region"},{"pincode":"791118","office":"Joru","district":"KURUNG KUMEY","state":"ARUNACHAL PRADESH","circle":"North Eastern Circle","region":"Shillong HQ Region"},{"pincode":"791118","office":"Ribung (Nguri)","district":"KURUNG KUMEY","state":"ARUNACHAL PRADESH","circle":"North Eastern Circle","region":"Shillong HQ Region"},{"pincode":"791118","office":"Lenko","district":"KURUNG KUMEY","state":"ARUNACHAL PRADESH","circle":"North Eastern Circle","region":"Shillong HQ Region"},{"pincode":"791118","office":"Rangha","district":"KURUNG KUMEY","state":"ARUNACHAL PRADESH","circle":"North Eastern Circle","region":"Shillong HQ Region"},{"pincode":"791118","office":"Magney","district":"KURUNG KUMEY","state":"ARUNACHAL PRADESH","circle":"North Eastern Circle","region":"Shillong HQ Region"},{"pincode":"791118","office":"Sangme","district":"KURUNG KUMEY","state":"ARUNACHAL PRADESH","circle":"North Eastern Circle","region":"Shillong HQ Region"},{"pincode":"791118","office":"Paji(Bodoriang)","district":"KURUNG KUMEY","state":"ARUNACHAL PRADESH","circle":"North Eastern Circle","region":"Shillong HQ Region"},{"pincode":"791118","office":"Neokhilanghi","district":"KURUNG KUMEY","state":"ARUNACHAL PRADESH","circle":"North Eastern Circle","region":"Shillong HQ Region"},{"pincode":"791118","office":"Harang","district":"KURUNG KUMEY","state":"ARUNACHAL PRADESH","circle":"North Eastern Circle","region":"Shillong HQ Region"},{"pincode":"791118","office":"Dome","district":"KURUNG KUMEY","state":"ARUNACHAL PRADESH","circle":"North Eastern Circle","region":"Shillong HQ Region"},{"pincode":"791118","office":"Raibalo","district":"KURUNG KUMEY","state":"ARUNACHAL PRADESH","circle":"North Eastern Circle","region":"Shillong HQ Region"},{"pincode":"791118","office":"Pokpu","district":"KURUNG KUMEY","state":"ARUNACHAL PRADESH","circle":"North Eastern Circle","region":"Shillong HQ Region"},{"pincode":"791118","office":"Bindo","district":"KURUNG KUMEY","state":"ARUNACHAL PRADESH","circle":"North Eastern Circle","region":"Shillong HQ Region"},{"pincode":"791118","office":"Korapu","district":"KURUNG KUMEY","state":"ARUNACHAL PRADESH","circle":"North Eastern Circle","region":"Shillong HQ Region"},{"pincode":"791118","office":"Pale","district":"KURUNG KUMEY","state":"ARUNACHAL PRADESH","circle":"North Eastern Circle","region":"Shillong HQ Region"},{"pincode":"791118","office":"Parsi-Parlo H.Q.","district":"KURUNG KUMEY","state":"ARUNACHAL PRADESH","circle":"North Eastern Circle","region":"Shillong HQ Region"},{"pincode":"791118","office":"Rengchi Poriang","district":"KURUNG KUMEY","state":"ARUNACHAL PRADESH","circle":"North Eastern Circle","region":"Shillong HQ Region"},{"pincode":"791118","office":"Nyokuriang","district":"KURUNG KUMEY","state":"ARUNACHAL PRADESH","circle":"North Eastern Circle","region":"Shillong HQ Region"},{"pincode":"791118","office":"Patuk","district":"KURUNG KUMEY","state":"ARUNACHAL PRADESH","circle":"North Eastern Circle","region":"Shillong HQ Region"},{"pincode":"791118","office":"Nabiya","district":"KURUNG KUMEY","state":"ARUNACHAL PRADESH","circle":"North Eastern Circle","region":"Shillong HQ Region"},{"pincode":"791118","office":"Nayeng","district":"KURUNG KUMEY","state":"ARUNACHAL PRADESH","circle":"North Eastern Circle","region":"Shillong HQ Region"},{"pincode":"791118","office":"Ha","district":"KURUNG KUMEY","state":"ARUNACHAL PRADESH","circle":"North Eastern Circle","region":"Shillong HQ Region"},{"pincode":"791118","office":"Tami","district":"KURUNG KUMEY","state":"ARUNACHAL PRADESH","circle":"North Eastern Circle","region":"Shillong HQ Region"},{"pincode":"791118","office":"Raha","district":"KURUNG KUMEY","state":"ARUNACHAL PRADESH","circle":"North Eastern Circle","region":"Shillong HQ Region"},{"pincode":"791118","office":"Sartam","district":"KURUNG KUMEY","state":"ARUNACHAL PRADESH","circle":"North Eastern Circle","region":"Shillong HQ Region"},{"pincode":"791118","office":"Gimba","district":"KURUNG KUMEY","state":"ARUNACHAL PRADESH","circle":"North Eastern Circle","region":"Shillong HQ Region"},{"pincode":"791118","office":"Pitayarlo","district":"KURUNG KUMEY","state":"ARUNACHAL PRADESH","circle":"North Eastern Circle","region":"Shillong HQ Region"},{"pincode":"791118","office":"Lota","district":"KURUNG KUMEY","state":"ARUNACHAL PRADESH","circle":"North Eastern Circle","region":"Shillong HQ Region"},{"pincode":"791118","office":"Kuwa","district":"KURUNG KUMEY","state":"ARUNACHAL PRADESH","circle":"North Eastern Circle","region":"Shillong HQ Region"},{"pincode":"791102","office":"Ledum B.O","district":"EAST SIANG","state":"ARUNACHAL PRADESH","circle":"North Eastern Circle","region":"Shillong HQ Region"},{"pincode":"791102","office":"Riga B.O","district":"SIANG","state":"ARUNACHAL PRADESH","circle":"North Eastern Circle","region":"Shillong HQ Region"},{"pincode":"791102","office":"Niglok","district":"EAST SIANG","state":"ARUNACHAL PRADESH","circle":"North Eastern Circle","region":"Shillong HQ Region"},{"pincode":"791102","office":"Dapi","district":"EAST SIANG","state":"ARUNACHAL PRADESH","circle":"North Eastern Circle","region":"Shillong HQ Region"},{"pincode":"791113","office":"Bormai","district":"PAPUM PARE","state":"ARUNACHAL PRADESH","circle":"North Eastern Circle","region":"Shillong HQ Region"},{"pincode":"791119","office":"Yazali B.O","district":"LOWER SUBANSIRI","state":"ARUNACHAL PRADESH","circle":"North Eastern Circle","region":"Shillong HQ Region"},{"pincode":"792110","office":"Abango B.O","district":"LOWER DIBANG VALLEY","state":"ARUNACHAL PRADESH","circle":"North Eastern Circle","region":"Shillong HQ Region"},{"pincode":"792110","office":"Bolung B.O","district":"LOWER DIBANG VALLEY","state":"ARUNACHAL PRADESH","circle":"North Eastern Circle","region":"Shillong HQ Region"},{"pincode":"792110","office":"Iduli B.O","district":"LOWER DIBANG VALLEY","state":"ARUNACHAL PRADESH","circle":"North Eastern Circle","region":"Shillong HQ Region"},{"pincode":"792110","office":"Jia B.O","district":"LOWER DIBANG VALLEY","state":"ARUNACHAL PRADESH","circle":"North Eastern Circle","region":"Shillong HQ Region"},{"pincode":"792110","office":"Santipur B.O","district":"LOWER DIBANG VALLEY","state":"ARUNACHAL PRADESH","circle":"North Eastern Circle","region":"Shillong HQ Region"},{"pincode":"792110","office":"Jambupani","district":"DIBANG VALLEY","state":"ARUNACHAL PRADESH","circle":"North Eastern Circle","region":"Shillong HQ Region"},{"pincode":"792110","office":"Cheta - II","district":"DIBANG VALLEY","state":"ARUNACHAL PRADESH","circle":"North Eastern Circle","region":"Shillong HQ Region"},{"pincode":"792110","office":"Chidu","district":"DIBANG VALLEY","state":"ARUNACHAL PRADESH","circle":"North Eastern Circle","region":"Shillong HQ Region"},{"pincode":"790103","office":"Khari","district":"PAKKE KESSANG","state":"ARUNACHAL PRADESH","circle":"North Eastern Circle","region":"Shillong HQ Region"},{"pincode":"790103","office":"Gumte","district":"PAKKE KESSANG","state":"ARUNACHAL PRADESH","circle":"North Eastern Circle","region":"Shillong HQ Region"},{"pincode":"790103","office":"Keko","district":"PAKKE KESSANG","state":"ARUNACHAL PRADESH","circle":"North Eastern Circle","region":"Shillong HQ Region"},{"pincode":"790103","office":"Palov","district":"PAKKE KESSANG","state":"ARUNACHAL PRADESH","circle":"North Eastern Circle","region":"Shillong HQ Region"},{"pincode":"790103","office":"Longpong","district":"PAKKE KESSANG","state":"ARUNACHAL PRADESH","circle":"North Eastern Circle","region":"Shillong HQ Region"},{"pincode":"790102","office":"Bameng B.O","district":"EAST KAMENG","state":"ARUNACHAL PRADESH","circle":"North Eastern Circle","region":"Shillong HQ Region"},{"pincode":"790102","office":"Lada B.O","district":"EAST KAMENG","state":"ARUNACHAL PRADESH","circle":"North Eastern Circle","region":"Shillong HQ Region"},{"pincode":"790102","office":"Pipu-dipu B.O","district":"EAST KAMENG","state":"ARUNACHAL PRADESH","circle":"North Eastern Circle","region":"Shillong HQ Region"},{"pincode":"790102","office":"Seba","district":"EAST KAMENG","state":"ARUNACHAL PRADESH","circle":"North Eastern Circle","region":"Shillong HQ Region"},{"pincode":"790102","office":"Lumdung","district":"EAST KAMENG","state":"ARUNACHAL PRADESH","circle":"North Eastern Circle","region":"Shillong HQ Region"},{"pincode":"790102","office":"Pabua","district":"EAST KAMENG","state":"ARUNACHAL PRADESH","circle":"North Eastern Circle","region":"Shillong HQ Region"},{"pincode":"790102","office":"Bisai","district":"EAST KAMENG","state":"ARUNACHAL PRADESH","circle":"North Eastern Circle","region":"Shillong HQ Region"},{"pincode":"790102","office":"Sallang","district":"EAST KAMENG","state":"ARUNACHAL PRADESH","circle":"North Eastern Circle","region":"Shillong HQ Region"},{"pincode":"790102","office":"Rojo","district":"EAST KAMENG","state":"ARUNACHAL PRADESH","circle":"North Eastern Circle","region":"Shillong HQ Region"},{"pincode":"790102","office":"Londa","district":"EAST KAMENG","state":"ARUNACHAL PRADESH","circle":"North Eastern Circle","region":"Shillong HQ Region"},{"pincode":"790102","office":"40 K.M. Camp","district":"EAST KAMENG","state":"ARUNACHAL PRADESH","circle":"North Eastern Circle","region":"Shillong HQ Region"},{"pincode":"790102","office":"Lochung","district":"EAST KAMENG","state":"ARUNACHAL PRADESH","circle":"North Eastern Circle","region":"Shillong HQ Region"},{"pincode":"790102","office":"Kapu Dada","district":"EAST KAMENG","state":"ARUNACHAL PRADESH","circle":"North Eastern Circle","region":"Shillong HQ Region"},{"pincode":"790102","office":"Serewa","district":"EAST KAMENG","state":"ARUNACHAL PRADESH","circle":"North Eastern Circle","region":"Shillong HQ Region"},{"pincode":"790102","office":"Jejudada","district":"EAST KAMENG","state":"ARUNACHAL PRADESH","circle":"North Eastern Circle","region":"Shillong HQ Region"},{"pincode":"790102","office":"Dipu Lamgu","district":"EAST KAMENG","state":"ARUNACHAL PRADESH","circle":"North Eastern Circle","region":"Shillong HQ Region"},{"pincode":"790102","office":"Dokre Gyadi","district":"EAST KAMENG","state":"ARUNACHAL PRADESH","circle":"North Eastern Circle","region":"Shillong HQ Region"},{"pincode":"790102","office":"Wada Bagang","district":"EAST KAMENG","state":"ARUNACHAL PRADESH","circle":"North Eastern Circle","region":"Shillong HQ Region"},{"pincode":"790102","office":"Doripu Bagang","district":"EAST KAMENG","state":"ARUNACHAL PRADESH","circle":"North Eastern Circle","region":"Shillong HQ Region"},{"pincode":"790102","office":"Dao","district":"EAST KAMENG","state":"ARUNACHAL PRADESH","circle":"North Eastern Circle","region":"Shillong HQ Region"},{"pincode":"790102","office":"Lao","district":"EAST KAMENG","state":"ARUNACHAL PRADESH","circle":"North Eastern Circle","region":"Shillong HQ Region"},{"pincode":"790102","office":"Tapiaso","district":"EAST KAMENG","state":"ARUNACHAL PRADESH","circle":"North Eastern Circle","region":"Shillong HQ Region"},{"pincode":"790102","office":"Nyoing","district":"EAST KAMENG","state":"ARUNACHAL PRADESH","circle":"North Eastern Circle","region":"Shillong HQ Region"},{"pincode":"790104","office":"Sakpret B.O","district":"TAWANG","state":"ARUNACHAL PRADESH","circle":"North Eastern Circle","region":"Shillong HQ Region"},{"pincode":"790104","office":"8 K.M. Labour Camp","district":"TAWANG","state":"ARUNACHAL PRADESH","circle":"North Eastern Circle","region":"Shillong HQ Region"},{"pincode":"790104","office":"Shyo","district":"TAWANG","state":"ARUNACHAL PRADESH","circle":"North Eastern Circle","region":"Shillong HQ Region"},{"pincode":"790104","office":"Kyableng","district":"TAWANG","state":"ARUNACHAL PRADESH","circle":"North Eastern Circle","region":"Shillong HQ Region"},{"pincode":"790116","office":"Kimi Village","district":"WEST KAMENG","state":"ARUNACHAL PRADESH","circle":"North Eastern Circle","region":"Shillong HQ Region"},{"pincode":"792001","office":"Changliang B.O","district":"LOHIT","state":"ARUNACHAL PRADESH","circle":"North Eastern Circle","region":"Shillong HQ Region"},{"pincode":"792001","office":"Loiliang B.O","district":"LOHIT","state":"ARUNACHAL PRADESH","circle":"North Eastern Circle","region":"Shillong HQ Region"},{"pincode":"792001","office":"Danglat","district":"LOHIT","state":"ARUNACHAL PRADESH","circle":"North Eastern Circle","region":"Shillong HQ Region"},{"pincode":"792001","office":"Soiliang","district":"LOHIT","state":"ARUNACHAL PRADESH","circle":"North Eastern Circle","region":"Shillong HQ Region"},{"pincode":"792001","office":"Mekaliang","district":"LOHIT","state":"ARUNACHAL PRADESH","circle":"North Eastern Circle","region":"Shillong HQ Region"},{"pincode":"792001","office":"Tillai","district":"LOHIT","state":"ARUNACHAL PRADESH","circle":"North Eastern Circle","region":"Shillong HQ Region"},{"pincode":"792001","office":"Thowang","district":"LOHIT","state":"ARUNACHAL PRADESH","circle":"North Eastern Circle","region":"Shillong HQ Region"},{"pincode":"791105","office":"Ningging","district":"UPPER SIANG","state":"ARUNACHAL PRADESH","circle":"North Eastern Circle","region":"Shillong HQ Region"},{"pincode":"791002","office":"Palling H.Q.","district":"UPPER SIANG","state":"ARUNACHAL PRADESH","circle":"North Eastern Circle","region":"Shillong HQ Region"},{"pincode":"791105","office":"Nyokong","district":"UPPER SIANG","state":"ARUNACHAL PRADESH","circle":"North Eastern Circle","region":"Shillong HQ Region"},{"pincode":"791105","office":"Gette","district":"UPPER SIANG","state":"ARUNACHAL PRADESH","circle":"North Eastern Circle","region":"Shillong HQ Region"},{"pincode":"791002","office":"Janbo","district":"UPPER SIANG","state":"ARUNACHAL PRADESH","circle":"North Eastern Circle","region":"Shillong HQ Region"},{"pincode":"791002","office":"Mariyang B.O","district":"UPPER SIANG","state":"ARUNACHAL PRADESH","circle":"North Eastern Circle","region":"Shillong HQ Region"},{"pincode":"791002","office":"Komkar(Rasing)","district":"UPPER SIANG","state":"ARUNACHAL PRADESH","circle":"North Eastern Circle","region":"Shillong HQ Region"},{"pincode":"791002","office":"Damro-Gidum","district":"UPPER SIANG","state":"ARUNACHAL PRADESH","circle":"North Eastern Circle","region":"Shillong HQ Region"},{"pincode":"791002","office":"Sibum","district":"UPPER SIANG","state":"ARUNACHAL PRADESH","circle":"North Eastern Circle","region":"Shillong HQ Region"},{"pincode":"791002","office":"Silli","district":"UPPER SIANG","state":"ARUNACHAL PRADESH","circle":"North Eastern Circle","region":"Shillong HQ Region"},{"pincode":"791120","office":"Old Ziro B.O","district":"LOWER SUBANSIRI","state":"ARUNACHAL PRADESH","circle":"North Eastern Circle","region":"Shillong HQ Region"},{"pincode":"791120","office":"Talo B.O","district":"LOWER SUBANSIRI","state":"ARUNACHAL PRADESH","circle":"North Eastern Circle","region":"Shillong HQ Region"},{"pincode":"791120","office":"RAKA B.O","district":"LOWER SUBANSIRI","state":"ARUNACHAL PRADESH","circle":"North Eastern Circle","region":"Shillong HQ Region"},{"pincode":"791120","office":"Tepi","district":"LOWER SUBANSIRI","state":"ARUNACHAL PRADESH","circle":"North Eastern Circle","region":"Shillong HQ Region"},{"pincode":"791120","office":"Tod","district":"LOWER SUBANSIRI","state":"ARUNACHAL PRADESH","circle":"North Eastern Circle","region":"Shillong HQ Region"},{"pincode":"791120","office":"Dem - II","district":"LOWER SUBANSIRI","state":"ARUNACHAL PRADESH","circle":"North Eastern Circle","region":"Shillong HQ Region"},{"pincode":"791120","office":"New Paniya","district":"LOWER SUBANSIRI","state":"ARUNACHAL PRADESH","circle":"North Eastern Circle","region":"Shillong HQ Region"},{"pincode":"791120","office":"Libia","district":"LOWER SUBANSIRI","state":"ARUNACHAL PRADESH","circle":"North Eastern Circle","region":"Shillong HQ Region"},{"pincode":"791120","office":"Chakbang","district":"LOWER SUBANSIRI","state":"ARUNACHAL PRADESH","circle":"North Eastern Circle","region":"Shillong HQ Region"},{"pincode":"791114","office":"De - Dolo","district":"PAPUM PARE","state":"ARUNACHAL PRADESH","circle":"North Eastern Circle","region":"Shillong HQ Region"},{"pincode":"791114","office":"Bobia","district":"PAPUM PARE","state":"ARUNACHAL PRADESH","circle":"North Eastern Circle","region":"Shillong HQ Region"},{"pincode":"791114","office":"Ressing","district":"PAPUM PARE","state":"ARUNACHAL PRADESH","circle":"North Eastern Circle","region":"Shillong HQ Region"},{"pincode":"792101","office":"Anini S.O","district":"DIBANG VALLEY","state":"ARUNACHAL PRADESH","circle":"North Eastern Circle","region":"Shillong HQ Region"},{"pincode":"792102","office":"Chowkham S.O","district":"NAMSAI","state":"ARUNACHAL PRADESH","circle":"North Eastern Circle","region":"Shillong HQ Region"},{"pincode":"791122","office":"Daporijo S.O","district":"UPPER SUBANSIRI","state":"ARUNACHAL PRADESH","circle":"North Eastern Circle","region":"Shillong HQ Region"},{"pincode":"790101","office":"Dirang S.O","district":"WEST KAMENG","state":"ARUNACHAL PRADESH","circle":"North Eastern Circle","region":"Shillong HQ Region"},{"pincode":"791112","office":"Doimukh S.O","district":"PAPUM PARE","state":"ARUNACHAL PRADESH","circle":"North Eastern Circle","region":"Shillong HQ Region"},{"pincode":"792121","office":"Jairampur S.O (Changlang)","district":"CHANGLANG","state":"ARUNACHAL PRADESH","circle":"North Eastern Circle","region":"Shillong HQ Region"},{"pincode":"791121","office":"Kimin S.O","district":"PAPUM PARE","state":"ARUNACHAL PRADESH","circle":"North Eastern Circle","region":"Shillong HQ Region"},{"pincode":"792131","office":"Longding S.O","district":"LONGDING","state":"ARUNACHAL PRADESH","circle":"North Eastern Circle","region":"Shillong HQ Region"},{"pincode":"791003","office":"Mechuka S.O","district":"SHI YOMI","state":"ARUNACHAL PRADESH","circle":"North Eastern Circle","region":"Shillong HQ Region"},{"pincode":"791110","office":"Naharlagun S.O","district":"PAPUM PARE","state":"ARUNACHAL PRADESH","circle":"North Eastern Circle","region":"Shillong HQ Region"},{"pincode":"790104","office":"Tawang S.O","district":"TAWANG","state":"ARUNACHAL PRADESH","circle":"North Eastern Circle","region":"Shillong HQ Region"},{"pincode":"792001","office":"Tezu S.O","district":"LOHIT","state":"ARUNACHAL PRADESH","circle":"North Eastern Circle","region":"Shillong HQ Region"},{"pincode":"792124","office":"KHARSANG SO","district":"PAPUM PARE","state":"ARUNACHAL PRADESH","circle":"North Eastern Circle","region":"Shillong HQ Region"},{"pincode":"791001","office":"Monigong B.O","district":"SHI YOMI","state":"ARUNACHAL PRADESH","circle":"North Eastern Circle","region":"Shillong HQ Region"},{"pincode":"791001","office":"Nikte B.O","district":"WEST SIANG","state":"ARUNACHAL PRADESH","circle":"North Eastern Circle","region":"Shillong HQ Region"},{"pincode":"791001","office":"Vivek Nagar B.O","district":"WEST SIANG","state":"ARUNACHAL PRADESH","circle":"North Eastern Circle","region":"Shillong HQ Region"},{"pincode":"791001","office":"Kamba H.Q.","district":"WEST SIANG","state":"ARUNACHAL PRADESH","circle":"North Eastern Circle","region":"Shillong HQ Region"},{"pincode":"791001","office":"Yogong","district":"WEST SIANG","state":"ARUNACHAL PRADESH","circle":"North Eastern Circle","region":"Shillong HQ Region"},{"pincode":"791001","office":"Kamdi","district":"WEST SIANG","state":"ARUNACHAL PRADESH","circle":"North Eastern Circle","region":"Shillong HQ Region"},{"pincode":"792110","office":"Mipido","district":"DIBANG VALLEY","state":"ARUNACHAL PRADESH","circle":"North Eastern Circle","region":"Shillong HQ Region"},{"pincode":"792110","office":"Ambolin","district":"DIBANG VALLEY","state":"ARUNACHAL PRADESH","circle":"North Eastern Circle","region":"Shillong HQ Region"},{"pincode":"792110","office":"Arunli","district":"DIBANG VALLEY","state":"ARUNACHAL PRADESH","circle":"North Eastern Circle","region":"Shillong HQ Region"},{"pincode":"792110","office":"Apunli","district":"DIBANG VALLEY","state":"ARUNACHAL PRADESH","circle":"North Eastern Circle","region":"Shillong HQ Region"},{"pincode":"792110","office":"Amuchi","district":"DIBANG VALLEY","state":"ARUNACHAL PRADESH","circle":"North Eastern Circle","region":"Shillong HQ Region"},{"pincode":"792110","office":"Aunli","district":"DIBANG VALLEY","state":"ARUNACHAL PRADESH","circle":"North Eastern Circle","region":"Shillong HQ Region"},{"pincode":"792110","office":"Chipuli","district":"DIBANG VALLEY","state":"ARUNACHAL PRADESH","circle":"North Eastern Circle","region":"Shillong HQ Region"},{"pincode":"792110","office":"Aruko","district":"DIBANG VALLEY","state":"ARUNACHAL PRADESH","circle":"North Eastern Circle","region":"Shillong HQ Region"},{"pincode":"792110","office":"Maliney","district":"DIBANG VALLEY","state":"ARUNACHAL PRADESH","circle":"North Eastern Circle","region":"Shillong HQ Region"},{"pincode":"792110","office":"New Echanli","district":"DIBANG VALLEY","state":"ARUNACHAL PRADESH","circle":"North Eastern Circle","region":"Shillong HQ Region"},{"pincode":"792110","office":"Aoli","district":"DIBANG VALLEY","state":"ARUNACHAL PRADESH","circle":"North Eastern Circle","region":"Shillong HQ Region"},{"pincode":"791123","office":"Sonajuli B.O","district":"PAPUM PARE","state":"ARUNACHAL PRADESH","circle":"North Eastern Circle","region":"Shillong HQ Region"},{"pincode":"791123","office":"Chakma - VI","district":"PAPUM PARE","state":"ARUNACHAL PRADESH","circle":"North Eastern Circle","region":"Shillong HQ Region"},{"pincode":"791101","office":"Dali B.O","district":"LEPARADA","state":"ARUNACHAL PRADESH","circle":"North Eastern Circle","region":"Shillong HQ Region"},{"pincode":"791101","office":"Degom","district":"WEST SIANG","state":"ARUNACHAL PRADESH","circle":"North Eastern Circle","region":"Shillong HQ Region"},{"pincode":"791101","office":"Ratak Gamlin","district":"WEST SIANG","state":"ARUNACHAL PRADESH","circle":"North Eastern Circle","region":"Shillong HQ Region"},{"pincode":"790114","office":"Khellong B.O","district":"WEST KAMENG","state":"ARUNACHAL PRADESH","circle":"North Eastern Circle","region":"Shillong HQ Region"},{"pincode":"790114","office":"Lower Bhalukpong","district":"WEST KAMENG","state":"ARUNACHAL PRADESH","circle":"North Eastern Circle","region":"Shillong HQ Region"},{"pincode":"790114","office":"Kamengbari","district":"WEST KAMENG","state":"ARUNACHAL PRADESH","circle":"North Eastern Circle","region":"Shillong HQ Region"},{"pincode":"790114","office":"Painaktang","district":"WEST KAMENG","state":"ARUNACHAL PRADESH","circle":"North Eastern Circle","region":"Shillong HQ Region"},{"pincode":"790114","office":"Yollongripam","district":"WEST KAMENG","state":"ARUNACHAL PRADESH","circle":"North Eastern Circle","region":"Shillong HQ Region"},{"pincode":"792056","office":"Rajanagar B.O","district":"CHANGLANG","state":"ARUNACHAL PRADESH","circle":"North Eastern Circle","region":"Shillong HQ Region"},{"pincode":"792120","office":"Namdang B.O","district":"CHANGLANG","state":"ARUNACHAL PRADESH","circle":"North Eastern Circle","region":"Shillong HQ Region"},{"pincode":"792120","office":"Jongji Havi","district":"CHANGLANG","state":"ARUNACHAL PRADESH","circle":"North Eastern Circle","region":"Shillong HQ Region"},{"pincode":"792120","office":"Rangkatu & Kengkhu Tea Estate (Longpang)","district":"CHANGLANG","state":"ARUNACHAL PRADESH","circle":"North Eastern Circle","region":"Shillong HQ Region"},{"pincode":"792120","office":"Chokdok - II","district":"CHANGLANG","state":"ARUNACHAL PRADESH","circle":"North Eastern Circle","region":"Shillong HQ Region"},{"pincode":"792120","office":"Rangran - I","district":"CHANGLANG","state":"ARUNACHAL PRADESH","circle":"North Eastern Circle","region":"Shillong HQ Region"},{"pincode":"792120","office":"Rima","district":"CHANGLANG","state":"ARUNACHAL PRADESH","circle":"North Eastern Circle","region":"Shillong HQ Region"},{"pincode":"792120","office":"Sasum I","district":"CHANGLANG","state":"ARUNACHAL PRADESH","circle":"North Eastern Circle","region":"Shillong HQ Region"},{"pincode":"792102","office":"Wakro B.O","district":"LOHIT","state":"ARUNACHAL PRADESH","circle":"North Eastern Circle","region":"Shillong HQ Region"},{"pincode":"791122","office":"Dadu","district":"UPPER SUBANSIRI","state":"ARUNACHAL PRADESH","circle":"North Eastern Circle","region":"Shillong HQ Region"},{"pincode":"791122","office":"Lingbing","district":"UPPER SUBANSIRI","state":"ARUNACHAL PRADESH","circle":"North Eastern Circle","region":"Shillong HQ Region"},{"pincode":"791122","office":"Mosing","district":"UPPER SUBANSIRI","state":"ARUNACHAL PRADESH","circle":"North Eastern Circle","region":"Shillong HQ Region"},{"pincode":"791122","office":"Medamba Rai","district":"UPPER SUBANSIRI","state":"ARUNACHAL PRADESH","circle":"North Eastern Circle","region":"Shillong HQ Region"},{"pincode":"791122","office":"Lingi","district":"UPPER SUBANSIRI","state":"ARUNACHAL PRADESH","circle":"North Eastern Circle","region":"Shillong HQ Region"},{"pincode":"791122","office":"Jingbarai","district":"UPPER SUBANSIRI","state":"ARUNACHAL PRADESH","circle":"North Eastern Circle","region":"Shillong HQ Region"},{"pincode":"791122","office":"Ketha","district":"UPPER SUBANSIRI","state":"ARUNACHAL PRADESH","circle":"North Eastern Circle","region":"Shillong HQ Region"},{"pincode":"791122","office":"Byannia","district":"UPPER SUBANSIRI","state":"ARUNACHAL PRADESH","circle":"North Eastern Circle","region":"Shillong HQ Region"},{"pincode":"791122","office":"Upper Ngaba","district":"UPPER SUBANSIRI","state":"ARUNACHAL PRADESH","circle":"North Eastern Circle","region":"Shillong HQ Region"},{"pincode":"791122","office":"Darba","district":"UPPER SUBANSIRI","state":"ARUNACHAL PRADESH","circle":"North Eastern Circle","region":"Shillong HQ Region"},{"pincode":"791122","office":"Nogi","district":"UPPER SUBANSIRI","state":"ARUNACHAL PRADESH","circle":"North Eastern Circle","region":"Shillong HQ Region"},{"pincode":"791122","office":"Dedu","district":"UPPER SUBANSIRI","state":"ARUNACHAL PRADESH","circle":"North Eastern Circle","region":"Shillong HQ Region"},{"pincode":"791122","office":"Neignu","district":"UPPER SUBANSIRI","state":"ARUNACHAL PRADESH","circle":"North Eastern Circle","region":"Shillong HQ Region"},{"pincode":"791122","office":"Jarjari","district":"UPPER SUBANSIRI","state":"ARUNACHAL PRADESH","circle":"North Eastern Circle","region":"Shillong HQ Region"},{"pincode":"791122","office":"Gichi Dignium","district":"UPPER SUBANSIRI","state":"ARUNACHAL PRADESH","circle":"North Eastern Circle","region":"Shillong HQ Region"},{"pincode":"791122","office":"Siga","district":"UPPER SUBANSIRI","state":"ARUNACHAL PRADESH","circle":"North Eastern Circle","region":"Shillong HQ Region"},{"pincode":"791122","office":"Kari","district":"UPPER SUBANSIRI","state":"ARUNACHAL PRADESH","circle":"North Eastern Circle","region":"Shillong HQ Region"},{"pincode":"791122","office":"Dabu","district":"UPPER SUBANSIRI","state":"ARUNACHAL PRADESH","circle":"North Eastern Circle","region":"Shillong HQ Region"},{"pincode":"791122","office":"Old Richi","district":"UPPER SUBANSIRI","state":"ARUNACHAL PRADESH","circle":"North Eastern Circle","region":"Shillong HQ Region"},{"pincode":"791122","office":"Nidak","district":"UPPER SUBANSIRI","state":"ARUNACHAL PRADESH","circle":"North Eastern Circle","region":"Shillong HQ Region"},{"pincode":"791122","office":"Pomte Bage","district":"UPPER SUBANSIRI","state":"ARUNACHAL PRADESH","circle":"North Eastern Circle","region":"Shillong HQ Region"},{"pincode":"791122","office":"Aya Nirin","district":"UPPER SUBANSIRI","state":"ARUNACHAL PRADESH","circle":"North Eastern Circle","region":"Shillong HQ Region"},{"pincode":"791122","office":"Param","district":"UPPER SUBANSIRI","state":"ARUNACHAL PRADESH","circle":"North Eastern Circle","region":"Shillong HQ Region"},{"pincode":"791122","office":"Paja","district":"UPPER SUBANSIRI","state":"ARUNACHAL PRADESH","circle":"North Eastern Circle","region":"Shillong HQ Region"},{"pincode":"791122","office":"Laigi","district":"UPPER SUBANSIRI","state":"ARUNACHAL PRADESH","circle":"North Eastern Circle","region":"Shillong HQ Region"},{"pincode":"792129","office":"Namsang B.O","district":"TIRAP","state":"ARUNACHAL PRADESH","circle":"North Eastern Circle","region":"Shillong HQ Region"},{"pincode":"790101","office":"Lish B.O","district":"WEST KAMENG","state":"ARUNACHAL PRADESH","circle":"North Eastern Circle","region":"Shillong HQ Region"},{"pincode":"790101","office":"Sangti B.O","district":"WEST KAMENG","state":"ARUNACHAL PRADESH","circle":"North Eastern Circle","region":"Shillong HQ Region"},{"pincode":"790101","office":"Senge B.O","district":"WEST KAMENG","state":"ARUNACHAL PRADESH","circle":"North Eastern Circle","region":"Shillong HQ Region"},{"pincode":"791112","office":"Midpu B.O","district":"PAPUM PARE","state":"ARUNACHAL PRADESH","circle":"North Eastern Circle","region":"Shillong HQ Region"},{"pincode":"791112","office":"Khemling - I","district":"PAPUM PARE","state":"ARUNACHAL PRADESH","circle":"North Eastern Circle","region":"Shillong HQ Region"},{"pincode":"791112","office":"Parang(Paring)","district":"PAPUM PARE","state":"ARUNACHAL PRADESH","circle":"North Eastern Circle","region":"Shillong HQ Region"},{"pincode":"792104","office":"Chamemla","district":"ANJAW","state":"ARUNACHAL PRADESH","circle":"North Eastern Circle","region":"Shillong HQ Region"},{"pincode":"792104","office":"Krobma","district":"ANJAW","state":"ARUNACHAL PRADESH","circle":"North Eastern Circle","region":"Shillong HQ Region"},{"pincode":"792104","office":"Manchal","district":"ANJAW","state":"ARUNACHAL PRADESH","circle":"North Eastern Circle","region":"Shillong HQ Region"},{"pincode":"792104","office":"Loiliang","district":"ANJAW","state":"ARUNACHAL PRADESH","circle":"North Eastern Circle","region":"Shillong HQ Region"},{"pincode":"792104","office":"Roiliang","district":"ANJAW","state":"ARUNACHAL PRADESH","circle":"North Eastern Circle","region":"Shillong HQ Region"},{"pincode":"792104","office":"Walong H.Q.","district":"ANJAW","state":"ARUNACHAL PRADESH","circle":"North Eastern Circle","region":"Shillong HQ Region"},{"pincode":"792104","office":"Walong BRTF Camp","district":"ANJAW","state":"ARUNACHAL PRADESH","circle":"North Eastern Circle","region":"Shillong HQ Region"},{"pincode":"792104","office":"Tamblu","district":"ANJAW","state":"ARUNACHAL PRADESH","circle":"North Eastern Circle","region":"Shillong HQ Region"},{"pincode":"792104","office":"Wamliang","district":"ANJAW","state":"ARUNACHAL PRADESH","circle":"North Eastern Circle","region":"Shillong HQ Region"},{"pincode":"792104","office":"Halaikrong","district":"ANJAW","state":"ARUNACHAL PRADESH","circle":"North Eastern Circle","region":"Shillong HQ Region"},{"pincode":"792104","office":"Sanglang","district":"ANJAW","state":"ARUNACHAL PRADESH","circle":"North Eastern Circle","region":"Shillong HQ Region"},{"pincode":"792104","office":"Bhaw","district":"ANJAW","state":"ARUNACHAL PRADESH","circle":"North Eastern Circle","region":"Shillong HQ Region"},{"pincode":"791103","office":"Yibuk","district":"EAST SIANG","state":"ARUNACHAL PRADESH","circle":"North Eastern Circle","region":"Shillong HQ Region"},{"pincode":"791103","office":"Pangin H.Q.","district":"EAST SIANG","state":"ARUNACHAL PRADESH","circle":"North Eastern Circle","region":"Shillong HQ Region"},{"pincode":"791103","office":"Pangi","district":"EAST SIANG","state":"ARUNACHAL PRADESH","circle":"North Eastern Circle","region":"Shillong HQ Region"},{"pincode":"790105","office":"Mukto B.O","district":"TAWANG","state":"ARUNACHAL PRADESH","circle":"North Eastern Circle","region":"Shillong HQ Region"},{"pincode":"792130","office":"Khela B.O","district":"TIRAP","state":"ARUNACHAL PRADESH","circle":"North Eastern Circle","region":"Shillong HQ Region"},{"pincode":"792130","office":"Thinsa B.O","district":"TIRAP","state":"ARUNACHAL PRADESH","circle":"North Eastern Circle","region":"Shillong HQ Region"},{"pincode":"792130","office":"Tupi B.O","district":"TIRAP","state":"ARUNACHAL PRADESH","circle":"North Eastern Circle","region":"Shillong HQ Region"},{"pincode":"792130","office":"New Lainwang","district":"TIRAP","state":"ARUNACHAL PRADESH","circle":"North Eastern Circle","region":"Shillong HQ Region"},{"pincode":"792130","office":"Khowathong","district":"TIRAP","state":"ARUNACHAL PRADESH","circle":"North Eastern Circle","region":"Shillong HQ Region"},{"pincode":"792130","office":"Tutnyu","district":"TIRAP","state":"ARUNACHAL PRADESH","circle":"North Eastern Circle","region":"Shillong HQ Region"},{"pincode":"791125","office":"Garu B.O","district":"LOWER SIANG","state":"ARUNACHAL PRADESH","circle":"North Eastern Circle","region":"Shillong HQ Region"},{"pincode":"791125","office":"Gensi","district":"LOWER SIANG","state":"ARUNACHAL PRADESH","circle":"North Eastern Circle","region":"Shillong HQ Region"},{"pincode":"791125","office":"Liru","district":"LOWER SIANG","state":"ARUNACHAL PRADESH","circle":"North Eastern Circle","region":"Shillong HQ Region"},{"pincode":"791125","office":"Mingmang","district":"LOWER SIANG","state":"ARUNACHAL PRADESH","circle":"North Eastern Circle","region":"Shillong HQ Region"},{"pincode":"791125","office":"Tabi Ripo","district":"LOWER SIANG","state":"ARUNACHAL PRADESH","circle":"North Eastern Circle","region":"Shillong HQ Region"},{"pincode":"791125","office":"Lipin","district":"LOWER SIANG","state":"ARUNACHAL PRADESH","circle":"North Eastern Circle","region":"Shillong HQ Region"},{"pincode":"792131","office":"Minthong B.O","district":"LONGDING","state":"ARUNACHAL PRADESH","circle":"North Eastern Circle","region":"Shillong HQ Region"},{"pincode":"792131","office":"Panchou B.O","district":"LONGDING","state":"ARUNACHAL PRADESH","circle":"North Eastern Circle","region":"Shillong HQ Region"},{"pincode":"792131","office":"Wakka B.O","district":"LONGDING","state":"ARUNACHAL PRADESH","circle":"North Eastern Circle","region":"Shillong HQ Region"},{"pincode":"792131","office":"Lawnu","district":"LONGDING","state":"ARUNACHAL PRADESH","circle":"North Eastern Circle","region":"Shillong HQ Region"},{"pincode":"792131","office":"Konsa","district":"LONGDING","state":"ARUNACHAL PRADESH","circle":"North Eastern Circle","region":"Shillong HQ Region"},{"pincode":"792131","office":"Khasa","district":"LONGDING","state":"ARUNACHAL PRADESH","circle":"North Eastern Circle","region":"Shillong HQ Region"},{"pincode":"792131","office":"Khogla","district":"LONGDING","state":"ARUNACHAL PRADESH","circle":"North Eastern Circle","region":"Shillong HQ Region"},{"pincode":"791003","office":"Barbo","district":"SHI YOMI","state":"ARUNACHAL PRADESH","circle":"North Eastern Circle","region":"Shillong HQ Region"},{"pincode":"792122","office":"Dharampur B.O","district":"CHANGLANG","state":"ARUNACHAL PRADESH","circle":"North Eastern Circle","region":"Shillong HQ Region"},{"pincode":"792122","office":"Namchik B.O","district":"CHANGLANG","state":"ARUNACHAL PRADESH","circle":"North Eastern Circle","region":"Shillong HQ Region"},{"pincode":"792122","office":"Namphai B.O","district":"CHANGLANG","state":"ARUNACHAL PRADESH","circle":"North Eastern Circle","region":"Shillong HQ Region"},{"pincode":"792123","office":"Motangsa","district":"CHANGLANG","state":"ARUNACHAL PRADESH","circle":"North Eastern Circle","region":"Shillong HQ Region"},{"pincode":"792123","office":"Longchong-I","district":"CHANGLANG","state":"ARUNACHAL PRADESH","circle":"North Eastern Circle","region":"Shillong HQ Region"},{"pincode":"792123","office":"Mazgaon","district":"CHANGLANG","state":"ARUNACHAL PRADESH","circle":"North Eastern Circle","region":"Shillong HQ Region"},{"pincode":"792123","office":"Sikao","district":"CHANGLANG","state":"ARUNACHAL PRADESH","circle":"North Eastern Circle","region":"Shillong HQ Region"},{"pincode":"792103","office":"Innao B.O","district":"NAMSAI","state":"ARUNACHAL PRADESH","circle":"North Eastern Circle","region":"Shillong HQ Region"},{"pincode":"792103","office":"Peyong B.O","district":"NAMSAI","state":"ARUNACHAL PRADESH","circle":"North Eastern Circle","region":"Shillong HQ Region"},{"pincode":"792103","office":"Jenglai","district":"NAMSAI","state":"ARUNACHAL PRADESH","circle":"North Eastern Circle","region":"Shillong HQ Region"},{"pincode":"791118","office":"Chambang B.O","district":"KRA DAADI","state":"ARUNACHAL PRADESH","circle":"North Eastern Circle","region":"Shillong HQ Region"},{"pincode":"791118","office":"Nyapin B.O","district":"KURUNG KUMEY","state":"ARUNACHAL PRADESH","circle":"North Eastern Circle","region":"Shillong HQ Region"},{"pincode":"791118","office":"Rissi","district":"KURUNG KUMEY","state":"ARUNACHAL PRADESH","circle":"North Eastern Circle","region":"Shillong HQ Region"},{"pincode":"791118","office":"Singridolo","district":"KURUNG KUMEY","state":"ARUNACHAL PRADESH","circle":"North Eastern Circle","region":"Shillong HQ Region"},{"pincode":"791118","office":"Dado","district":"KURUNG KUMEY","state":"ARUNACHAL PRADESH","circle":"North Eastern Circle","region":"Shillong HQ Region"},{"pincode":"791118","office":"Hote","district":"KURUNG KUMEY","state":"ARUNACHAL PRADESH","circle":"North Eastern Circle","region":"Shillong HQ Region"},{"pincode":"791118","office":"Lowahapa","district":"KURUNG KUMEY","state":"ARUNACHAL PRADESH","circle":"North Eastern Circle","region":"Shillong HQ Region"},{"pincode":"791118","office":"Longlefoth","district":"KURUNG KUMEY","state":"ARUNACHAL PRADESH","circle":"North Eastern Circle","region":"Shillong HQ Region"},{"pincode":"791118","office":"Rate","district":"KURUNG KUMEY","state":"ARUNACHAL PRADESH","circle":"North Eastern Circle","region":"Shillong HQ Region"},{"pincode":"791118","office":"Yumlam","district":"KURUNG KUMEY","state":"ARUNACHAL PRADESH","circle":"North Eastern Circle","region":"Shillong HQ Region"},{"pincode":"791118","office":"Taipa","district":"KURUNG KUMEY","state":"ARUNACHAL PRADESH","circle":"North Eastern Circle","region":"Shillong HQ Region"},{"pincode":"791118","office":"Yapak-II","district":"KURUNG KUMEY","state":"ARUNACHAL PRADESH","circle":"North Eastern Circle","region":"Shillong HQ Region"},{"pincode":"791118","office":"Dengdeng","district":"KURUNG KUMEY","state":"ARUNACHAL PRADESH","circle":"North Eastern Circle","region":"Shillong HQ Region"},{"pincode":"791118","office":"Asupinja","district":"KURUNG KUMEY","state":"ARUNACHAL PRADESH","circle":"North Eastern Circle","region":"Shillong HQ Region"},{"pincode":"791118","office":"Malo","district":"KURUNG KUMEY","state":"ARUNACHAL PRADESH","circle":"North Eastern Circle","region":"Shillong HQ Region"},{"pincode":"791118","office":"Milli","district":"KURUNG KUMEY","state":"ARUNACHAL PRADESH","circle":"North Eastern Circle","region":"Shillong HQ Region"},{"pincode":"791118","office":"Made","district":"KURUNG KUMEY","state":"ARUNACHAL PRADESH","circle":"North Eastern Circle","region":"Shillong HQ Region"},{"pincode":"791118","office":"Mangdo","district":"KURUNG KUMEY","state":"ARUNACHAL PRADESH","circle":"North Eastern Circle","region":"Shillong HQ Region"},{"pincode":"791118","office":"Dalang","district":"KURUNG KUMEY","state":"ARUNACHAL PRADESH","circle":"North Eastern Circle","region":"Shillong HQ Region"},{"pincode":"791118","office":"Mangio","district":"KURUNG KUMEY","state":"ARUNACHAL PRADESH","circle":"North Eastern Circle","region":"Shillong HQ Region"},{"pincode":"791118","office":"Jali","district":"KURUNG KUMEY","state":"ARUNACHAL PRADESH","circle":"North Eastern Circle","region":"Shillong HQ Region"},{"pincode":"791118","office":"Sayang","district":"KURUNG KUMEY","state":"ARUNACHAL PRADESH","circle":"North Eastern Circle","region":"Shillong HQ Region"},{"pincode":"791118","office":"Longding Koling H.Q.","district":"KURUNG KUMEY","state":"ARUNACHAL PRADESH","circle":"North Eastern Circle","region":"Shillong HQ Region"},{"pincode":"791118","office":"Sepaha","district":"KURUNG KUMEY","state":"ARUNACHAL PRADESH","circle":"North Eastern Circle","region":"Shillong HQ Region"},{"pincode":"791118","office":"Baggam (Baojam)","district":"KURUNG KUMEY","state":"ARUNACHAL PRADESH","circle":"North Eastern Circle","region":"Shillong HQ Region"},{"pincode":"791118","office":"Pilua","district":"KURUNG KUMEY","state":"ARUNACHAL PRADESH","circle":"North Eastern Circle","region":"Shillong HQ Region"},{"pincode":"791118","office":"Sangia","district":"KURUNG KUMEY","state":"ARUNACHAL PRADESH","circle":"North Eastern Circle","region":"Shillong HQ Region"},{"pincode":"791118","office":"Bogu","district":"KURUNG KUMEY","state":"ARUNACHAL PRADESH","circle":"North Eastern Circle","region":"Shillong HQ Region"},{"pincode":"791118","office":"Roing","district":"KURUNG KUMEY","state":"ARUNACHAL PRADESH","circle":"North Eastern Circle","region":"Shillong HQ Region"},{"pincode":"791118","office":"Jhome","district":"KURUNG KUMEY","state":"ARUNACHAL PRADESH","circle":"North Eastern Circle","region":"Shillong HQ Region"},{"pincode":"791118","office":"Dotte","district":"KURUNG KUMEY","state":"ARUNACHAL PRADESH","circle":"North Eastern Circle","region":"Shillong HQ Region"},{"pincode":"791102","office":"GTC B.O","district":"EAST SIANG","state":"ARUNACHAL PRADESH","circle":"North Eastern Circle","region":"Shillong HQ Region"},{"pincode":"791102","office":"Ruksin B.O","district":"EAST SIANG","state":"ARUNACHAL PRADESH","circle":"North Eastern Circle","region":"Shillong HQ Region"},{"pincode":"791102","office":"Donyi Polo T.E.","district":"EAST SIANG","state":"ARUNACHAL PRADESH","circle":"North Eastern Circle","region":"Shillong HQ Region"},{"pincode":"791102","office":"Mangnang","district":"EAST SIANG","state":"ARUNACHAL PRADESH","circle":"North Eastern Circle","region":"Shillong HQ Region"},{"pincode":"791113","office":"JULLY B.O","district":"PAPUM PARE","state":"ARUNACHAL PRADESH","circle":"North Eastern Circle","region":"Shillong HQ Region"},{"pincode":"791113","office":"Rakap","district":"PAPUM PARE","state":"ARUNACHAL PRADESH","circle":"North Eastern Circle","region":"Shillong HQ Region"},{"pincode":"791113","office":"Rilo PWD Colony","district":"PAPUM PARE","state":"ARUNACHAL PRADESH","circle":"North Eastern Circle","region":"Shillong HQ Region"},{"pincode":"791113","office":"Dulane","district":"PAPUM PARE","state":"ARUNACHAL PRADESH","circle":"North Eastern Circle","region":"Shillong HQ Region"},{"pincode":"791113","office":"Kanebung","district":"PAPUM PARE","state":"ARUNACHAL PRADESH","circle":"North Eastern Circle","region":"Shillong HQ Region"},{"pincode":"791113","office":"Ramghat","district":"PAPUM PARE","state":"ARUNACHAL PRADESH","circle":"North Eastern Circle","region":"Shillong HQ Region"},{"pincode":"791113","office":"Bormai Nishi","district":"PAPUM PARE","state":"ARUNACHAL PRADESH","circle":"North Eastern Circle","region":"Shillong HQ Region"},{"pincode":"791119","office":"Silsango","district":"LOWER SUBANSIRI","state":"ARUNACHAL PRADESH","circle":"North Eastern Circle","region":"Shillong HQ Region"},{"pincode":"791119","office":"Lekang","district":"LOWER SUBANSIRI","state":"ARUNACHAL PRADESH","circle":"North Eastern Circle","region":"Shillong HQ Region"},{"pincode":"791119","office":"Tapo","district":"LOWER SUBANSIRI","state":"ARUNACHAL PRADESH","circle":"North Eastern Circle","region":"Shillong HQ Region"},{"pincode":"791119","office":"Paga","district":"LOWER SUBANSIRI","state":"ARUNACHAL PRADESH","circle":"North Eastern Circle","region":"Shillong HQ Region"},{"pincode":"791119","office":"Kebi","district":"LOWER SUBANSIRI","state":"ARUNACHAL PRADESH","circle":"North Eastern Circle","region":"Shillong HQ Region"},{"pincode":"792110","office":"Dambuk B.O","district":"LOWER DIBANG VALLEY","state":"ARUNACHAL PRADESH","circle":"North Eastern Circle","region":"Shillong HQ Region"},{"pincode":"792110","office":"Elopa B.O","district":"LOWER DIBANG VALLEY","state":"ARUNACHAL PRADESH","circle":"North Eastern Circle","region":"Shillong HQ Region"},{"pincode":"792110","office":"Kronli B.O","district":"LOWER DIBANG VALLEY","state":"ARUNACHAL PRADESH","circle":"North Eastern Circle","region":"Shillong HQ Region"},{"pincode":"792110","office":"Parbuk B.O","district":"LOWER DIBANG VALLEY","state":"ARUNACHAL PRADESH","circle":"North Eastern Circle","region":"Shillong HQ Region"},{"pincode":"792110","office":"Donli","district":"DIBANG VALLEY","state":"ARUNACHAL PRADESH","circle":"North Eastern Circle","region":"Shillong HQ Region"},{"pincode":"792110","office":"Desali H.Q.","district":"DIBANG VALLEY","state":"ARUNACHAL PRADESH","circle":"North Eastern Circle","region":"Shillong HQ Region"},{"pincode":"792110","office":"Ezengo","district":"DIBANG VALLEY","state":"ARUNACHAL PRADESH","circle":"North Eastern Circle","region":"Shillong HQ Region"},{"pincode":"792110","office":"Remi","district":"DIBANG VALLEY","state":"ARUNACHAL PRADESH","circle":"North Eastern Circle","region":"Shillong HQ Region"},{"pincode":"790003","office":"Jigaon","district":"WEST KAMENG","state":"ARUNACHAL PRADESH","circle":"North Eastern Circle","region":"Shillong HQ Region"},{"pincode":"790103","office":"Namorah B.O","district":"PAKKE KESSANG","state":"ARUNACHAL PRADESH","circle":"North Eastern Circle","region":"Shillong HQ Region"},{"pincode":"790103","office":"Passo","district":"PAKKE KESSANG","state":"ARUNACHAL PRADESH","circle":"North Eastern Circle","region":"Shillong HQ Region"},{"pincode":"790103","office":"Seramso","district":"PAKKE KESSANG","state":"ARUNACHAL PRADESH","circle":"North Eastern Circle","region":"Shillong HQ Region"},{"pincode":"790102","office":"Bana B.O","district":"EAST KAMENG","state":"ARUNACHAL PRADESH","circle":"North Eastern Circle","region":"Shillong HQ Region"},{"pincode":"790102","office":"Veo B.O","district":"EAST KAMENG","state":"ARUNACHAL PRADESH","circle":"North Eastern Circle","region":"Shillong HQ Region"},{"pincode":"790102","office":"Gumtung","district":"EAST KAMENG","state":"ARUNACHAL PRADESH","circle":"North Eastern Circle","region":"Shillong HQ Region"},{"pincode":"790102","office":"Sede","district":"EAST KAMENG","state":"ARUNACHAL PRADESH","circle":"North Eastern Circle","region":"Shillong HQ Region"},{"pincode":"790102","office":"Kamrung(Neping)","district":"EAST KAMENG","state":"ARUNACHAL PRADESH","circle":"North Eastern Circle","region":"Shillong HQ Region"},{"pincode":"790102","office":"Chamduk Leyak","district":"EAST KAMENG","state":"ARUNACHAL PRADESH","circle":"North Eastern Circle","region":"Shillong HQ Region"},{"pincode":"790102","office":"Fengche Jayanti","district":"EAST KAMENG","state":"ARUNACHAL PRADESH","circle":"North Eastern Circle","region":"Shillong HQ Region"},{"pincode":"790102","office":"Neking","district":"EAST KAMENG","state":"ARUNACHAL PRADESH","circle":"North Eastern Circle","region":"Shillong HQ Region"},{"pincode":"790102","office":"18th Mile Camp","district":"EAST KAMENG","state":"ARUNACHAL PRADESH","circle":"North Eastern Circle","region":"Shillong HQ Region"},{"pincode":"790102","office":"Sepilliang","district":"EAST KAMENG","state":"ARUNACHAL PRADESH","circle":"North Eastern Circle","region":"Shillong HQ Region"},{"pincode":"790102","office":"Flago","district":"EAST KAMENG","state":"ARUNACHAL PRADESH","circle":"North Eastern Circle","region":"Shillong HQ Region"},{"pincode":"790102","office":"Nerewa","district":"EAST KAMENG","state":"ARUNACHAL PRADESH","circle":"North Eastern Circle","region":"Shillong HQ Region"},{"pincode":"790102","office":"Laimoya","district":"EAST KAMENG","state":"ARUNACHAL PRADESH","circle":"North Eastern Circle","region":"Shillong HQ Region"},{"pincode":"790102","office":"Miri Sollung","district":"EAST KAMENG","state":"ARUNACHAL PRADESH","circle":"North Eastern Circle","region":"Shillong HQ Region"},{"pincode":"790102","office":"Bodhi","district":"EAST KAMENG","state":"ARUNACHAL PRADESH","circle":"North Eastern Circle","region":"Shillong HQ Region"},{"pincode":"790102","office":"Nampe Bagang","district":"EAST KAMENG","state":"ARUNACHAL PRADESH","circle":"North Eastern Circle","region":"Shillong HQ Region"},{"pincode":"790102","office":"Palap","district":"EAST KAMENG","state":"ARUNACHAL PRADESH","circle":"North Eastern Circle","region":"Shillong HQ Region"},{"pincode":"792111","office":"Yealing","district":"LOHIT","state":"ARUNACHAL PRADESH","circle":"North Eastern Circle","region":"Shillong HQ Region"},{"pincode":"792111","office":"20th Mile (Chailiang)","district":"LOHIT","state":"ARUNACHAL PRADESH","circle":"North Eastern Circle","region":"Shillong HQ Region"},{"pincode":"790104","office":"B.Supply B.O","district":"TAWANG","state":"ARUNACHAL PRADESH","circle":"North Eastern Circle","region":"Shillong HQ Region"},{"pincode":"790104","office":"Khrimu","district":"TAWANG","state":"ARUNACHAL PRADESH","circle":"North Eastern Circle","region":"Shillong HQ Region"},{"pincode":"790116","office":"Dahung B.O","district":"WEST KAMENG","state":"ARUNACHAL PRADESH","circle":"North Eastern Circle","region":"Shillong HQ Region"},{"pincode":"790116","office":"Thessa","district":"WEST KAMENG","state":"ARUNACHAL PRADESH","circle":"North Eastern Circle","region":"Shillong HQ Region"},{"pincode":"792001","office":"Danglat B.O","district":"LOHIT","state":"ARUNACHAL PRADESH","circle":"North Eastern Circle","region":"Shillong HQ Region"},{"pincode":"792001","office":"Towam(New)","district":"LOHIT","state":"ARUNACHAL PRADESH","circle":"North Eastern Circle","region":"Shillong HQ Region"},{"pincode":"791105","office":"Bishing","district":"UPPER SIANG","state":"ARUNACHAL PRADESH","circle":"North Eastern Circle","region":"Shillong HQ Region"},{"pincode":"791105","office":"Gelling H.Q.","district":"UPPER SIANG","state":"ARUNACHAL PRADESH","circle":"North Eastern Circle","region":"Shillong HQ Region"},{"pincode":"791105","office":"Payendum","district":"UPPER SIANG","state":"ARUNACHAL PRADESH","circle":"North Eastern Circle","region":"Shillong HQ Region"},{"pincode":"791105","office":"Tashi Gaon","district":"UPPER SIANG","state":"ARUNACHAL PRADESH","circle":"North Eastern Circle","region":"Shillong HQ Region"},{"pincode":"791002","office":"Shimong B.O","district":"UPPER SIANG","state":"ARUNACHAL PRADESH","circle":"North Eastern Circle","region":"Shillong HQ Region"},{"pincode":"791002","office":"Komkar (Buksang)","district":"UPPER SIANG","state":"ARUNACHAL PRADESH","circle":"North Eastern Circle","region":"Shillong HQ Region"},{"pincode":"791103","office":"Pongging","district":"UPPER SIANG","state":"ARUNACHAL PRADESH","circle":"North Eastern Circle","region":"Shillong HQ Region"},{"pincode":"791120","office":"Yachuli B.O","district":"LOWER SUBANSIRI","state":"ARUNACHAL PRADESH","circle":"North Eastern Circle","region":"Shillong HQ Region"},{"pincode":"791120","office":"HARI B.O","district":"LOWER SUBANSIRI","state":"ARUNACHAL PRADESH","circle":"North Eastern Circle","region":"Shillong HQ Region"},{"pincode":"791120","office":"Talle Valley","district":"LOWER SUBANSIRI","state":"ARUNACHAL PRADESH","circle":"North Eastern Circle","region":"Shillong HQ Region"},{"pincode":"791120","office":"Tom","district":"LOWER SUBANSIRI","state":"ARUNACHAL PRADESH","circle":"North Eastern Circle","region":"Shillong HQ Region"},{"pincode":"791120","office":"Yorkum","district":"LOWER SUBANSIRI","state":"ARUNACHAL PRADESH","circle":"North Eastern Circle","region":"Shillong HQ Region"},{"pincode":"791120","office":"Para (H.Q.)","district":"LOWER SUBANSIRI","state":"ARUNACHAL PRADESH","circle":"North Eastern Circle","region":"Shillong HQ Region"},{"pincode":"791114","office":"Langdang","district":"PAPUM PARE","state":"ARUNACHAL PRADESH","circle":"North Eastern Circle","region":"Shillong HQ Region"},{"pincode":"791114","office":"Pilla","district":"PAPUM PARE","state":"ARUNACHAL PRADESH","circle":"North Eastern Circle","region":"Shillong HQ Region"},{"pincode":"791114","office":"Nakar(Nakap)","district":"PAPUM PARE","state":"ARUNACHAL PRADESH","circle":"North Eastern Circle","region":"Shillong HQ Region"},{"pincode":"791111","office":"Arunachal Pradesh Secretariat S.O","district":"PAPUM PARE","state":"ARUNACHAL PRADESH","circle":"North Eastern Circle","region":"Shillong HQ Region"},{"pincode":"790114","office":"Bhalukpong S.O","district":"WEST KAMENG","state":"ARUNACHAL PRADESH","circle":"North Eastern Circle","region":"Shillong HQ Region"},{"pincode":"792056","office":"Bordumsa S.O","district":"CHANGLANG","state":"ARUNACHAL PRADESH","circle":"North Eastern Circle","region":"Shillong HQ Region"},{"pincode":"792105","office":"Mahadevpur S.O (Lohit)","district":"NAMSAI","state":"ARUNACHAL PRADESH","circle":"North Eastern Circle","region":"Shillong HQ Region"},{"pincode":"791104","office":"Mebo S.O","district":"EAST SIANG","state":"ARUNACHAL PRADESH","circle":"North Eastern Circle","region":"Shillong HQ Region"},{"pincode":"792122","office":"Miao S.O","district":"CHANGLANG","state":"ARUNACHAL PRADESH","circle":"North Eastern Circle","region":"Shillong HQ Region"},{"pincode":"791102","office":"Pasighat S.O","district":"EAST SIANG","state":"ARUNACHAL PRADESH","circle":"North Eastern Circle","region":"Shillong HQ Region"},{"pincode":"790103","office":"Seijosa S.O","district":"PAKKE KESSANG","state":"ARUNACHAL PRADESH","circle":"North Eastern Circle","region":"Shillong HQ Region"},{"pincode":"792111","office":"Sunpura S.O","district":"LOHIT","state":"ARUNACHAL PRADESH","circle":"North Eastern Circle","region":"Shillong HQ Region"},{"pincode":"791002","office":"Yingkiong S.O","district":"UPPER SIANG","state":"ARUNACHAL PRADESH","circle":"North Eastern Circle","region":"Shillong HQ Region"},{"pincode":"791120","office":"Ziro S.O","district":"LOWER SUBANSIRI","state":"ARUNACHAL PRADESH","circle":"North Eastern Circle","region":"Shillong HQ Region"},{"pincode":"791114","office":"Sagalee S.O","district":"PAPUM PARE","state":"ARUNACHAL PRADESH","circle":"North Eastern Circle","region":"Shillong HQ Region"},{"pincode":"791001","office":"Rumgong B.O","district":"SIANG","state":"ARUNACHAL PRADESH","circle":"North Eastern Circle","region":"Shillong HQ Region"},{"pincode":"791001","office":"Gune Bane(including Popn Camp)","district":"WEST SIANG","state":"ARUNACHAL PRADESH","circle":"North Eastern Circle","region":"Shillong HQ Region"},{"pincode":"792101","office":"Alinye B.O","district":"DIBANG VALLEY","state":"ARUNACHAL PRADESH","circle":"North Eastern Circle","region":"Shillong HQ Region"},{"pincode":"792110","office":"Anelih B.O","district":"DIBANG VALLEY","state":"ARUNACHAL PRADESH","circle":"North Eastern Circle","region":"Shillong HQ Region"},{"pincode":"792110","office":"Mihundo","district":"DIBANG VALLEY","state":"ARUNACHAL PRADESH","circle":"North Eastern Circle","region":"Shillong HQ Region"},{"pincode":"792101","office":"Acheso","district":"DIBANG VALLEY","state":"ARUNACHAL PRADESH","circle":"North Eastern Circle","region":"Shillong HQ Region"},{"pincode":"792110","office":"Cheya","district":"DIBANG VALLEY","state":"ARUNACHAL PRADESH","circle":"North Eastern Circle","region":"Shillong HQ Region"},{"pincode":"792110","office":"Aprunli","district":"DIBANG VALLEY","state":"ARUNACHAL PRADESH","circle":"North Eastern Circle","region":"Shillong HQ Region"},{"pincode":"792110","office":"Etalin Bridge Point","district":"DIBANG VALLEY","state":"ARUNACHAL PRADESH","circle":"North Eastern Circle","region":"Shillong HQ Region"},{"pincode":"792110","office":"Mawali","district":"DIBANG VALLEY","state":"ARUNACHAL PRADESH","circle":"North Eastern Circle","region":"Shillong HQ Region"},{"pincode":"792110","office":"Akuli","district":"DIBANG VALLEY","state":"ARUNACHAL PRADESH","circle":"North Eastern Circle","region":"Shillong HQ Region"},{"pincode":"792110","office":"Engolin","district":"DIBANG VALLEY","state":"ARUNACHAL PRADESH","circle":"North Eastern Circle","region":"Shillong HQ Region"},{"pincode":"792110","office":"Ichindo","district":"DIBANG VALLEY","state":"ARUNACHAL PRADESH","circle":"North Eastern Circle","region":"Shillong HQ Region"},{"pincode":"792110","office":"New Anaya","district":"DIBANG VALLEY","state":"ARUNACHAL PRADESH","circle":"North Eastern Circle","region":"Shillong HQ Region"},{"pincode":"791123","office":"Chakma - V","district":"PAPUM PARE","state":"ARUNACHAL PRADESH","circle":"North Eastern Circle","region":"Shillong HQ Region"},{"pincode":"791123","office":"Kherbari","district":"PAPUM PARE","state":"ARUNACHAL PRADESH","circle":"North Eastern Circle","region":"Shillong HQ Region"},{"pincode":"791101","office":"Daring B.O","district":"LEPARADA","state":"ARUNACHAL PRADESH","circle":"North Eastern Circle","region":"Shillong HQ Region"},{"pincode":"791101","office":"Liromoba B.O","district":"WEST SIANG","state":"ARUNACHAL PRADESH","circle":"North Eastern Circle","region":"Shillong HQ Region"},{"pincode":"791101","office":"Sago","district":"WEST SIANG","state":"ARUNACHAL PRADESH","circle":"North Eastern Circle","region":"Shillong HQ Region"},{"pincode":"790001","office":"Nafra B.O","district":"WEST KAMENG","state":"ARUNACHAL PRADESH","circle":"North Eastern Circle","region":"Shillong HQ Region"},{"pincode":"792056","office":"Kherem Bisa B.O","district":"CHANGLANG","state":"ARUNACHAL PRADESH","circle":"North Eastern Circle","region":"Shillong HQ Region"},{"pincode":"792056","office":"Vijoypur B.O","district":"CHANGLANG","state":"ARUNACHAL PRADESH","circle":"North Eastern Circle","region":"Shillong HQ Region"},{"pincode":"792120","office":"Bubang B.O","district":"CHANGLANG","state":"ARUNACHAL PRADESH","circle":"North Eastern Circle","region":"Shillong HQ Region"},{"pincode":"792120","office":"Namtok B.O","district":"CHANGLANG","state":"ARUNACHAL PRADESH","circle":"North Eastern Circle","region":"Shillong HQ Region"},{"pincode":"792120","office":"Kengkhu","district":"CHANGLANG","state":"ARUNACHAL PRADESH","circle":"North Eastern Circle","region":"Shillong HQ Region"},{"pincode":"792120","office":"New Rangkatu","district":"CHANGLANG","state":"ARUNACHAL PRADESH","circle":"North Eastern Circle","region":"Shillong HQ Region"},{"pincode":"792120","office":"Jungmaisung - II","district":"CHANGLANG","state":"ARUNACHAL PRADESH","circle":"North Eastern Circle","region":"Shillong HQ Region"},{"pincode":"792120","office":"New Sallang","district":"CHANGLANG","state":"ARUNACHAL PRADESH","circle":"North Eastern Circle","region":"Shillong HQ Region"},{"pincode":"792120","office":"Kuchep - II","district":"CHANGLANG","state":"ARUNACHAL PRADESH","circle":"North Eastern Circle","region":"Shillong HQ Region"},{"pincode":"792120","office":"Kongsa","district":"CHANGLANG","state":"ARUNACHAL PRADESH","circle":"North Eastern Circle","region":"Shillong HQ Region"},{"pincode":"792102","office":"Kamlang Nagar B.O","district":"NAMSAI","state":"ARUNACHAL PRADESH","circle":"North Eastern Circle","region":"Shillong HQ Region"},{"pincode":"792102","office":"Kherem B.O","district":"NAMSAI","state":"ARUNACHAL PRADESH","circle":"North Eastern Circle","region":"Shillong HQ Region"},{"pincode":"791122","office":"Giba B.O","district":"UPPER SUBANSIRI","state":"ARUNACHAL PRADESH","circle":"North Eastern Circle","region":"Shillong HQ Region"},{"pincode":"791122","office":"Lepajaring B.O","district":"UPPER SUBANSIRI","state":"ARUNACHAL PRADESH","circle":"North Eastern Circle","region":"Shillong HQ Region"},{"pincode":"791122","office":"Siyum B.O","district":"UPPER SUBANSIRI","state":"ARUNACHAL PRADESH","circle":"North Eastern Circle","region":"Shillong HQ Region"},{"pincode":"791122","office":"Taksing H.Q.","district":"UPPER SUBANSIRI","state":"ARUNACHAL PRADESH","circle":"North Eastern Circle","region":"Shillong HQ Region"},{"pincode":"791122","office":"Sereva","district":"UPPER SUBANSIRI","state":"ARUNACHAL PRADESH","circle":"North Eastern Circle","region":"Shillong HQ Region"},{"pincode":"791122","office":"Kinekio","district":"UPPER SUBANSIRI","state":"ARUNACHAL PRADESH","circle":"North Eastern Circle","region":"Shillong HQ Region"},{"pincode":"791122","office":"Neing","district":"UPPER SUBANSIRI","state":"ARUNACHAL PRADESH","circle":"North Eastern Circle","region":"Shillong HQ Region"},{"pincode":"791122","office":"Meyabe","district":"UPPER SUBANSIRI","state":"ARUNACHAL PRADESH","circle":"North Eastern Circle","region":"Shillong HQ Region"},{"pincode":"791122","office":"Loke","district":"UPPER SUBANSIRI","state":"ARUNACHAL PRADESH","circle":"North Eastern Circle","region":"Shillong HQ Region"},{"pincode":"791122","office":"Karam","district":"UPPER SUBANSIRI","state":"ARUNACHAL PRADESH","circle":"North Eastern Circle","region":"Shillong HQ Region"},{"pincode":"791122","office":"Takiongporing","district":"UPPER SUBANSIRI","state":"ARUNACHAL PRADESH","circle":"North Eastern Circle","region":"Shillong HQ Region"},{"pincode":"791122","office":"Rava","district":"UPPER SUBANSIRI","state":"ARUNACHAL PRADESH","circle":"North Eastern Circle","region":"Shillong HQ Region"},{"pincode":"791122","office":"Pochak","district":"UPPER SUBANSIRI","state":"ARUNACHAL PRADESH","circle":"North Eastern Circle","region":"Shillong HQ Region"},{"pincode":"791122","office":"Dui","district":"UPPER SUBANSIRI","state":"ARUNACHAL PRADESH","circle":"North Eastern Circle","region":"Shillong HQ Region"},{"pincode":"791122","office":"Kebasomara","district":"UPPER SUBANSIRI","state":"ARUNACHAL PRADESH","circle":"North Eastern Circle","region":"Shillong HQ Region"},{"pincode":"791122","office":"Haging Konia","district":"UPPER SUBANSIRI","state":"ARUNACHAL PRADESH","circle":"North Eastern Circle","region":"Shillong HQ Region"},{"pincode":"791122","office":"Baring","district":"UPPER SUBANSIRI","state":"ARUNACHAL PRADESH","circle":"North Eastern Circle","region":"Shillong HQ Region"},{"pincode":"791122","office":"Rebi","district":"UPPER SUBANSIRI","state":"ARUNACHAL PRADESH","circle":"North Eastern Circle","region":"Shillong HQ Region"},{"pincode":"791122","office":"Marging","district":"UPPER SUBANSIRI","state":"ARUNACHAL PRADESH","circle":"North Eastern Circle","region":"Shillong HQ Region"},{"pincode":"791122","office":"Pute","district":"UPPER SUBANSIRI","state":"ARUNACHAL PRADESH","circle":"North Eastern Circle","region":"Shillong HQ Region"},{"pincode":"791122","office":"Belu","district":"UPPER SUBANSIRI","state":"ARUNACHAL PRADESH","circle":"North Eastern Circle","region":"Shillong HQ Region"},{"pincode":"791122","office":"Dasi","district":"UPPER SUBANSIRI","state":"ARUNACHAL PRADESH","circle":"North Eastern Circle","region":"Shillong HQ Region"},{"pincode":"791122","office":"Daru","district":"UPPER SUBANSIRI","state":"ARUNACHAL PRADESH","circle":"North Eastern Circle","region":"Shillong HQ Region"},{"pincode":"791122","office":"Nilling","district":"UPPER SUBANSIRI","state":"ARUNACHAL PRADESH","circle":"North Eastern Circle","region":"Shillong HQ Region"},{"pincode":"791122","office":"Goha","district":"UPPER SUBANSIRI","state":"ARUNACHAL PRADESH","circle":"North Eastern Circle","region":"Shillong HQ Region"},{"pincode":"791122","office":"Npu","district":"UPPER SUBANSIRI","state":"ARUNACHAL PRADESH","circle":"North Eastern Circle","region":"Shillong HQ Region"},{"pincode":"791122","office":"Nguki","district":"UPPER SUBANSIRI","state":"ARUNACHAL PRADESH","circle":"North Eastern Circle","region":"Shillong HQ Region"},{"pincode":"791122","office":"Uli","district":"UPPER SUBANSIRI","state":"ARUNACHAL PRADESH","circle":"North Eastern Circle","region":"Shillong HQ Region"},{"pincode":"791122","office":"Mindi","district":"UPPER SUBANSIRI","state":"ARUNACHAL PRADESH","circle":"North Eastern Circle","region":"Shillong HQ Region"},{"pincode":"791122","office":"Gitebage","district":"UPPER SUBANSIRI","state":"ARUNACHAL PRADESH","circle":"North Eastern Circle","region":"Shillong HQ Region"},{"pincode":"791122","office":"Old Hane","district":"UPPER SUBANSIRI","state":"ARUNACHAL PRADESH","circle":"North Eastern Circle","region":"Shillong HQ Region"},{"pincode":"791122","office":"Rumte","district":"UPPER SUBANSIRI","state":"ARUNACHAL PRADESH","circle":"North Eastern Circle","region":"Shillong HQ Region"},{"pincode":"791122","office":"Luchi","district":"UPPER SUBANSIRI","state":"ARUNACHAL PRADESH","circle":"North Eastern Circle","region":"Shillong HQ Region"},{"pincode":"792129","office":"MILONPUR B.O","district":"TIRAP","state":"ARUNACHAL PRADESH","circle":"North Eastern Circle","region":"Shillong HQ Region"},{"pincode":"790101","office":"Dirang Basti B.O","district":"WEST KAMENG","state":"ARUNACHAL PRADESH","circle":"North Eastern Circle","region":"Shillong HQ Region"},{"pincode":"790101","office":"Munna Camp B.O","district":"WEST KAMENG","state":"ARUNACHAL PRADESH","circle":"North Eastern Circle","region":"Shillong HQ Region"},{"pincode":"791112","office":"Ompoli - Hoj","district":"PAPUM PARE","state":"ARUNACHAL PRADESH","circle":"North Eastern Circle","region":"Shillong HQ Region"},{"pincode":"791112","office":"Pepso","district":"PAPUM PARE","state":"ARUNACHAL PRADESH","circle":"North Eastern Circle","region":"Shillong HQ Region"},{"pincode":"791112","office":"Kuksing(Luk Sing)","district":"PAPUM PARE","state":"ARUNACHAL PRADESH","circle":"North Eastern Circle","region":"Shillong HQ Region"},{"pincode":"791112","office":"Pech- Hoj","district":"PAPUM PARE","state":"ARUNACHAL PRADESH","circle":"North Eastern Circle","region":"Shillong HQ Region"},{"pincode":"791112","office":"Apop -I","district":"PAPUM PARE","state":"ARUNACHAL PRADESH","circle":"North Eastern Circle","region":"Shillong HQ Region"},{"pincode":"792104","office":"Khopa B.O","district":"ANJAW","state":"ARUNACHAL PRADESH","circle":"North Eastern Circle","region":"Shillong HQ Region"},{"pincode":"792104","office":"Meteliang B.O","district":"ANJAW","state":"ARUNACHAL PRADESH","circle":"North Eastern Circle","region":"Shillong HQ Region"},{"pincode":"792104","office":"Quibang","district":"ANJAW","state":"ARUNACHAL PRADESH","circle":"North Eastern Circle","region":"Shillong HQ Region"},{"pincode":"792104","office":"Chakka","district":"ANJAW","state":"ARUNACHAL PRADESH","circle":"North Eastern Circle","region":"Shillong HQ Region"},{"pincode":"792104","office":"Kundan","district":"ANJAW","state":"ARUNACHAL PRADESH","circle":"North Eastern Circle","region":"Shillong HQ Region"},{"pincode":"792104","office":"Kalin","district":"ANJAW","state":"ARUNACHAL PRADESH","circle":"North Eastern Circle","region":"Shillong HQ Region"},{"pincode":"792104","office":"Kalai","district":"ANJAW","state":"ARUNACHAL PRADESH","circle":"North Eastern Circle","region":"Shillong HQ Region"},{"pincode":"792104","office":"Wahal","district":"ANJAW","state":"ARUNACHAL PRADESH","circle":"North Eastern Circle","region":"Shillong HQ Region"},{"pincode":"792104","office":"Chengung","district":"ANJAW","state":"ARUNACHAL PRADESH","circle":"North Eastern Circle","region":"Shillong HQ Region"},{"pincode":"792104","office":"Pranju L/Camp","district":"ANJAW","state":"ARUNACHAL PRADESH","circle":"North Eastern Circle","region":"Shillong HQ Region"},{"pincode":"791103","office":"Supsing","district":"EAST SIANG","state":"ARUNACHAL PRADESH","circle":"North Eastern Circle","region":"Shillong HQ Region"},{"pincode":"791103","office":"Parong","district":"EAST SIANG","state":"ARUNACHAL PRADESH","circle":"North Eastern Circle","region":"Shillong HQ Region"},{"pincode":"791103","office":"Tarak","district":"EAST SIANG","state":"ARUNACHAL PRADESH","circle":"North Eastern Circle","region":"Shillong HQ Region"},{"pincode":"791103","office":"Kallek","district":"EAST SIANG","state":"ARUNACHAL PRADESH","circle":"North Eastern Circle","region":"Shillong HQ Region"},{"pincode":"792121","office":"Manmao B.O","district":"CHANGLANG","state":"ARUNACHAL PRADESH","circle":"North Eastern Circle","region":"Shillong HQ Region"},{"pincode":"792130","office":"Kapu B.O","district":"TIRAP","state":"ARUNACHAL PRADESH","circle":"North Eastern Circle","region":"Shillong HQ Region"},{"pincode":"792130","office":"Kheti B.O","district":"TIRAP","state":"ARUNACHAL PRADESH","circle":"North Eastern Circle","region":"Shillong HQ Region"},{"pincode":"792130","office":"Khonsa Basti B.O","district":"TIRAP","state":"ARUNACHAL PRADESH","circle":"North Eastern Circle","region":"Shillong HQ Region"},{"pincode":"792130","office":"Thalot","district":"TIRAP","state":"ARUNACHAL PRADESH","circle":"North Eastern Circle","region":"Shillong HQ Region"},{"pincode":"792130","office":"Kapu","district":"TIRAP","state":"ARUNACHAL PRADESH","circle":"North Eastern Circle","region":"Shillong HQ Region"},{"pincode":"791121","office":"Hawa Camp B.O","district":"PAPUM PARE","state":"ARUNACHAL PRADESH","circle":"North Eastern Circle","region":"Shillong HQ Region"},{"pincode":"791121","office":"Lora - I & II","district":"PAPUM PARE","state":"ARUNACHAL PRADESH","circle":"North Eastern Circle","region":"Shillong HQ Region"},{"pincode":"791125","office":"Liduk","district":"LOWER SIANG","state":"ARUNACHAL PRADESH","circle":"North Eastern Circle","region":"Shillong HQ Region"},{"pincode":"791125","office":"Ditten","district":"LOWER SIANG","state":"ARUNACHAL PRADESH","circle":"North Eastern Circle","region":"Shillong HQ Region"},{"pincode":"791125","office":"Ngopi","district":"LOWER SIANG","state":"ARUNACHAL PRADESH","circle":"North Eastern Circle","region":"Shillong HQ Region"},{"pincode":"791125","office":"Uli","district":"LOWER SIANG","state":"ARUNACHAL PRADESH","circle":"North Eastern Circle","region":"Shillong HQ Region"},{"pincode":"791125","office":"Kakki Village","district":"LOWER SIANG","state":"ARUNACHAL PRADESH","circle":"North Eastern Circle","region":"Shillong HQ Region"},{"pincode":"791125","office":"Sipu Village","district":"LOWER SIANG","state":"ARUNACHAL PRADESH","circle":"North Eastern Circle","region":"Shillong HQ Region"},{"pincode":"792131","office":"Nginu B.O","district":"LONGDING","state":"ARUNACHAL PRADESH","circle":"North Eastern Circle","region":"Shillong HQ Region"},{"pincode":"792131","office":"Banfera","district":"LONGDING","state":"ARUNACHAL PRADESH","circle":"North Eastern Circle","region":"Shillong HQ Region"},{"pincode":"792131","office":"Ranglua Rusa","district":"LONGDING","state":"ARUNACHAL PRADESH","circle":"North Eastern Circle","region":"Shillong HQ Region"},{"pincode":"792131","office":"Nokfan","district":"LONGDING","state":"ARUNACHAL PRADESH","circle":"North Eastern Circle","region":"Shillong HQ Region"},{"pincode":"792130","office":"Naitong","district":"TIRAP","state":"ARUNACHAL PRADESH","circle":"North Eastern Circle","region":"Shillong HQ Region"},{"pincode":"792131","office":"Otongkhua","district":"LONGDING","state":"ARUNACHAL PRADESH","circle":"North Eastern Circle","region":"Shillong HQ Region"},{"pincode":"792131","office":"Khanu","district":"LONGDING","state":"ARUNACHAL PRADESH","circle":"North Eastern Circle","region":"Shillong HQ Region"},{"pincode":"790106","office":"Yabab","district":"TAWANG","state":"ARUNACHAL PRADESH","circle":"North Eastern Circle","region":"Shillong HQ Region"},{"pincode":"792105","office":"Podumani B.O","district":"NAMSAI","state":"ARUNACHAL PRADESH","circle":"North Eastern Circle","region":"Shillong HQ Region"},{"pincode":"791104","office":"Borguli B.O","district":"EAST SIANG","state":"ARUNACHAL PRADESH","circle":"North Eastern Circle","region":"Shillong HQ Region"},{"pincode":"791104","office":"Anpum","district":"EAST SIANG","state":"ARUNACHAL PRADESH","circle":"North Eastern Circle","region":"Shillong HQ Region"},{"pincode":"791003","office":"Rego","district":"SHI YOMI","state":"ARUNACHAL PRADESH","circle":"North Eastern Circle","region":"Shillong HQ Region"},{"pincode":"791003","office":"Purying","district":"SHI YOMI","state":"ARUNACHAL PRADESH","circle":"North Eastern Circle","region":"Shillong HQ Region"},{"pincode":"791003","office":"Hirong","district":"SHI YOMI","state":"ARUNACHAL PRADESH","circle":"North Eastern Circle","region":"Shillong HQ Region"},{"pincode":"791003","office":"Tato H.Q. (including Labour Camp)","district":"SHI YOMI","state":"ARUNACHAL PRADESH","circle":"North Eastern Circle","region":"Shillong HQ Region"},{"pincode":"792122","office":"Kutum Basti B.O","district":"CHANGLANG","state":"ARUNACHAL PRADESH","circle":"North Eastern Circle","region":"Shillong HQ Region"},{"pincode":"792123","office":"Lungpang","district":"CHANGLANG","state":"ARUNACHAL PRADESH","circle":"North Eastern Circle","region":"Shillong HQ Region"},{"pincode":"792123","office":"Tikhak Putak","district":"CHANGLANG","state":"ARUNACHAL PRADESH","circle":"North Eastern Circle","region":"Shillong HQ Region"},{"pincode":"792103","office":"Manmao B.O","district":"NAMSAI","state":"ARUNACHAL PRADESH","circle":"North Eastern Circle","region":"Shillong HQ Region"},{"pincode":"792103","office":"Kherem(upto 7 Kilo)","district":"NAMSAI","state":"ARUNACHAL PRADESH","circle":"North Eastern Circle","region":"Shillong HQ Region"},{"pincode":"792103","office":"Jona Kachari Kuli","district":"NAMSAI","state":"ARUNACHAL PRADESH","circle":"North Eastern Circle","region":"Shillong HQ Region"},{"pincode":"792103","office":"Chesing Wingko","district":"NAMSAI","state":"ARUNACHAL PRADESH","circle":"North Eastern Circle","region":"Shillong HQ Region"},{"pincode":"791118","office":"Damin B.O","district":"KURUNG KUMEY","state":"ARUNACHAL PRADESH","circle":"North Eastern Circle","region":"Shillong HQ Region"},{"pincode":"791118","office":"Hiya B.O","district":"KURUNG KUMEY","state":"ARUNACHAL PRADESH","circle":"North Eastern Circle","region":"Shillong HQ Region"},{"pincode":"791118","office":"Sarli B.O","district":"KURUNG KUMEY","state":"ARUNACHAL PRADESH","circle":"North Eastern Circle","region":"Shillong HQ Region"},{"pincode":"791118","office":"Sayata","district":"KURUNG KUMEY","state":"ARUNACHAL PRADESH","circle":"North Eastern Circle","region":"Shillong HQ Region"},{"pincode":"791118","office":"Taha(Tahu)","district":"KURUNG KUMEY","state":"ARUNACHAL PRADESH","circle":"North Eastern Circle","region":"Shillong HQ Region"},{"pincode":"791118","office":"Rayong (Rayung)","district":"KURUNG KUMEY","state":"ARUNACHAL PRADESH","circle":"North Eastern Circle","region":"Shillong HQ Region"},{"pincode":"791118","office":"Bangte","district":"KURUNG KUMEY","state":"ARUNACHAL PRADESH","circle":"North Eastern Circle","region":"Shillong HQ Region"},{"pincode":"791118","office":"Hachi","district":"KURUNG KUMEY","state":"ARUNACHAL PRADESH","circle":"North Eastern Circle","region":"Shillong HQ Region"},{"pincode":"791118","office":"Nyoung","district":"KURUNG KUMEY","state":"ARUNACHAL PRADESH","circle":"North Eastern Circle","region":"Shillong HQ Region"},{"pincode":"791118","office":"Palin","district":"KURUNG KUMEY","state":"ARUNACHAL PRADESH","circle":"North Eastern Circle","region":"Shillong HQ Region"},{"pincode":"791118","office":"Hiba","district":"KURUNG KUMEY","state":"ARUNACHAL PRADESH","circle":"North Eastern Circle","region":"Shillong HQ Region"},{"pincode":"791118","office":"Leel","district":"KURUNG KUMEY","state":"ARUNACHAL PRADESH","circle":"North Eastern Circle","region":"Shillong HQ Region"},{"pincode":"791118","office":"Napah","district":"KURUNG KUMEY","state":"ARUNACHAL PRADESH","circle":"North Eastern Circle","region":"Shillong HQ Region"},{"pincode":"791118","office":"Hiya","district":"KURUNG KUMEY","state":"ARUNACHAL PRADESH","circle":"North Eastern Circle","region":"Shillong HQ Region"},{"pincode":"791118","office":"Pari","district":"KURUNG KUMEY","state":"ARUNACHAL PRADESH","circle":"North Eastern Circle","region":"Shillong HQ Region"},{"pincode":"791118","office":"Sangkun","district":"KURUNG KUMEY","state":"ARUNACHAL PRADESH","circle":"North Eastern Circle","region":"Shillong HQ Region"},{"pincode":"791118","office":"Tarik","district":"KURUNG KUMEY","state":"ARUNACHAL PRADESH","circle":"North Eastern Circle","region":"Shillong HQ Region"},{"pincode":"791118","office":"Langbang","district":"KURUNG KUMEY","state":"ARUNACHAL PRADESH","circle":"North Eastern Circle","region":"Shillong HQ Region"},{"pincode":"791118","office":"Sera","district":"KURUNG KUMEY","state":"ARUNACHAL PRADESH","circle":"North Eastern Circle","region":"Shillong HQ Region"},{"pincode":"791118","office":"Solung","district":"KURUNG KUMEY","state":"ARUNACHAL PRADESH","circle":"North Eastern Circle","region":"Shillong HQ Region"},{"pincode":"791118","office":"Lumdang","district":"KURUNG KUMEY","state":"ARUNACHAL PRADESH","circle":"North Eastern Circle","region":"Shillong HQ Region"},{"pincode":"791118","office":"Segriang","district":"KURUNG KUMEY","state":"ARUNACHAL PRADESH","circle":"North Eastern Circle","region":"Shillong HQ Region"},{"pincode":"791118","office":"Pariang","district":"KURUNG KUMEY","state":"ARUNACHAL PRADESH","circle":"North Eastern Circle","region":"Shillong HQ Region"},{"pincode":"791118","office":"Fuba","district":"KURUNG KUMEY","state":"ARUNACHAL PRADESH","circle":"North Eastern Circle","region":"Shillong HQ Region"},{"pincode":"791118","office":"Samba Karsang","district":"KURUNG KUMEY","state":"ARUNACHAL PRADESH","circle":"North Eastern Circle","region":"Shillong HQ Region"},{"pincode":"791118","office":"Gyapin","district":"KURUNG KUMEY","state":"ARUNACHAL PRADESH","circle":"North Eastern Circle","region":"Shillong HQ Region"},{"pincode":"791118","office":"Haina","district":"KURUNG KUMEY","state":"ARUNACHAL PRADESH","circle":"North Eastern Circle","region":"Shillong HQ Region"},{"pincode":"791118","office":"Nikbia","district":"KURUNG KUMEY","state":"ARUNACHAL PRADESH","circle":"North Eastern Circle","region":"Shillong HQ Region"},{"pincode":"791118","office":"New Zara","district":"KURUNG KUMEY","state":"ARUNACHAL PRADESH","circle":"North Eastern Circle","region":"Shillong HQ Region"},{"pincode":"791118","office":"Lengdi","district":"KURUNG KUMEY","state":"ARUNACHAL PRADESH","circle":"North Eastern Circle","region":"Shillong HQ Region"},{"pincode":"791118","office":"Yorda","district":"KURUNG KUMEY","state":"ARUNACHAL PRADESH","circle":"North Eastern Circle","region":"Shillong HQ Region"},{"pincode":"791118","office":"Jha","district":"KURUNG KUMEY","state":"ARUNACHAL PRADESH","circle":"North Eastern Circle","region":"Shillong HQ Region"},{"pincode":"791102","office":"Adipasi B.O","district":"UPPER SIANG","state":"ARUNACHAL PRADESH","circle":"North Eastern Circle","region":"Shillong HQ Region"},{"pincode":"791102","office":"Balek B.O","district":"EAST SIANG","state":"ARUNACHAL PRADESH","circle":"North Eastern Circle","region":"Shillong HQ Region"},{"pincode":"791102","office":"Nari B.O","district":"LOWER SIANG","state":"ARUNACHAL PRADESH","circle":"North Eastern Circle","region":"Shillong HQ Region"},{"pincode":"791102","office":"Sille B.O","district":"EAST SIANG","state":"ARUNACHAL PRADESH","circle":"North Eastern Circle","region":"Shillong HQ Region"},{"pincode":"791102","office":"Yagrung B.O","district":"EAST SIANG","state":"ARUNACHAL PRADESH","circle":"North Eastern Circle","region":"Shillong HQ Region"},{"pincode":"791102","office":"Rasam","district":"EAST SIANG","state":"ARUNACHAL PRADESH","circle":"North Eastern Circle","region":"Shillong HQ Region"},{"pincode":"791113","office":"Jote Upper","district":"PAPUM PARE","state":"ARUNACHAL PRADESH","circle":"North Eastern Circle","region":"Shillong HQ Region"},{"pincode":"791113","office":"Poma","district":"PAPUM PARE","state":"ARUNACHAL PRADESH","circle":"North Eastern Circle","region":"Shillong HQ Region"},{"pincode":"791113","office":"Byate","district":"PAPUM PARE","state":"ARUNACHAL PRADESH","circle":"North Eastern Circle","region":"Shillong HQ Region"},{"pincode":"791113","office":"Meteka","district":"PAPUM PARE","state":"ARUNACHAL PRADESH","circle":"North Eastern Circle","region":"Shillong HQ Region"},{"pincode":"791113","office":"Lobi Dariya","district":"PAPUM PARE","state":"ARUNACHAL PRADESH","circle":"North Eastern Circle","region":"Shillong HQ Region"},{"pincode":"792110","office":"Paglam B.O","district":"LOWER DIBANG VALLEY","state":"ARUNACHAL PRADESH","circle":"North Eastern Circle","region":"Shillong HQ Region"},{"pincode":"792110","office":"Chanli","district":"DIBANG VALLEY","state":"ARUNACHAL PRADESH","circle":"North Eastern Circle","region":"Shillong HQ Region"},{"pincode":"792110","office":"Dopowa","district":"DIBANG VALLEY","state":"ARUNACHAL PRADESH","circle":"North Eastern Circle","region":"Shillong HQ Region"},{"pincode":"792110","office":"Mitaka","district":"DIBANG VALLEY","state":"ARUNACHAL PRADESH","circle":"North Eastern Circle","region":"Shillong HQ Region"},{"pincode":"792110","office":"Bomjir","district":"DIBANG VALLEY","state":"ARUNACHAL PRADESH","circle":"North Eastern Circle","region":"Shillong HQ Region"},{"pincode":"792110","office":"Loklung","district":"DIBANG VALLEY","state":"ARUNACHAL PRADESH","circle":"North Eastern Circle","region":"Shillong HQ Region"},{"pincode":"790003","office":"Shergaon B.O","district":"WEST KAMENG","state":"ARUNACHAL PRADESH","circle":"North Eastern Circle","region":"Shillong HQ Region"},{"pincode":"790102","office":"Pakke-Keshang H.Q./Upper Bazar Line/Lowe","district":"EAST KAMENG","state":"ARUNACHAL PRADESH","circle":"North Eastern Circle","region":"Shillong HQ Region"},{"pincode":"790102","office":"Passo Camp","district":"EAST KAMENG","state":"ARUNACHAL PRADESH","circle":"North Eastern Circle","region":"Shillong HQ Region"},{"pincode":"790102","office":"Devegolo","district":"EAST KAMENG","state":"ARUNACHAL PRADESH","circle":"North Eastern Circle","region":"Shillong HQ Region"},{"pincode":"790102","office":"Ningcho","district":"EAST KAMENG","state":"ARUNACHAL PRADESH","circle":"North Eastern Circle","region":"Shillong HQ Region"},{"pincode":"790102","office":"Yangsey","district":"EAST KAMENG","state":"ARUNACHAL PRADESH","circle":"North Eastern Circle","region":"Shillong HQ Region"},{"pincode":"790102","office":"Loffa","district":"EAST KAMENG","state":"ARUNACHAL PRADESH","circle":"North Eastern Circle","region":"Shillong HQ Region"},{"pincode":"790102","office":"Lada H.Q.","district":"EAST KAMENG","state":"ARUNACHAL PRADESH","circle":"North Eastern Circle","region":"Shillong HQ Region"},{"pincode":"790102","office":"Kojo","district":"EAST KAMENG","state":"ARUNACHAL PRADESH","circle":"North Eastern Circle","region":"Shillong HQ Region"},{"pincode":"790102","office":"Lower Liyak","district":"EAST KAMENG","state":"ARUNACHAL PRADESH","circle":"North Eastern Circle","region":"Shillong HQ Region"},{"pincode":"790102","office":"Effa","district":"EAST KAMENG","state":"ARUNACHAL PRADESH","circle":"North Eastern Circle","region":"Shillong HQ Region"},{"pincode":"790102","office":"Poube Sullung","district":"EAST KAMENG","state":"ARUNACHAL PRADESH","circle":"North Eastern Circle","region":"Shillong HQ Region"},{"pincode":"790102","office":"Bameng H.Q.","district":"EAST KAMENG","state":"ARUNACHAL PRADESH","circle":"North Eastern Circle","region":"Shillong HQ Region"},{"pincode":"790102","office":"Bokar","district":"EAST KAMENG","state":"ARUNACHAL PRADESH","circle":"North Eastern Circle","region":"Shillong HQ Region"},{"pincode":"790102","office":"Wotte Cheda","district":"EAST KAMENG","state":"ARUNACHAL PRADESH","circle":"North Eastern Circle","region":"Shillong HQ Region"},{"pincode":"790102","office":"Paffa","district":"EAST KAMENG","state":"ARUNACHAL PRADESH","circle":"North Eastern Circle","region":"Shillong HQ Region"},{"pincode":"790102","office":"Waii","district":"EAST KAMENG","state":"ARUNACHAL PRADESH","circle":"North Eastern Circle","region":"Shillong HQ Region"},{"pincode":"790102","office":"Yangfo","district":"EAST KAMENG","state":"ARUNACHAL PRADESH","circle":"North Eastern Circle","region":"Shillong HQ Region"},{"pincode":"790102","office":"Chayangtajo H.Q.","district":"EAST KAMENG","state":"ARUNACHAL PRADESH","circle":"North Eastern Circle","region":"Shillong HQ Region"},{"pincode":"790102","office":"Lamrah","district":"EAST KAMENG","state":"ARUNACHAL PRADESH","circle":"North Eastern Circle","region":"Shillong HQ Region"},{"pincode":"790104","office":"Temple Gompa B.O","district":"TAWANG","state":"ARUNACHAL PRADESH","circle":"North Eastern Circle","region":"Shillong HQ Region"},{"pincode":"790116","office":"Singchung B.O","district":"WEST KAMENG","state":"ARUNACHAL PRADESH","circle":"North Eastern Circle","region":"Shillong HQ Region"},{"pincode":"790116","office":"Bichom","district":"WEST KAMENG","state":"ARUNACHAL PRADESH","circle":"North Eastern Circle","region":"Shillong HQ Region"},{"pincode":"790116","office":"Ramdagania","district":"WEST KAMENG","state":"ARUNACHAL PRADESH","circle":"North Eastern Circle","region":"Shillong HQ Region"},{"pincode":"790116","office":"Pharizin","district":"WEST KAMENG","state":"ARUNACHAL PRADESH","circle":"North Eastern Circle","region":"Shillong HQ Region"},{"pincode":"790116","office":"Karangania","district":"WEST KAMENG","state":"ARUNACHAL PRADESH","circle":"North Eastern Circle","region":"Shillong HQ Region"},{"pincode":"792001","office":"Gohaingaon B.O","district":"LOHIT","state":"ARUNACHAL PRADESH","circle":"North Eastern Circle","region":"Shillong HQ Region"},{"pincode":"792001","office":"Tohangam","district":"LOHIT","state":"ARUNACHAL PRADESH","circle":"North Eastern Circle","region":"Shillong HQ Region"},{"pincode":"792001","office":"Salamgam","district":"LOHIT","state":"ARUNACHAL PRADESH","circle":"North Eastern Circle","region":"Shillong HQ Region"},{"pincode":"792001","office":"Manyu Tea Estate","district":"LOHIT","state":"ARUNACHAL PRADESH","circle":"North Eastern Circle","region":"Shillong HQ Region"},{"pincode":"791105","office":"Yorteng","district":"UPPER SIANG","state":"ARUNACHAL PRADESH","circle":"North Eastern Circle","region":"Shillong HQ Region"},{"pincode":"791105","office":"Mankota","district":"UPPER SIANG","state":"ARUNACHAL PRADESH","circle":"North Eastern Circle","region":"Shillong HQ Region"},{"pincode":"791002","office":"Moying","district":"UPPER SIANG","state":"ARUNACHAL PRADESH","circle":"North Eastern Circle","region":"Shillong HQ Region"},{"pincode":"792055","office":"Two-hat B.O","district":"CHANGLANG","state":"ARUNACHAL PRADESH","circle":"North Eastern Circle","region":"Shillong HQ Region"},{"pincode":"791002","office":"Jommo-Kupak","district":"UPPER SIANG","state":"ARUNACHAL PRADESH","circle":"North Eastern Circle","region":"Shillong HQ Region"},{"pincode":"791120","office":"Deed B.O","district":"LOWER SUBANSIRI","state":"ARUNACHAL PRADESH","circle":"North Eastern Circle","region":"Shillong HQ Region"},{"pincode":"791120","office":"BIIRII B.O","district":"LOWER SUBANSIRI","state":"ARUNACHAL PRADESH","circle":"North Eastern Circle","region":"Shillong HQ Region"},{"pincode":"791120","office":"Boa-Simla","district":"LOWER SUBANSIRI","state":"ARUNACHAL PRADESH","circle":"North Eastern Circle","region":"Shillong HQ Region"},{"pincode":"791120","office":"Kamporijo H.Q.","district":"LOWER SUBANSIRI","state":"ARUNACHAL PRADESH","circle":"North Eastern Circle","region":"Shillong HQ Region"},{"pincode":"791114","office":"Rupung","district":"PAPUM PARE","state":"ARUNACHAL PRADESH","circle":"North Eastern Circle","region":"Shillong HQ Region"},{"pincode":"791114","office":"Narang Putung","district":"PAPUM PARE","state":"ARUNACHAL PRADESH","circle":"North Eastern Circle","region":"Shillong HQ Region"},{"pincode":"791114","office":"Sango","district":"PAPUM PARE","state":"ARUNACHAL PRADESH","circle":"North Eastern Circle","region":"Shillong HQ Region"},{"pincode":"791114","office":"Arung","district":"PAPUM PARE","state":"ARUNACHAL PRADESH","circle":"North Eastern Circle","region":"Shillong HQ Region"},{"pincode":"792129","office":"Deomali S.O","district":"TIRAP","state":"ARUNACHAL PRADESH","circle":"North Eastern Circle","region":"Shillong HQ Region"},{"pincode":"791103","office":"Hill Top S.O","district":"EAST SIANG","state":"ARUNACHAL PRADESH","circle":"North Eastern Circle","region":"Shillong HQ Region"},{"pincode":"790105","office":"Jang S.O","district":"TAWANG","state":"ARUNACHAL PRADESH","circle":"North Eastern Circle","region":"Shillong HQ Region"},{"pincode":"791125","office":"Likabali S.O","district":"LOWER SIANG","state":"ARUNACHAL PRADESH","circle":"North Eastern Circle","region":"Shillong HQ Region"},{"pincode":"790003","office":"Rupa S.O","district":"WEST KAMENG","state":"ARUNACHAL PRADESH","circle":"North Eastern Circle","region":"Shillong HQ Region"},{"pincode":"791105","office":"Tuting S.O","district":"UPPER SIANG","state":"ARUNACHAL PRADESH","circle":"North Eastern Circle","region":"Shillong HQ Region"},{"pincode":"791001","office":"Darka B.O","district":"WEST SIANG","state":"ARUNACHAL PRADESH","circle":"North Eastern Circle","region":"Shillong HQ Region"},{"pincode":"791001","office":"Kambang B.O","district":"WEST SIANG","state":"ARUNACHAL PRADESH","circle":"North Eastern Circle","region":"Shillong HQ Region"},{"pincode":"791001","office":"Tato B.O","district":"SHI YOMI","state":"ARUNACHAL PRADESH","circle":"North Eastern Circle","region":"Shillong HQ Region"},{"pincode":"791001","office":"Gaming","district":"WEST SIANG","state":"ARUNACHAL PRADESH","circle":"North Eastern Circle","region":"Shillong HQ Region"},{"pincode":"791001","office":"Molo","district":"WEST SIANG","state":"ARUNACHAL PRADESH","circle":"North Eastern Circle","region":"Shillong HQ Region"},{"pincode":"791001","office":"Bogne","district":"WEST SIANG","state":"ARUNACHAL PRADESH","circle":"North Eastern Circle","region":"Shillong HQ Region"},{"pincode":"791001","office":"Ruyi","district":"WEST SIANG","state":"ARUNACHAL PRADESH","circle":"North Eastern Circle","region":"Shillong HQ Region"},{"pincode":"791001","office":"Jomlo Mobuk","district":"WEST SIANG","state":"ARUNACHAL PRADESH","circle":"North Eastern Circle","region":"Shillong HQ Region"},{"pincode":"791001","office":"Rampa(including Patum Camp)","district":"WEST SIANG","state":"ARUNACHAL PRADESH","circle":"North Eastern Circle","region":"Shillong HQ Region"},{"pincode":"791001","office":"Bole","district":"WEST SIANG","state":"ARUNACHAL PRADESH","circle":"North Eastern Circle","region":"Shillong HQ Region"},{"pincode":"791101","office":"Legi","district":"WEST SIANG","state":"ARUNACHAL PRADESH","circle":"North Eastern Circle","region":"Shillong HQ Region"},{"pincode":"791001","office":"Lipu Yomcha","district":"WEST SIANG","state":"ARUNACHAL PRADESH","circle":"North Eastern Circle","region":"Shillong HQ Region"},{"pincode":"791001","office":"Yomcha H.Q.","district":"WEST SIANG","state":"ARUNACHAL PRADESH","circle":"North Eastern Circle","region":"Shillong HQ Region"},{"pincode":"792110","office":"Aruli","district":"DIBANG VALLEY","state":"ARUNACHAL PRADESH","circle":"North Eastern Circle","region":"Shillong HQ Region"},{"pincode":"792110","office":"Anelih H.Q.","district":"DIBANG VALLEY","state":"ARUNACHAL PRADESH","circle":"North Eastern Circle","region":"Shillong HQ Region"},{"pincode":"792110","office":"Awoka","district":"DIBANG VALLEY","state":"ARUNACHAL PRADESH","circle":"North Eastern Circle","region":"Shillong HQ Region"},{"pincode":"792110","office":"Ipingo","district":"DIBANG VALLEY","state":"ARUNACHAL PRADESH","circle":"North Eastern Circle","region":"Shillong HQ Region"},{"pincode":"792110","office":"Cheppe","district":"DIBANG VALLEY","state":"ARUNACHAL PRADESH","circle":"North Eastern Circle","region":"Shillong HQ Region"},{"pincode":"792110","office":"Wanli","district":"DIBANG VALLEY","state":"ARUNACHAL PRADESH","circle":"North Eastern Circle","region":"Shillong HQ Region"},{"pincode":"792110","office":"Arzoo","district":"DIBANG VALLEY","state":"ARUNACHAL PRADESH","circle":"North Eastern Circle","region":"Shillong HQ Region"},{"pincode":"791123","office":"Lower Tubung","district":"PAPUM PARE","state":"ARUNACHAL PRADESH","circle":"North Eastern Circle","region":"Shillong HQ Region"},{"pincode":"791123","office":"Pichola Nyishi","district":"PAPUM PARE","state":"ARUNACHAL PRADESH","circle":"North Eastern Circle","region":"Shillong HQ Region"},{"pincode":"791101","office":"Tirbin (HQ)","district":"WEST SIANG","state":"ARUNACHAL PRADESH","circle":"North Eastern Circle","region":"Shillong HQ Region"},{"pincode":"791101","office":"Chirne","district":"WEST SIANG","state":"ARUNACHAL PRADESH","circle":"North Eastern Circle","region":"Shillong HQ Region"},{"pincode":"790001","office":"Rahung B.O","district":"WEST KAMENG","state":"ARUNACHAL PRADESH","circle":"North Eastern Circle","region":"Shillong HQ Region"},{"pincode":"790001","office":"Salari B.O","district":"WEST KAMENG","state":"ARUNACHAL PRADESH","circle":"North Eastern Circle","region":"Shillong HQ Region"},{"pincode":"790001","office":"Ditchik","district":"WEST KAMENG","state":"ARUNACHAL PRADESH","circle":"North Eastern Circle","region":"Shillong HQ Region"},{"pincode":"792056","office":"Lallung B.O","district":"CHANGLANG","state":"ARUNACHAL PRADESH","circle":"North Eastern Circle","region":"Shillong HQ Region"},{"pincode":"792120","office":"Rangfrah Covt College B.O","district":"CHANGLANG","state":"ARUNACHAL PRADESH","circle":"North Eastern Circle","region":"Shillong HQ Region"},{"pincode":"792120","office":"Yangkang B.O","district":"CHANGLANG","state":"ARUNACHAL PRADESH","circle":"North Eastern Circle","region":"Shillong HQ Region"},{"pincode":"792102","office":"Alubari B.O","district":"NAMSAI","state":"ARUNACHAL PRADESH","circle":"North Eastern Circle","region":"Shillong HQ Region"},{"pincode":"792102","office":"Momong B.O","district":"NAMSAI","state":"ARUNACHAL PRADESH","circle":"North Eastern Circle","region":"Shillong HQ Region"},{"pincode":"791122","office":"Muri B.O","district":"UPPER SUBANSIRI","state":"ARUNACHAL PRADESH","circle":"North Eastern Circle","region":"Shillong HQ Region"},{"pincode":"791122","office":"Nacho B.O","district":"UPPER SUBANSIRI","state":"ARUNACHAL PRADESH","circle":"North Eastern Circle","region":"Shillong HQ Region"},{"pincode":"791122","office":"Tabarijo B.O","district":"UPPER SUBANSIRI","state":"ARUNACHAL PRADESH","circle":"North Eastern Circle","region":"Shillong HQ Region"},{"pincode":"791122","office":"Taksing B.O","district":"UPPER SUBANSIRI","state":"ARUNACHAL PRADESH","circle":"North Eastern Circle","region":"Shillong HQ Region"},{"pincode":"791122","office":"Ojugu","district":"UPPER SUBANSIRI","state":"ARUNACHAL PRADESH","circle":"North Eastern Circle","region":"Shillong HQ Region"},{"pincode":"791122","office":"Gelomo Camp(Golomoring)","district":"UPPER SUBANSIRI","state":"ARUNACHAL PRADESH","circle":"North Eastern Circle","region":"Shillong HQ Region"},{"pincode":"791122","office":"Ebya","district":"UPPER SUBANSIRI","state":"ARUNACHAL PRADESH","circle":"North Eastern Circle","region":"Shillong HQ Region"},{"pincode":"791122","office":"Riaku","district":"UPPER SUBANSIRI","state":"ARUNACHAL PRADESH","circle":"North Eastern Circle","region":"Shillong HQ Region"},{"pincode":"791122","office":"Byachng(Siyum H.Q.)","district":"UPPER SUBANSIRI","state":"ARUNACHAL PRADESH","circle":"North Eastern Circle","region":"Shillong HQ Region"},{"pincode":"791122","office":"Eyum","district":"UPPER SUBANSIRI","state":"ARUNACHAL PRADESH","circle":"North Eastern Circle","region":"Shillong HQ Region"},{"pincode":"791122","office":"Mesing Mara","district":"UPPER SUBANSIRI","state":"ARUNACHAL PRADESH","circle":"North Eastern Circle","region":"Shillong HQ Region"},{"pincode":"791122","office":"Heyamara","district":"UPPER SUBANSIRI","state":"ARUNACHAL PRADESH","circle":"North Eastern Circle","region":"Shillong HQ Region"},{"pincode":"791122","office":"Pillingmaling","district":"UPPER SUBANSIRI","state":"ARUNACHAL PRADESH","circle":"North Eastern Circle","region":"Shillong HQ Region"},{"pincode":"791122","office":"Tasiring","district":"UPPER SUBANSIRI","state":"ARUNACHAL PRADESH","circle":"North Eastern Circle","region":"Shillong HQ Region"},{"pincode":"791122","office":"Esso","district":"UPPER SUBANSIRI","state":"ARUNACHAL PRADESH","circle":"North Eastern Circle","region":"Shillong HQ Region"},{"pincode":"791122","office":"Jorjo Riamukh","district":"UPPER SUBANSIRI","state":"ARUNACHAL PRADESH","circle":"North Eastern Circle","region":"Shillong HQ Region"},{"pincode":"791122","office":"Haring Kamsar","district":"UPPER SUBANSIRI","state":"ARUNACHAL PRADESH","circle":"North Eastern Circle","region":"Shillong HQ Region"},{"pincode":"791122","office":"Leriak","district":"UPPER SUBANSIRI","state":"ARUNACHAL PRADESH","circle":"North Eastern Circle","region":"Shillong HQ Region"},{"pincode":"791122","office":"Markia","district":"UPPER SUBANSIRI","state":"ARUNACHAL PRADESH","circle":"North Eastern Circle","region":"Shillong HQ Region"},{"pincode":"791122","office":"Leya","district":"UPPER SUBANSIRI","state":"ARUNACHAL PRADESH","circle":"North Eastern Circle","region":"Shillong HQ Region"},{"pincode":"791122","office":"Dargung","district":"UPPER SUBANSIRI","state":"ARUNACHAL PRADESH","circle":"North Eastern Circle","region":"Shillong HQ Region"},{"pincode":"791122","office":"Lute","district":"UPPER SUBANSIRI","state":"ARUNACHAL PRADESH","circle":"North Eastern Circle","region":"Shillong HQ Region"},{"pincode":"791122","office":"Giba H.Q.","district":"UPPER SUBANSIRI","state":"ARUNACHAL PRADESH","circle":"North Eastern Circle","region":"Shillong HQ Region"},{"pincode":"791122","office":"New Hali","district":"UPPER SUBANSIRI","state":"ARUNACHAL PRADESH","circle":"North Eastern Circle","region":"Shillong HQ Region"},{"pincode":"792129","office":"Soha B.O","district":"TIRAP","state":"ARUNACHAL PRADESH","circle":"North Eastern Circle","region":"Shillong HQ Region"},{"pincode":"791112","office":"Pech","district":"PAPUM PARE","state":"ARUNACHAL PRADESH","circle":"North Eastern Circle","region":"Shillong HQ Region"},{"pincode":"791112","office":"Sangri","district":"PAPUM PARE","state":"ARUNACHAL PRADESH","circle":"North Eastern Circle","region":"Shillong HQ Region"},{"pincode":"791112","office":"Upper Gai","district":"PAPUM PARE","state":"ARUNACHAL PRADESH","circle":"North Eastern Circle","region":"Shillong HQ Region"},{"pincode":"792104","office":"Goiliang B.O","district":"ANJAW","state":"ARUNACHAL PRADESH","circle":"North Eastern Circle","region":"Shillong HQ Region"},{"pincode":"792104","office":"Hawai B.O","district":"ANJAW","state":"ARUNACHAL PRADESH","circle":"North Eastern Circle","region":"Shillong HQ Region"},{"pincode":"792104","office":"Kibitho B.O","district":"ANJAW","state":"ARUNACHAL PRADESH","circle":"North Eastern Circle","region":"Shillong HQ Region"},{"pincode":"792104","office":"Yatong B.O","district":"ANJAW","state":"ARUNACHAL PRADESH","circle":"North Eastern Circle","region":"Shillong HQ Region"},{"pincode":"792104","office":"Krosam","district":"ANJAW","state":"ARUNACHAL PRADESH","circle":"North Eastern Circle","region":"Shillong HQ Region"},{"pincode":"792104","office":"Phanglonglat","district":"ANJAW","state":"ARUNACHAL PRADESH","circle":"North Eastern Circle","region":"Shillong HQ Region"},{"pincode":"792104","office":"Chambab Khamukh","district":"ANJAW","state":"ARUNACHAL PRADESH","circle":"North Eastern Circle","region":"Shillong HQ Region"},{"pincode":"792104","office":"Doiliang","district":"ANJAW","state":"ARUNACHAL PRADESH","circle":"North Eastern Circle","region":"Shillong HQ Region"},{"pincode":"792104","office":"Chaglagam H.Q.","district":"ANJAW","state":"ARUNACHAL PRADESH","circle":"North Eastern Circle","region":"Shillong HQ Region"},{"pincode":"792104","office":"Halla","district":"ANJAW","state":"ARUNACHAL PRADESH","circle":"North Eastern Circle","region":"Shillong HQ Region"},{"pincode":"792104","office":"Gai","district":"ANJAW","state":"ARUNACHAL PRADESH","circle":"North Eastern Circle","region":"Shillong HQ Region"},{"pincode":"792104","office":"Blong","district":"ANJAW","state":"ARUNACHAL PRADESH","circle":"North Eastern Circle","region":"Shillong HQ Region"},{"pincode":"792104","office":"Ngi","district":"ANJAW","state":"ARUNACHAL PRADESH","circle":"North Eastern Circle","region":"Shillong HQ Region"},{"pincode":"792104","office":"Kheyong","district":"ANJAW","state":"ARUNACHAL PRADESH","circle":"North Eastern Circle","region":"Shillong HQ Region"},{"pincode":"791103","office":"Yingku","district":"EAST SIANG","state":"ARUNACHAL PRADESH","circle":"North Eastern Circle","region":"Shillong HQ Region"},{"pincode":"791004","office":"Babuk","district":"EAST SIANG","state":"ARUNACHAL PRADESH","circle":"North Eastern Circle","region":"Shillong HQ Region"},{"pincode":"791103","office":"Rebo-Perging","district":"EAST SIANG","state":"ARUNACHAL PRADESH","circle":"North Eastern Circle","region":"Shillong HQ Region"},{"pincode":"792121","office":"Vijoynagar B.O","district":"CHANGLANG","state":"ARUNACHAL PRADESH","circle":"North Eastern Circle","region":"Shillong HQ Region"},{"pincode":"790002","office":"Tenzingaon B.O","district":"WEST KAMENG","state":"ARUNACHAL PRADESH","circle":"North Eastern Circle","region":"Shillong HQ Region"},{"pincode":"792130","office":"Dadam B.O","district":"TIRAP","state":"ARUNACHAL PRADESH","circle":"North Eastern Circle","region":"Shillong HQ Region"},{"pincode":"792130","office":"Kanubari B.O","district":"LONGDING","state":"ARUNACHAL PRADESH","circle":"North Eastern Circle","region":"Shillong HQ Region"},{"pincode":"792130","office":"Lazu B.O","district":"TIRAP","state":"ARUNACHAL PRADESH","circle":"North Eastern Circle","region":"Shillong HQ Region"},{"pincode":"792130","office":"Mopaya","district":"TIRAP","state":"ARUNACHAL PRADESH","circle":"North Eastern Circle","region":"Shillong HQ Region"},{"pincode":"792130","office":"Soha","district":"TIRAP","state":"ARUNACHAL PRADESH","circle":"North Eastern Circle","region":"Shillong HQ Region"},{"pincode":"792130","office":"Sumsipathar","district":"TIRAP","state":"ARUNACHAL PRADESH","circle":"North Eastern Circle","region":"Shillong HQ Region"},{"pincode":"792130","office":"Pansumthong","district":"TIRAP","state":"ARUNACHAL PRADESH","circle":"North Eastern Circle","region":"Shillong HQ Region"},{"pincode":"792130","office":"Moktowa - I","district":"TIRAP","state":"ARUNACHAL PRADESH","circle":"North Eastern Circle","region":"Shillong HQ Region"},{"pincode":"791125","office":"Paimori","district":"LOWER SIANG","state":"ARUNACHAL PRADESH","circle":"North Eastern Circle","region":"Shillong HQ Region"},{"pincode":"791125","office":"Silli","district":"LOWER SIANG","state":"ARUNACHAL PRADESH","circle":"North Eastern Circle","region":"Shillong HQ Region"},{"pincode":"791125","office":"Germe","district":"LOWER SIANG","state":"ARUNACHAL PRADESH","circle":"North Eastern Circle","region":"Shillong HQ Region"},{"pincode":"791125","office":"Beye","district":"LOWER SIANG","state":"ARUNACHAL PRADESH","circle":"North Eastern Circle","region":"Shillong HQ Region"},{"pincode":"791125","office":"Pushi Doke","district":"LOWER SIANG","state":"ARUNACHAL PRADESH","circle":"North Eastern Circle","region":"Shillong HQ Region"},{"pincode":"792131","office":"Niausa B.O","district":"LONGDING","state":"ARUNACHAL PRADESH","circle":"North Eastern Circle","region":"Shillong HQ Region"},{"pincode":"792131","office":"Sangsatham","district":"LONGDING","state":"ARUNACHAL PRADESH","circle":"North Eastern Circle","region":"Shillong HQ Region"},{"pincode":"792131","office":"Longkhojan","district":"LONGDING","state":"ARUNACHAL PRADESH","circle":"North Eastern Circle","region":"Shillong HQ Region"},{"pincode":"792131","office":"Chatting","district":"LONGDING","state":"ARUNACHAL PRADESH","circle":"North Eastern Circle","region":"Shillong HQ Region"},{"pincode":"792131","office":"Pumao H.Q.","district":"LONGDING","state":"ARUNACHAL PRADESH","circle":"North Eastern Circle","region":"Shillong HQ Region"},{"pincode":"792131","office":"Chop","district":"LONGDING","state":"ARUNACHAL PRADESH","circle":"North Eastern Circle","region":"Shillong HQ Region"},{"pincode":"790106","office":"New Lumla","district":"TAWANG","state":"ARUNACHAL PRADESH","circle":"North Eastern Circle","region":"Shillong HQ Region"},{"pincode":"790106","office":"Sazo","district":"TAWANG","state":"ARUNACHAL PRADESH","circle":"North Eastern Circle","region":"Shillong HQ Region"},{"pincode":"791104","office":"Paglam","district":"EAST SIANG","state":"ARUNACHAL PRADESH","circle":"North Eastern Circle","region":"Shillong HQ Region"},{"pincode":"791003","office":"Monigong H.Q.","district":"SHI YOMI","state":"ARUNACHAL PRADESH","circle":"North Eastern Circle","region":"Shillong HQ Region"},{"pincode":"792122","office":"Chopelling B.O","district":"CHANGLANG","state":"ARUNACHAL PRADESH","circle":"North Eastern Circle","region":"Shillong HQ Region"},{"pincode":"792123","office":"New Rima","district":"CHANGLANG","state":"ARUNACHAL PRADESH","circle":"North Eastern Circle","region":"Shillong HQ Region"},{"pincode":"792123","office":"Chamro","district":"CHANGLANG","state":"ARUNACHAL PRADESH","circle":"North Eastern Circle","region":"Shillong HQ Region"},{"pincode":"792123","office":"Ramnagar","district":"CHANGLANG","state":"ARUNACHAL PRADESH","circle":"North Eastern Circle","region":"Shillong HQ Region"},{"pincode":"792103","office":"Diyun B.O","district":"NAMSAI","state":"ARUNACHAL PRADESH","circle":"North Eastern Circle","region":"Shillong HQ Region"},{"pincode":"792103","office":"Jaipur B.O","district":"NAMSAI","state":"ARUNACHAL PRADESH","circle":"North Eastern Circle","region":"Shillong HQ Region"},{"pincode":"792103","office":"Nampong B.O","district":"NAMSAI","state":"ARUNACHAL PRADESH","circle":"North Eastern Circle","region":"Shillong HQ Region"},{"pincode":"792103","office":"Mabira","district":"NAMSAI","state":"ARUNACHAL PRADESH","circle":"North Eastern Circle","region":"Shillong HQ Region"},{"pincode":"792103","office":"Insa","district":"NAMSAI","state":"ARUNACHAL PRADESH","circle":"North Eastern Circle","region":"Shillong HQ Region"},{"pincode":"792103","office":"Manmow","district":"NAMSAI","state":"ARUNACHAL PRADESH","circle":"North Eastern Circle","region":"Shillong HQ Region"},{"pincode":"792103","office":"Modhuban","district":"NAMSAI","state":"ARUNACHAL PRADESH","circle":"North Eastern Circle","region":"Shillong HQ Region"},{"pincode":"792103","office":"Nampong Village","district":"NAMSAI","state":"ARUNACHAL PRADESH","circle":"North Eastern Circle","region":"Shillong HQ Region"},{"pincode":"792103","office":"Nongtaw Khamti","district":"NAMSAI","state":"ARUNACHAL PRADESH","circle":"North Eastern Circle","region":"Shillong HQ Region"},{"pincode":"791118","office":"Tali B.O","district":"KRA DAADI","state":"ARUNACHAL PRADESH","circle":"North Eastern Circle","region":"Shillong HQ Region"},{"pincode":"791118","office":"Pania","district":"KURUNG KUMEY","state":"ARUNACHAL PRADESH","circle":"North Eastern Circle","region":"Shillong HQ Region"},{"pincode":"791118","office":"Amji","district":"KURUNG KUMEY","state":"ARUNACHAL PRADESH","circle":"North Eastern Circle","region":"Shillong HQ Region"},{"pincode":"791118","office":"Dokur","district":"KURUNG KUMEY","state":"ARUNACHAL PRADESH","circle":"North Eastern Circle","region":"Shillong HQ Region"},{"pincode":"791118","office":"Yaba","district":"KURUNG KUMEY","state":"ARUNACHAL PRADESH","circle":"North Eastern Circle","region":"Shillong HQ Region"},{"pincode":"791118","office":"Chaba (Pokpu)","district":"KURUNG KUMEY","state":"ARUNACHAL PRADESH","circle":"North Eastern Circle","region":"Shillong HQ Region"},{"pincode":"791118","office":"Ringte","district":"KURUNG KUMEY","state":"ARUNACHAL PRADESH","circle":"North Eastern Circle","region":"Shillong HQ Region"},{"pincode":"791118","office":"Mirr- II","district":"KURUNG KUMEY","state":"ARUNACHAL PRADESH","circle":"North Eastern Circle","region":"Shillong HQ Region"},{"pincode":"791118","office":"Dengba","district":"KURUNG KUMEY","state":"ARUNACHAL PRADESH","circle":"North Eastern Circle","region":"Shillong HQ Region"},{"pincode":"791118","office":"Sona","district":"KURUNG KUMEY","state":"ARUNACHAL PRADESH","circle":"North Eastern Circle","region":"Shillong HQ Region"},{"pincode":"791118","office":"Tachak","district":"KURUNG KUMEY","state":"ARUNACHAL PRADESH","circle":"North Eastern Circle","region":"Shillong HQ Region"},{"pincode":"791118","office":"Leel Camp","district":"KURUNG KUMEY","state":"ARUNACHAL PRADESH","circle":"North Eastern Circle","region":"Shillong HQ Region"},{"pincode":"791118","office":"Nangram","district":"KURUNG KUMEY","state":"ARUNACHAL PRADESH","circle":"North Eastern Circle","region":"Shillong HQ Region"},{"pincode":"791118","office":"Chello","district":"KURUNG KUMEY","state":"ARUNACHAL PRADESH","circle":"North Eastern Circle","region":"Shillong HQ Region"},{"pincode":"791118","office":"Rongterite","district":"KURUNG KUMEY","state":"ARUNACHAL PRADESH","circle":"North Eastern Circle","region":"Shillong HQ Region"},{"pincode":"791118","office":"Lungchi","district":"KURUNG KUMEY","state":"ARUNACHAL PRADESH","circle":"North Eastern Circle","region":"Shillong HQ Region"},{"pincode":"791118","office":"Gangte","district":"KURUNG KUMEY","state":"ARUNACHAL PRADESH","circle":"North Eastern Circle","region":"Shillong HQ Region"},{"pincode":"791118","office":"Boje","district":"KURUNG KUMEY","state":"ARUNACHAL PRADESH","circle":"North Eastern Circle","region":"Shillong HQ Region"},{"pincode":"791118","office":"Tai","district":"KURUNG KUMEY","state":"ARUNACHAL PRADESH","circle":"North Eastern Circle","region":"Shillong HQ Region"},{"pincode":"791118","office":"Gonang","district":"KURUNG KUMEY","state":"ARUNACHAL PRADESH","circle":"North Eastern Circle","region":"Shillong HQ Region"},{"pincode":"791118","office":"Leya","district":"KURUNG KUMEY","state":"ARUNACHAL PRADESH","circle":"North Eastern Circle","region":"Shillong HQ Region"},{"pincode":"791118","office":"Yerba","district":"KURUNG KUMEY","state":"ARUNACHAL PRADESH","circle":"North Eastern Circle","region":"Shillong HQ Region"},{"pincode":"791118","office":"Tungbia","district":"KURUNG KUMEY","state":"ARUNACHAL PRADESH","circle":"North Eastern Circle","region":"Shillong HQ Region"},{"pincode":"791118","office":"Lumte Tacha-(Sepente)","district":"KURUNG KUMEY","state":"ARUNACHAL PRADESH","circle":"North Eastern Circle","region":"Shillong HQ Region"},{"pincode":"791118","office":"Yarik","district":"KURUNG KUMEY","state":"ARUNACHAL PRADESH","circle":"North Eastern Circle","region":"Shillong HQ Region"},{"pincode":"791118","office":"Hanglik","district":"KURUNG KUMEY","state":"ARUNACHAL PRADESH","circle":"North Eastern Circle","region":"Shillong HQ Region"},{"pincode":"791118","office":"Haimachi","district":"KURUNG KUMEY","state":"ARUNACHAL PRADESH","circle":"North Eastern Circle","region":"Shillong HQ Region"},{"pincode":"791118","office":"Zara","district":"KURUNG KUMEY","state":"ARUNACHAL PRADESH","circle":"North Eastern Circle","region":"Shillong HQ Region"},{"pincode":"791118","office":"Kaba","district":"KURUNG KUMEY","state":"ARUNACHAL PRADESH","circle":"North Eastern Circle","region":"Shillong HQ Region"},{"pincode":"791118","office":"Biya","district":"KURUNG KUMEY","state":"ARUNACHAL PRADESH","circle":"North Eastern Circle","region":"Shillong HQ Region"},{"pincode":"791118","office":"Hapuk","district":"KURUNG KUMEY","state":"ARUNACHAL PRADESH","circle":"North Eastern Circle","region":"Shillong HQ Region"},{"pincode":"791002","office":"Dalbing B.O","district":"UPPER SIANG","state":"ARUNACHAL PRADESH","circle":"North Eastern Circle","region":"Shillong HQ Region"},{"pincode":"791102","office":"Debing B.O","district":"EAST SIANG","state":"ARUNACHAL PRADESH","circle":"North Eastern Circle","region":"Shillong HQ Region"},{"pincode":"791102","office":"Kebang B.O","district":"SIANG","state":"ARUNACHAL PRADESH","circle":"North Eastern Circle","region":"Shillong HQ Region"},{"pincode":"791102","office":"Korang B.O","district":"LOWER SIANG","state":"ARUNACHAL PRADESH","circle":"North Eastern Circle","region":"Shillong HQ Region"},{"pincode":"791102","office":"Pangin B.O","district":"SIANG","state":"ARUNACHAL PRADESH","circle":"North Eastern Circle","region":"Shillong HQ Region"},{"pincode":"791102","office":"Rani B.O","district":"EAST SIANG","state":"ARUNACHAL PRADESH","circle":"North Eastern Circle","region":"Shillong HQ Region"},{"pincode":"791102","office":"Renging B.O","district":"EAST SIANG","state":"ARUNACHAL PRADESH","circle":"North Eastern Circle","region":"Shillong HQ Region"},{"pincode":"791102","office":"Muralali/Pillumuk F.Camp","district":"EAST SIANG","state":"ARUNACHAL PRADESH","circle":"North Eastern Circle","region":"Shillong HQ Region"},{"pincode":"791102","office":"Sigar","district":"EAST SIANG","state":"ARUNACHAL PRADESH","circle":"North Eastern Circle","region":"Shillong HQ Region"},{"pincode":"791102","office":"Seram","district":"EAST SIANG","state":"ARUNACHAL PRADESH","circle":"North Eastern Circle","region":"Shillong HQ Region"},{"pincode":"791102","office":"Mer","district":"EAST SIANG","state":"ARUNACHAL PRADESH","circle":"North Eastern Circle","region":"Shillong HQ Region"},{"pincode":"791113","office":"Depra","district":"PAPUM PARE","state":"ARUNACHAL PRADESH","circle":"North Eastern Circle","region":"Shillong HQ Region"},{"pincode":"791113","office":"Lower Taraso","district":"PAPUM PARE","state":"ARUNACHAL PRADESH","circle":"North Eastern Circle","region":"Shillong HQ Region"},{"pincode":"791119","office":"Rubdi","district":"LOWER SUBANSIRI","state":"ARUNACHAL PRADESH","circle":"North Eastern Circle","region":"Shillong HQ Region"},{"pincode":"791119","office":"Lichlit","district":"LOWER SUBANSIRI","state":"ARUNACHAL PRADESH","circle":"North Eastern Circle","region":"Shillong HQ Region"},{"pincode":"792110","office":"Bijari B.O","district":"LOWER DIBANG VALLEY","state":"ARUNACHAL PRADESH","circle":"North Eastern Circle","region":"Shillong HQ Region"},{"pincode":"792110","office":"Desali B.O","district":"LOWER DIBANG VALLEY","state":"ARUNACHAL PRADESH","circle":"North Eastern Circle","region":"Shillong HQ Region"},{"pincode":"792110","office":"Etalin B.O","district":"DIBANG VALLEY","state":"ARUNACHAL PRADESH","circle":"North Eastern Circle","region":"Shillong HQ Region"},{"pincode":"792110","office":"Hunli B.O","district":"LOWER DIBANG VALLEY","state":"ARUNACHAL PRADESH","circle":"North Eastern Circle","region":"Shillong HQ Region"},{"pincode":"792110","office":"Meka B.O","district":"LOWER DIBANG VALLEY","state":"ARUNACHAL PRADESH","circle":"North Eastern Circle","region":"Shillong HQ Region"},{"pincode":"792110","office":"Sulongo","district":"DIBANG VALLEY","state":"ARUNACHAL PRADESH","circle":"North Eastern Circle","region":"Shillong HQ Region"},{"pincode":"792110","office":"HukaniPengo","district":"DIBANG VALLEY","state":"ARUNACHAL PRADESH","circle":"North Eastern Circle","region":"Shillong HQ Region"},{"pincode":"792110","office":"Khinjili","district":"DIBANG VALLEY","state":"ARUNACHAL PRADESH","circle":"North Eastern Circle","region":"Shillong HQ Region"},{"pincode":"792110","office":"Bizari I","district":"DIBANG VALLEY","state":"ARUNACHAL PRADESH","circle":"North Eastern Circle","region":"Shillong HQ Region"},{"pincode":"792110","office":"Bizari II","district":"DIBANG VALLEY","state":"ARUNACHAL PRADESH","circle":"North Eastern Circle","region":"Shillong HQ Region"},{"pincode":"792110","office":"Tinali H.Q.","district":"DIBANG VALLEY","state":"ARUNACHAL PRADESH","circle":"North Eastern Circle","region":"Shillong HQ Region"},{"pincode":"790103","office":"Dikalmukh B.O","district":"PAKKE KESSANG","state":"ARUNACHAL PRADESH","circle":"North Eastern Circle","region":"Shillong HQ Region"},{"pincode":"790103","office":"West Dekorai","district":"PAKKE KESSANG","state":"ARUNACHAL PRADESH","circle":"North Eastern Circle","region":"Shillong HQ Region"},{"pincode":"790103","office":"Dirring","district":"PAKKE KESSANG","state":"ARUNACHAL PRADESH","circle":"North Eastern Circle","region":"Shillong HQ Region"},{"pincode":"790103","office":"Tayarso","district":"PAKKE KESSANG","state":"ARUNACHAL PRADESH","circle":"North Eastern Circle","region":"Shillong HQ Region"},{"pincode":"790102","office":"Chyangtajo B.O","district":"EAST KAMENG","state":"ARUNACHAL PRADESH","circle":"North Eastern Circle","region":"Shillong HQ Region"},{"pincode":"790102","office":"Khenewa B.O","district":"EAST KAMENG","state":"ARUNACHAL PRADESH","circle":"North Eastern Circle","region":"Shillong HQ Region"},{"pincode":"790102","office":"P.Kessang B.O","district":"PAKKE KESSANG","state":"ARUNACHAL PRADESH","circle":"North Eastern Circle","region":"Shillong HQ Region"},{"pincode":"790102","office":"Palizi B.O","district":"WEST KAMENG","state":"ARUNACHAL PRADESH","circle":"North Eastern Circle","region":"Shillong HQ Region"},{"pincode":"790102","office":"Khodaso","district":"EAST KAMENG","state":"ARUNACHAL PRADESH","circle":"North Eastern Circle","region":"Shillong HQ Region"},{"pincode":"790102","office":"Palin","district":"EAST KAMENG","state":"ARUNACHAL PRADESH","circle":"North Eastern Circle","region":"Shillong HQ Region"},{"pincode":"790102","office":"Hote Veo","district":"EAST KAMENG","state":"ARUNACHAL PRADESH","circle":"North Eastern Circle","region":"Shillong HQ Region"},{"pincode":"790102","office":"Talomsima","district":"EAST KAMENG","state":"ARUNACHAL PRADESH","circle":"North Eastern Circle","region":"Shillong HQ Region"},{"pincode":"790102","office":"Richukrong H.Q.","district":"EAST KAMENG","state":"ARUNACHAL PRADESH","circle":"North Eastern Circle","region":"Shillong HQ Region"},{"pincode":"790102","office":"Kafla","district":"EAST KAMENG","state":"ARUNACHAL PRADESH","circle":"North Eastern Circle","region":"Shillong HQ Region"},{"pincode":"790102","office":"Champing","district":"EAST KAMENG","state":"ARUNACHAL PRADESH","circle":"North Eastern Circle","region":"Shillong HQ Region"},{"pincode":"790102","office":"Drakshi","district":"EAST KAMENG","state":"ARUNACHAL PRADESH","circle":"North Eastern Circle","region":"Shillong HQ Region"},{"pincode":"790102","office":"Rapung","district":"EAST KAMENG","state":"ARUNACHAL PRADESH","circle":"North Eastern Circle","region":"Shillong HQ Region"},{"pincode":"790102","office":"Pakke Camp","district":"EAST KAMENG","state":"ARUNACHAL PRADESH","circle":"North Eastern Circle","region":"Shillong HQ Region"},{"pincode":"790102","office":"Tabri","district":"EAST KAMENG","state":"ARUNACHAL PRADESH","circle":"North Eastern Circle","region":"Shillong HQ Region"},{"pincode":"790102","office":"Dafri","district":"EAST KAMENG","state":"ARUNACHAL PRADESH","circle":"North Eastern Circle","region":"Shillong HQ Region"},{"pincode":"790102","office":"Ligwa Gyadi","district":"EAST KAMENG","state":"ARUNACHAL PRADESH","circle":"North Eastern Circle","region":"Shillong HQ Region"},{"pincode":"790102","office":"Richi Lamgu","district":"EAST KAMENG","state":"ARUNACHAL PRADESH","circle":"North Eastern Circle","region":"Shillong HQ Region"},{"pincode":"790102","office":"Loto Yangfo","district":"EAST KAMENG","state":"ARUNACHAL PRADESH","circle":"North Eastern Circle","region":"Shillong HQ Region"},{"pincode":"790102","office":"Namta Yangfo","district":"EAST KAMENG","state":"ARUNACHAL PRADESH","circle":"North Eastern Circle","region":"Shillong HQ Region"},{"pincode":"790102","office":"Veo","district":"EAST KAMENG","state":"ARUNACHAL PRADESH","circle":"North Eastern Circle","region":"Shillong HQ Region"},{"pincode":"792111","office":"Yealing B.O","district":"LOHIT","state":"ARUNACHAL PRADESH","circle":"North Eastern Circle","region":"Shillong HQ Region"},{"pincode":"792111","office":"Hati Duba","district":"LOHIT","state":"ARUNACHAL PRADESH","circle":"North Eastern Circle","region":"Shillong HQ Region"},{"pincode":"790104","office":"Kitpi B.O","district":"TAWANG","state":"ARUNACHAL PRADESH","circle":"North Eastern Circle","region":"Shillong HQ Region"},{"pincode":"790104","office":"Langbutse","district":"TAWANG","state":"ARUNACHAL PRADESH","circle":"North Eastern Circle","region":"Shillong HQ Region"},{"pincode":"790116","office":"Ditching","district":"WEST KAMENG","state":"ARUNACHAL PRADESH","circle":"North Eastern Circle","region":"Shillong HQ Region"},{"pincode":"790116","office":"Maraka","district":"WEST KAMENG","state":"ARUNACHAL PRADESH","circle":"North Eastern Circle","region":"Shillong HQ Region"},{"pincode":"792001","office":"Lohitpur B.O","district":"LOHIT","state":"ARUNACHAL PRADESH","circle":"North Eastern Circle","region":"Shillong HQ Region"},{"pincode":"792001","office":"Tezu Covt.College B.O","district":"LOHIT","state":"ARUNACHAL PRADESH","circle":"North Eastern Circle","region":"Shillong HQ Region"},{"pincode":"792001","office":"Changliang","district":"LOHIT","state":"ARUNACHAL PRADESH","circle":"North Eastern Circle","region":"Shillong HQ Region"},{"pincode":"792001","office":"Liago","district":"LOHIT","state":"ARUNACHAL PRADESH","circle":"North Eastern Circle","region":"Shillong HQ Region"},{"pincode":"791105","office":"Gelling B.O","district":"UPPER SIANG","state":"ARUNACHAL PRADESH","circle":"North Eastern Circle","region":"Shillong HQ Region"},{"pincode":"791105","office":"Migging B.O","district":"UPPER SIANG","state":"ARUNACHAL PRADESH","circle":"North Eastern Circle","region":"Shillong HQ Region"},{"pincode":"791105","office":"Bomdo","district":"UPPER SIANG","state":"ARUNACHAL PRADESH","circle":"North Eastern Circle","region":"Shillong HQ Region"},{"pincode":"792055","office":"Gandhigram B.O","district":"CHANGLANG","state":"ARUNACHAL PRADESH","circle":"North Eastern Circle","region":"Shillong HQ Region"},{"pincode":"791002","office":"Geku B.O","district":"UPPER SIANG","state":"ARUNACHAL PRADESH","circle":"North Eastern Circle","region":"Shillong HQ Region"},{"pincode":"791002","office":"Karko B.O","district":"UPPER SIANG","state":"ARUNACHAL PRADESH","circle":"North Eastern Circle","region":"Shillong HQ Region"},{"pincode":"791002","office":"Komkar(Sizer)","district":"UPPER SIANG","state":"ARUNACHAL PRADESH","circle":"North Eastern Circle","region":"Shillong HQ Region"},{"pincode":"791002","office":"Ramku","district":"UPPER SIANG","state":"ARUNACHAL PRADESH","circle":"North Eastern Circle","region":"Shillong HQ Region"},{"pincode":"791002","office":"Sumsing","district":"UPPER SIANG","state":"ARUNACHAL PRADESH","circle":"North Eastern Circle","region":"Shillong HQ Region"},{"pincode":"791002","office":"Peki-Modi","district":"UPPER SIANG","state":"ARUNACHAL PRADESH","circle":"North Eastern Circle","region":"Shillong HQ Region"},{"pincode":"791002","office":"Jeru","district":"UPPER SIANG","state":"ARUNACHAL PRADESH","circle":"North Eastern Circle","region":"Shillong HQ Region"},{"pincode":"791002","office":"Katan H.Q.","district":"UPPER SIANG","state":"ARUNACHAL PRADESH","circle":"North Eastern Circle","region":"Shillong HQ Region"},{"pincode":"791120","office":"Godak B.O","district":"LOWER SUBANSIRI","state":"ARUNACHAL PRADESH","circle":"North Eastern Circle","region":"Shillong HQ Region"},{"pincode":"791120","office":"Hija B.O","district":"LOWER SUBANSIRI","state":"ARUNACHAL PRADESH","circle":"North Eastern Circle","region":"Shillong HQ Region"},{"pincode":"791120","office":"Raga B.O","district":"KAMLE","state":"ARUNACHAL PRADESH","circle":"North Eastern Circle","region":"Shillong HQ Region"},{"pincode":"791120","office":"HONG B.O","district":"LOWER SUBANSIRI","state":"ARUNACHAL PRADESH","circle":"North Eastern Circle","region":"Shillong HQ Region"},{"pincode":"791120","office":"Hong - I","district":"LOWER SUBANSIRI","state":"ARUNACHAL PRADESH","circle":"North Eastern Circle","region":"Shillong HQ Region"},{"pincode":"791120","office":"Kugitago","district":"LOWER SUBANSIRI","state":"ARUNACHAL PRADESH","circle":"North Eastern Circle","region":"Shillong HQ Region"},{"pincode":"791120","office":"Dem - I","district":"LOWER SUBANSIRI","state":"ARUNACHAL PRADESH","circle":"North Eastern Circle","region":"Shillong HQ Region"},{"pincode":"791120","office":"Dem - III","district":"LOWER SUBANSIRI","state":"ARUNACHAL PRADESH","circle":"North Eastern Circle","region":"Shillong HQ Region"},{"pincode":"791120","office":"Bello","district":"LOWER SUBANSIRI","state":"ARUNACHAL PRADESH","circle":"North Eastern Circle","region":"Shillong HQ Region"},{"pincode":"791120","office":"Radum","district":"LOWER SUBANSIRI","state":"ARUNACHAL PRADESH","circle":"North Eastern Circle","region":"Shillong HQ Region"},{"pincode":"791120","office":"Rintam","district":"LOWER SUBANSIRI","state":"ARUNACHAL PRADESH","circle":"North Eastern Circle","region":"Shillong HQ Region"},{"pincode":"790001","office":"Bomdila S.O","district":"WEST KAMENG","state":"ARUNACHAL PRADESH","circle":"North Eastern Circle","region":"Shillong HQ Region"},{"pincode":"792120","office":"Changlang S.O","district":"CHANGLANG","state":"ARUNACHAL PRADESH","circle":"North Eastern Circle","region":"Shillong HQ Region"},{"pincode":"792130","office":"Khonsa S.O","district":"TIRAP","state":"ARUNACHAL PRADESH","circle":"North Eastern Circle","region":"Shillong HQ Region"},{"pincode":"790106","office":"Lumla S.O","district":"TAWANG","state":"ARUNACHAL PRADESH","circle":"North Eastern Circle","region":"Shillong HQ Region"},{"pincode":"792123","office":"Nampong S.O","district":"CHANGLANG","state":"ARUNACHAL PRADESH","circle":"North Eastern Circle","region":"Shillong HQ Region"},{"pincode":"792103","office":"Namsai S.O","district":"NAMSAI","state":"ARUNACHAL PRADESH","circle":"North Eastern Circle","region":"Shillong HQ Region"},{"pincode":"791119","office":"Ranga Nadi Project S.O","district":"LOWER SUBANSIRI","state":"ARUNACHAL PRADESH","circle":"North Eastern Circle","region":"Shillong HQ Region"},{"pincode":"790116","office":"Tenga Market S.O","district":"WEST KAMENG","state":"ARUNACHAL PRADESH","circle":"North Eastern Circle","region":"Shillong HQ Region"},{"pincode":"791004","office":"BOLENG SO","district":"PAPUM PARE","state":"ARUNACHAL PRADESH","circle":"North Eastern Circle","region":"Shillong HQ Region"},{"pincode":"791001","office":"Bene B.O","district":"WEST SIANG","state":"ARUNACHAL PRADESH","circle":"North Eastern Circle","region":"Shillong HQ Region"},{"pincode":"791001","office":"Kombo B.O","district":"WEST SIANG","state":"ARUNACHAL PRADESH","circle":"North Eastern Circle","region":"Shillong HQ Region"},{"pincode":"791001","office":"Yomcha B.O","district":"WEST SIANG","state":"ARUNACHAL PRADESH","circle":"North Eastern Circle","region":"Shillong HQ Region"},{"pincode":"791001","office":"Gate","district":"WEST SIANG","state":"ARUNACHAL PRADESH","circle":"North Eastern Circle","region":"Shillong HQ Region"},{"pincode":"791001","office":"Gasheng","district":"WEST SIANG","state":"ARUNACHAL PRADESH","circle":"North Eastern Circle","region":"Shillong HQ Region"},{"pincode":"791001","office":"Boru Raksap","district":"WEST SIANG","state":"ARUNACHAL PRADESH","circle":"North Eastern Circle","region":"Shillong HQ Region"},{"pincode":"791001","office":"DPG College Kamki","district":"WEST SIANG","state":"ARUNACHAL PRADESH","circle":"North Eastern Circle","region":"Shillong HQ Region"},{"pincode":"791001","office":"Kato Moku","district":"WEST SIANG","state":"ARUNACHAL PRADESH","circle":"North Eastern Circle","region":"Shillong HQ Region"},{"pincode":"791001","office":"Ligok Kayi","district":"WEST SIANG","state":"ARUNACHAL PRADESH","circle":"North Eastern Circle","region":"Shillong HQ Region"},{"pincode":"791001","office":"Liromoba","district":"WEST SIANG","state":"ARUNACHAL PRADESH","circle":"North Eastern Circle","region":"Shillong HQ Region"},{"pincode":"791001","office":"Lirum","district":"WEST SIANG","state":"ARUNACHAL PRADESH","circle":"North Eastern Circle","region":"Shillong HQ Region"},{"pincode":"792110","office":"Yuron","district":"DIBANG VALLEY","state":"ARUNACHAL PRADESH","circle":"North Eastern Circle","region":"Shillong HQ Region"},{"pincode":"792110","office":"Emiya","district":"DIBANG VALLEY","state":"ARUNACHAL PRADESH","circle":"North Eastern Circle","region":"Shillong HQ Region"},{"pincode":"792110","office":"Akobe","district":"DIBANG VALLEY","state":"ARUNACHAL PRADESH","circle":"North Eastern Circle","region":"Shillong HQ Region"},{"pincode":"792110","office":"Punli","district":"DIBANG VALLEY","state":"ARUNACHAL PRADESH","circle":"North Eastern Circle","region":"Shillong HQ Region"},{"pincode":"792110","office":"Anose","district":"DIBANG VALLEY","state":"ARUNACHAL PRADESH","circle":"North Eastern Circle","region":"Shillong HQ Region"},{"pincode":"792110","office":"Sunil","district":"DIBANG VALLEY","state":"ARUNACHAL PRADESH","circle":"North Eastern Circle","region":"Shillong HQ Region"},{"pincode":"792110","office":"Etalin H.Q.","district":"DIBANG VALLEY","state":"ARUNACHAL PRADESH","circle":"North Eastern Circle","region":"Shillong HQ Region"},{"pincode":"792101","office":"Adane","district":"DIBANG VALLEY","state":"ARUNACHAL PRADESH","circle":"North Eastern Circle","region":"Shillong HQ Region"},{"pincode":"792110","office":"173 K.M. Point","district":"DIBANG VALLEY","state":"ARUNACHAL PRADESH","circle":"North Eastern Circle","region":"Shillong HQ Region"},{"pincode":"791123","office":"Balijan B.O","district":"PAPUM PARE","state":"ARUNACHAL PRADESH","circle":"North Eastern Circle","region":"Shillong HQ Region"},{"pincode":"791123","office":"KOLAPTUKAR B.O","district":"PAPUM PARE","state":"ARUNACHAL PRADESH","circle":"North Eastern Circle","region":"Shillong HQ Region"},{"pincode":"791123","office":"Tenga Bari","district":"PAPUM PARE","state":"ARUNACHAL PRADESH","circle":"North Eastern Circle","region":"Shillong HQ Region"},{"pincode":"791123","office":"Balijan Nishi","district":"PAPUM PARE","state":"ARUNACHAL PRADESH","circle":"North Eastern Circle","region":"Shillong HQ Region"},{"pincode":"791123","office":"Chakma - I","district":"PAPUM PARE","state":"ARUNACHAL PRADESH","circle":"North Eastern Circle","region":"Shillong HQ Region"},{"pincode":"791123","office":"Kalaptukar","district":"PAPUM PARE","state":"ARUNACHAL PRADESH","circle":"North Eastern Circle","region":"Shillong HQ Region"},{"pincode":"791101","office":"Tirbin B.O","district":"LEPARADA","state":"ARUNACHAL PRADESH","circle":"North Eastern Circle","region":"Shillong HQ Region"},{"pincode":"791101","office":"Kadi","district":"WEST SIANG","state":"ARUNACHAL PRADESH","circle":"North Eastern Circle","region":"Shillong HQ Region"},{"pincode":"791101","office":"Old Daring","district":"WEST SIANG","state":"ARUNACHAL PRADESH","circle":"North Eastern Circle","region":"Shillong HQ Region"},{"pincode":"790114","office":"Tippi B.O","district":"WEST KAMENG","state":"ARUNACHAL PRADESH","circle":"North Eastern Circle","region":"Shillong HQ Region"},{"pincode":"790114","office":"1700 Chain PWD Camp","district":"WEST KAMENG","state":"ARUNACHAL PRADESH","circle":"North Eastern Circle","region":"Shillong HQ Region"},{"pincode":"792120","office":"Ranglum B.O","district":"CHANGLANG","state":"ARUNACHAL PRADESH","circle":"North Eastern Circle","region":"Shillong HQ Region"},{"pincode":"792120","office":"Rangkatu","district":"CHANGLANG","state":"ARUNACHAL PRADESH","circle":"North Eastern Circle","region":"Shillong HQ Region"},{"pincode":"792120","office":"Kantang","district":"CHANGLANG","state":"ARUNACHAL PRADESH","circle":"North Eastern Circle","region":"Shillong HQ Region"},{"pincode":"792120","office":"Longran Village","district":"CHANGLANG","state":"ARUNACHAL PRADESH","circle":"North Eastern Circle","region":"Shillong HQ Region"},{"pincode":"792120","office":"Namgoi Village - I","district":"CHANGLANG","state":"ARUNACHAL PRADESH","circle":"North Eastern Circle","region":"Shillong HQ Region"},{"pincode":"792102","office":"Chakma B.O","district":"NAMSAI","state":"ARUNACHAL PRADESH","circle":"North Eastern Circle","region":"Shillong HQ Region"},{"pincode":"792102","office":"Medo B.O","district":"NAMSAI","state":"ARUNACHAL PRADESH","circle":"North Eastern Circle","region":"Shillong HQ Region"},{"pincode":"791122","office":"Dumporijo B.O","district":"UPPER SUBANSIRI","state":"ARUNACHAL PRADESH","circle":"North Eastern Circle","region":"Shillong HQ Region"},{"pincode":"791122","office":"Lemiking B.O","district":"UPPER SUBANSIRI","state":"ARUNACHAL PRADESH","circle":"North Eastern Circle","region":"Shillong HQ Region"},{"pincode":"791122","office":"Taliha B.O","district":"UPPER SUBANSIRI","state":"ARUNACHAL PRADESH","circle":"North Eastern Circle","region":"Shillong HQ Region"},{"pincode":"791122","office":"Reddy","district":"UPPER SUBANSIRI","state":"ARUNACHAL PRADESH","circle":"North Eastern Circle","region":"Shillong HQ Region"},{"pincode":"791122","office":"Kacha","district":"UPPER SUBANSIRI","state":"ARUNACHAL PRADESH","circle":"North Eastern Circle","region":"Shillong HQ Region"},{"pincode":"791122","office":"Gumsing","district":"UPPER SUBANSIRI","state":"ARUNACHAL PRADESH","circle":"North Eastern Circle","region":"Shillong HQ Region"},{"pincode":"791122","office":"Bogun","district":"UPPER SUBANSIRI","state":"ARUNACHAL PRADESH","circle":"North Eastern Circle","region":"Shillong HQ Region"},{"pincode":"791122","office":"Mepu","district":"UPPER SUBANSIRI","state":"ARUNACHAL PRADESH","circle":"North Eastern Circle","region":"Shillong HQ Region"},{"pincode":"791122","office":"Redding Camp","district":"UPPER SUBANSIRI","state":"ARUNACHAL PRADESH","circle":"North Eastern Circle","region":"Shillong HQ Region"},{"pincode":"791122","office":"Orak Camp","district":"UPPER SUBANSIRI","state":"ARUNACHAL PRADESH","circle":"North Eastern Circle","region":"Shillong HQ Region"},{"pincode":"791122","office":"Makodo","district":"UPPER SUBANSIRI","state":"ARUNACHAL PRADESH","circle":"North Eastern Circle","region":"Shillong HQ Region"},{"pincode":"791122","office":"Daying","district":"UPPER SUBANSIRI","state":"ARUNACHAL PRADESH","circle":"North Eastern Circle","region":"Shillong HQ Region"},{"pincode":"791122","office":"Meyaba Rai","district":"UPPER SUBANSIRI","state":"ARUNACHAL PRADESH","circle":"North Eastern Circle","region":"Shillong HQ Region"},{"pincode":"791122","office":"Doginalo","district":"UPPER SUBANSIRI","state":"ARUNACHAL PRADESH","circle":"North Eastern Circle","region":"Shillong HQ Region"},{"pincode":"791122","office":"Jibaying","district":"UPPER SUBANSIRI","state":"ARUNACHAL PRADESH","circle":"North Eastern Circle","region":"Shillong HQ Region"},{"pincode":"791122","office":"Dilling","district":"UPPER SUBANSIRI","state":"ARUNACHAL PRADESH","circle":"North Eastern Circle","region":"Shillong HQ Region"},{"pincode":"791122","office":"Kicherai","district":"UPPER SUBANSIRI","state":"ARUNACHAL PRADESH","circle":"North Eastern Circle","region":"Shillong HQ Region"},{"pincode":"791122","office":"Ekke","district":"UPPER SUBANSIRI","state":"ARUNACHAL PRADESH","circle":"North Eastern Circle","region":"Shillong HQ Region"},{"pincode":"791122","office":"Dagu","district":"UPPER SUBANSIRI","state":"ARUNACHAL PRADESH","circle":"North Eastern Circle","region":"Shillong HQ Region"},{"pincode":"791122","office":"Ebo","district":"UPPER SUBANSIRI","state":"ARUNACHAL PRADESH","circle":"North Eastern Circle","region":"Shillong HQ Region"},{"pincode":"791122","office":"Kamda","district":"UPPER SUBANSIRI","state":"ARUNACHAL PRADESH","circle":"North Eastern Circle","region":"Shillong HQ Region"},{"pincode":"791122","office":"Lingbuk Riamukh","district":"UPPER SUBANSIRI","state":"ARUNACHAL PRADESH","circle":"North Eastern Circle","region":"Shillong HQ Region"},{"pincode":"791122","office":"Sogum","district":"UPPER SUBANSIRI","state":"ARUNACHAL PRADESH","circle":"North Eastern Circle","region":"Shillong HQ Region"},{"pincode":"791122","office":"Bami","district":"UPPER SUBANSIRI","state":"ARUNACHAL PRADESH","circle":"North Eastern Circle","region":"Shillong HQ Region"},{"pincode":"791122","office":"Lengdam","district":"UPPER SUBANSIRI","state":"ARUNACHAL PRADESH","circle":"North Eastern Circle","region":"Shillong HQ Region"},{"pincode":"791122","office":"Jaring","district":"UPPER SUBANSIRI","state":"ARUNACHAL PRADESH","circle":"North Eastern Circle","region":"Shillong HQ Region"},{"pincode":"791122","office":"Dai","district":"UPPER SUBANSIRI","state":"ARUNACHAL PRADESH","circle":"North Eastern Circle","region":"Shillong HQ Region"},{"pincode":"791122","office":"Linko","district":"UPPER SUBANSIRI","state":"ARUNACHAL PRADESH","circle":"North Eastern Circle","region":"Shillong HQ Region"},{"pincode":"791122","office":"Lamdik","district":"UPPER SUBANSIRI","state":"ARUNACHAL PRADESH","circle":"North Eastern Circle","region":"Shillong HQ Region"},{"pincode":"791122","office":"Laa","district":"UPPER SUBANSIRI","state":"ARUNACHAL PRADESH","circle":"North Eastern Circle","region":"Shillong HQ Region"},{"pincode":"791122","office":"Bui","district":"UPPER SUBANSIRI","state":"ARUNACHAL PRADESH","circle":"North Eastern Circle","region":"Shillong HQ Region"},{"pincode":"791122","office":"Old Riddi","district":"UPPER SUBANSIRI","state":"ARUNACHAL PRADESH","circle":"North Eastern Circle","region":"Shillong HQ Region"},{"pincode":"791122","office":"Udik","district":"UPPER SUBANSIRI","state":"ARUNACHAL PRADESH","circle":"North Eastern Circle","region":"Shillong HQ Region"},{"pincode":"791122","office":"Lebri","district":"UPPER SUBANSIRI","state":"ARUNACHAL PRADESH","circle":"North Eastern Circle","region":"Shillong HQ Region"},{"pincode":"792129","office":"Narottam Nagar B.O","district":"TIRAP","state":"ARUNACHAL PRADESH","circle":"North Eastern Circle","region":"Shillong HQ Region"},{"pincode":"791112","office":"Arunachal University B.O","district":"PAPUM PARE","state":"ARUNACHAL PRADESH","circle":"North Eastern Circle","region":"Shillong HQ Region"},{"pincode":"791112","office":"Kheel B.O","district":"PAPUM PARE","state":"ARUNACHAL PRADESH","circle":"North Eastern Circle","region":"Shillong HQ Region"},{"pincode":"791112","office":"Upper Geram","district":"PAPUM PARE","state":"ARUNACHAL PRADESH","circle":"North Eastern Circle","region":"Shillong HQ Region"},{"pincode":"791112","office":"Apop-Sango","district":"PAPUM PARE","state":"ARUNACHAL PRADESH","circle":"North Eastern Circle","region":"Shillong HQ Region"},{"pincode":"791112","office":"Taw","district":"PAPUM PARE","state":"ARUNACHAL PRADESH","circle":"North Eastern Circle","region":"Shillong HQ Region"},{"pincode":"792104","office":"Amliang","district":"ANJAW","state":"ARUNACHAL PRADESH","circle":"North Eastern Circle","region":"Shillong HQ Region"},{"pincode":"792104","office":"Kundong","district":"ANJAW","state":"ARUNACHAL PRADESH","circle":"North Eastern Circle","region":"Shillong HQ Region"},{"pincode":"792104","office":"Khambliglat","district":"ANJAW","state":"ARUNACHAL PRADESH","circle":"North Eastern Circle","region":"Shillong HQ Region"},{"pincode":"792104","office":"Manjuliang","district":"ANJAW","state":"ARUNACHAL PRADESH","circle":"North Eastern Circle","region":"Shillong HQ Region"},{"pincode":"792104","office":"Mithumna","district":"ANJAW","state":"ARUNACHAL PRADESH","circle":"North Eastern Circle","region":"Shillong HQ Region"},{"pincode":"792104","office":"Kibithoo H.Q.","district":"ANJAW","state":"ARUNACHAL PRADESH","circle":"North Eastern Circle","region":"Shillong HQ Region"},{"pincode":"792104","office":"Charnai","district":"ANJAW","state":"ARUNACHAL PRADESH","circle":"North Eastern Circle","region":"Shillong HQ Region"},{"pincode":"792104","office":"Watong","district":"ANJAW","state":"ARUNACHAL PRADESH","circle":"North Eastern Circle","region":"Shillong HQ Region"},{"pincode":"792104","office":"Surung","district":"ANJAW","state":"ARUNACHAL PRADESH","circle":"North Eastern Circle","region":"Shillong HQ Region"},{"pincode":"792104","office":"Shirong","district":"ANJAW","state":"ARUNACHAL PRADESH","circle":"North Eastern Circle","region":"Shillong HQ Region"},{"pincode":"791103","office":"Pareng","district":"EAST SIANG","state":"ARUNACHAL PRADESH","circle":"North Eastern Circle","region":"Shillong HQ Region"},{"pincode":"791103","office":"Lokpeng","district":"EAST SIANG","state":"ARUNACHAL PRADESH","circle":"North Eastern Circle","region":"Shillong HQ Region"},{"pincode":"791103","office":"Jorsing","district":"EAST SIANG","state":"ARUNACHAL PRADESH","circle":"North Eastern Circle","region":"Shillong HQ Region"},{"pincode":"791103","office":"Riew","district":"EAST SIANG","state":"ARUNACHAL PRADESH","circle":"North Eastern Circle","region":"Shillong HQ Region"},{"pincode":"790105","office":"Thingbu B.O","district":"TAWANG","state":"ARUNACHAL PRADESH","circle":"North Eastern Circle","region":"Shillong HQ Region"},{"pincode":"790105","office":"Yuthumbu","district":"TAWANG","state":"ARUNACHAL PRADESH","circle":"North Eastern Circle","region":"Shillong HQ Region"},{"pincode":"792130","office":"Borduria B.O","district":"TIRAP","state":"ARUNACHAL PRADESH","circle":"North Eastern Circle","region":"Shillong HQ Region"},{"pincode":"792130","office":"Old Phinthing","district":"TIRAP","state":"ARUNACHAL PRADESH","circle":"North Eastern Circle","region":"Shillong HQ Region"},{"pincode":"791125","office":"Gensi B.O","district":"LOWER SIANG","state":"ARUNACHAL PRADESH","circle":"North Eastern Circle","region":"Shillong HQ Region"},{"pincode":"791125","office":"Takso","district":"LOWER SIANG","state":"ARUNACHAL PRADESH","circle":"North Eastern Circle","region":"Shillong HQ Region"},{"pincode":"791125","office":"Sibe","district":"LOWER SIANG","state":"ARUNACHAL PRADESH","circle":"North Eastern Circle","region":"Shillong HQ Region"},{"pincode":"791125","office":"Silli Ete","district":"LOWER SIANG","state":"ARUNACHAL PRADESH","circle":"North Eastern Circle","region":"Shillong HQ Region"},{"pincode":"791125","office":"Sido","district":"LOWER SIANG","state":"ARUNACHAL PRADESH","circle":"North Eastern Circle","region":"Shillong HQ Region"},{"pincode":"791125","office":"Depi","district":"LOWER SIANG","state":"ARUNACHAL PRADESH","circle":"North Eastern Circle","region":"Shillong HQ Region"},{"pincode":"792131","office":"Knokno B.O","district":"LONGDING","state":"ARUNACHAL PRADESH","circle":"North Eastern Circle","region":"Shillong HQ Region"},{"pincode":"792131","office":"Khotnu B.O","district":"LONGDING","state":"ARUNACHAL PRADESH","circle":"North Eastern Circle","region":"Shillong HQ Region"},{"pincode":"792131","office":"Longfong B.O","district":"LONGDING","state":"ARUNACHAL PRADESH","circle":"North Eastern Circle","region":"Shillong HQ Region"},{"pincode":"792131","office":"Senewa B.O","district":"LONGDING","state":"ARUNACHAL PRADESH","circle":"North Eastern Circle","region":"Shillong HQ Region"},{"pincode":"792131","office":"Wanu","district":"LONGDING","state":"ARUNACHAL PRADESH","circle":"North Eastern Circle","region":"Shillong HQ Region"},{"pincode":"792131","office":"Chopsa","district":"LONGDING","state":"ARUNACHAL PRADESH","circle":"North Eastern Circle","region":"Shillong HQ Region"},{"pincode":"792131","office":"Longkhaw","district":"LONGDING","state":"ARUNACHAL PRADESH","circle":"North Eastern Circle","region":"Shillong HQ Region"},{"pincode":"792130","office":"Longliang","district":"LONGDING","state":"ARUNACHAL PRADESH","circle":"North Eastern Circle","region":"Shillong HQ Region"},{"pincode":"790106","office":"Zimithang B.O","district":"TAWANG","state":"ARUNACHAL PRADESH","circle":"North Eastern Circle","region":"Shillong HQ Region"},{"pincode":"790106","office":"Lumla H.Q.","district":"TAWANG","state":"ARUNACHAL PRADESH","circle":"North Eastern Circle","region":"Shillong HQ Region"},{"pincode":"790106","office":"Kungba","district":"TAWANG","state":"ARUNACHAL PRADESH","circle":"North Eastern Circle","region":"Shillong HQ Region"},{"pincode":"792105","office":"Kumari Kachari B.O","district":"NAMSAI","state":"ARUNACHAL PRADESH","circle":"North Eastern Circle","region":"Shillong HQ Region"},{"pincode":"791104","office":"Ayeng B.O","district":"EAST SIANG","state":"ARUNACHAL PRADESH","circle":"North Eastern Circle","region":"Shillong HQ Region"},{"pincode":"791104","office":"Namsing B.O","district":"EAST SIANG","state":"ARUNACHAL PRADESH","circle":"North Eastern Circle","region":"Shillong HQ Region"},{"pincode":"791104","office":"Ngopok B.O","district":"EAST SIANG","state":"ARUNACHAL PRADESH","circle":"North Eastern Circle","region":"Shillong HQ Region"},{"pincode":"791104","office":"Sirem B.O","district":"EAST SIANG","state":"ARUNACHAL PRADESH","circle":"North Eastern Circle","region":"Shillong HQ Region"},{"pincode":"791003","office":"Lungte","district":"SHI YOMI","state":"ARUNACHAL PRADESH","circle":"North Eastern Circle","region":"Shillong HQ Region"},{"pincode":"791003","office":"Tadogita","district":"SHI YOMI","state":"ARUNACHAL PRADESH","circle":"North Eastern Circle","region":"Shillong HQ Region"},{"pincode":"791110","office":"Model Village B.O","district":"PAPUM PARE","state":"ARUNACHAL PRADESH","circle":"North Eastern Circle","region":"Shillong HQ Region"},{"pincode":"791110","office":"Yupia B.O","district":"PAPUM PARE","state":"ARUNACHAL PRADESH","circle":"North Eastern Circle","region":"Shillong HQ Region"},{"pincode":"792123","office":"Wintong","district":"CHANGLANG","state":"ARUNACHAL PRADESH","circle":"North Eastern Circle","region":"Shillong HQ Region"},{"pincode":"792123","office":"Changlai","district":"CHANGLANG","state":"ARUNACHAL PRADESH","circle":"North Eastern Circle","region":"Shillong HQ Region"},{"pincode":"792123","office":"Longchong - II","district":"CHANGLANG","state":"ARUNACHAL PRADESH","circle":"North Eastern Circle","region":"Shillong HQ Region"},{"pincode":"792123","office":"Tikhak Taipi","district":"CHANGLANG","state":"ARUNACHAL PRADESH","circle":"North Eastern Circle","region":"Shillong HQ Region"},{"pincode":"792123","office":"Longvi","district":"CHANGLANG","state":"ARUNACHAL PRADESH","circle":"North Eastern Circle","region":"Shillong HQ Region"},{"pincode":"792123","office":"Chidudi","district":"CHANGLANG","state":"ARUNACHAL PRADESH","circle":"North Eastern Circle","region":"Shillong HQ Region"},{"pincode":"792123","office":"Songkin","district":"CHANGLANG","state":"ARUNACHAL PRADESH","circle":"North Eastern Circle","region":"Shillong HQ Region"},{"pincode":"792103","office":"Kumsai B.O","district":"NAMSAI","state":"ARUNACHAL PRADESH","circle":"North Eastern Circle","region":"Shillong HQ Region"},{"pincode":"792103","office":"Lathao B.O","district":"NAMSAI","state":"ARUNACHAL PRADESH","circle":"North Eastern Circle","region":"Shillong HQ Region"},{"pincode":"792103","office":"Dhonekhona","district":"NAMSAI","state":"ARUNACHAL PRADESH","circle":"North Eastern Circle","region":"Shillong HQ Region"},{"pincode":"792103","office":"6th Mile Camp","district":"NAMSAI","state":"ARUNACHAL PRADESH","circle":"North Eastern Circle","region":"Shillong HQ Region"},{"pincode":"792103","office":"Sengsap","district":"NAMSAI","state":"ARUNACHAL PRADESH","circle":"North Eastern Circle","region":"Shillong HQ Region"},{"pincode":"792103","office":"Ningroo Charali Vill.","district":"NAMSAI","state":"ARUNACHAL PRADESH","circle":"North Eastern Circle","region":"Shillong HQ Region"},{"pincode":"792103","office":"Wagen Pathar No.II","district":"NAMSAI","state":"ARUNACHAL PRADESH","circle":"North Eastern Circle","region":"Shillong HQ Region"},{"pincode":"791118","office":"Koloriang B.O","district":"KURUNG KUMEY","state":"ARUNACHAL PRADESH","circle":"North Eastern Circle","region":"Shillong HQ Region"},{"pincode":"791118","office":"Sangram B.O","district":"KURUNG KUMEY","state":"ARUNACHAL PRADESH","circle":"North Eastern Circle","region":"Shillong HQ Region"},{"pincode":"791118","office":"Niringha","district":"KURUNG KUMEY","state":"ARUNACHAL PRADESH","circle":"North Eastern Circle","region":"Shillong HQ Region"},{"pincode":"791118","office":"Yangte (Proper)(H.Q.)","district":"KURUNG KUMEY","state":"ARUNACHAL PRADESH","circle":"North Eastern Circle","region":"Shillong HQ Region"},{"pincode":"791118","office":"Arr Guha","district":"KURUNG KUMEY","state":"ARUNACHAL PRADESH","circle":"North Eastern Circle","region":"Shillong HQ Region"},{"pincode":"791118","office":"Picha","district":"KURUNG KUMEY","state":"ARUNACHAL PRADESH","circle":"North Eastern Circle","region":"Shillong HQ Region"},{"pincode":"791118","office":"Kambang","district":"KURUNG KUMEY","state":"ARUNACHAL PRADESH","circle":"North Eastern Circle","region":"Shillong HQ Region"},{"pincode":"791118","office":"Raikpobe","district":"KURUNG KUMEY","state":"ARUNACHAL PRADESH","circle":"North Eastern Circle","region":"Shillong HQ Region"},{"pincode":"791118","office":"Palang","district":"KURUNG KUMEY","state":"ARUNACHAL PRADESH","circle":"North Eastern Circle","region":"Shillong HQ Region"},{"pincode":"791118","office":"Sango","district":"KURUNG KUMEY","state":"ARUNACHAL PRADESH","circle":"North Eastern Circle","region":"Shillong HQ Region"},{"pincode":"791118","office":"Rite","district":"KURUNG KUMEY","state":"ARUNACHAL PRADESH","circle":"North Eastern Circle","region":"Shillong HQ Region"},{"pincode":"791118","office":"Relung","district":"KURUNG KUMEY","state":"ARUNACHAL PRADESH","circle":"North Eastern Circle","region":"Shillong HQ Region"},{"pincode":"791118","office":"Chimpu","district":"KURUNG KUMEY","state":"ARUNACHAL PRADESH","circle":"North Eastern Circle","region":"Shillong HQ Region"},{"pincode":"791118","office":"Tudubat","district":"KURUNG KUMEY","state":"ARUNACHAL PRADESH","circle":"North Eastern Circle","region":"Shillong HQ Region"},{"pincode":"791120","office":"Nyoya","district":"LOWER SUBANSIRI","state":"ARUNACHAL PRADESH","circle":"North Eastern Circle","region":"Shillong HQ Region"},{"pincode":"791118","office":"Paring","district":"KURUNG KUMEY","state":"ARUNACHAL PRADESH","circle":"North Eastern Circle","region":"Shillong HQ Region"},{"pincode":"791118","office":"Malin","district":"KURUNG KUMEY","state":"ARUNACHAL PRADESH","circle":"North Eastern Circle","region":"Shillong HQ Region"},{"pincode":"791118","office":"Gai-III","district":"KURUNG KUMEY","state":"ARUNACHAL PRADESH","circle":"North Eastern Circle","region":"Shillong HQ Region"},{"pincode":"791118","office":"Waru","district":"KURUNG KUMEY","state":"ARUNACHAL PRADESH","circle":"North Eastern Circle","region":"Shillong HQ Region"},{"pincode":"791118","office":"Taram","district":"KURUNG KUMEY","state":"ARUNACHAL PRADESH","circle":"North Eastern Circle","region":"Shillong HQ Region"},{"pincode":"791118","office":"Pado","district":"KURUNG KUMEY","state":"ARUNACHAL PRADESH","circle":"North Eastern Circle","region":"Shillong HQ Region"},{"pincode":"791118","office":"Dape","district":"KURUNG KUMEY","state":"ARUNACHAL PRADESH","circle":"North Eastern Circle","region":"Shillong HQ Region"},{"pincode":"791118","office":"Tedung","district":"KURUNG KUMEY","state":"ARUNACHAL PRADESH","circle":"North Eastern Circle","region":"Shillong HQ Region"},{"pincode":"791118","office":"Nyache","district":"KURUNG KUMEY","state":"ARUNACHAL PRADESH","circle":"North Eastern Circle","region":"Shillong HQ Region"},{"pincode":"791118","office":"Lodokore","district":"KURUNG KUMEY","state":"ARUNACHAL PRADESH","circle":"North Eastern Circle","region":"Shillong HQ Region"},{"pincode":"791118","office":"Giba","district":"KURUNG KUMEY","state":"ARUNACHAL PRADESH","circle":"North Eastern Circle","region":"Shillong HQ Region"},{"pincode":"791102","office":"Bilat B.O","district":"EAST SIANG","state":"ARUNACHAL PRADESH","circle":"North Eastern Circle","region":"Shillong HQ Region"},{"pincode":"791102","office":"Boleng B.O","district":"SIANG","state":"ARUNACHAL PRADESH","circle":"North Eastern Circle","region":"Shillong HQ Region"},{"pincode":"791002","office":"Damro B.O","district":"UPPER SIANG","state":"ARUNACHAL PRADESH","circle":"North Eastern Circle","region":"Shillong HQ Region"},{"pincode":"791102","office":"Koyu B.O","district":"LOWER SIANG","state":"ARUNACHAL PRADESH","circle":"North Eastern Circle","region":"Shillong HQ Region"},{"pincode":"791102","office":"Oyan B.O","district":"EAST SIANG","state":"ARUNACHAL PRADESH","circle":"North Eastern Circle","region":"Shillong HQ Region"},{"pincode":"791113","office":"Chimpu B.O","district":"PAPUM PARE","state":"ARUNACHAL PRADESH","circle":"North Eastern Circle","region":"Shillong HQ Region"},{"pincode":"791113","office":"Donyi Polo B.O","district":"PAPUM PARE","state":"ARUNACHAL PRADESH","circle":"North Eastern Circle","region":"Shillong HQ Region"},{"pincode":"791113","office":"Vivek Vihar B.O","district":"PAPUM PARE","state":"ARUNACHAL PRADESH","circle":"North Eastern Circle","region":"Shillong HQ Region"},{"pincode":"791113","office":"NIT JOTE B.O","district":"PAPUM PARE","state":"ARUNACHAL PRADESH","circle":"North Eastern Circle","region":"Shillong HQ Region"},{"pincode":"791113","office":"Mebiaso","district":"PAPUM PARE","state":"ARUNACHAL PRADESH","circle":"North Eastern Circle","region":"Shillong HQ Region"},{"pincode":"791119","office":"Mengio B.O","district":"PAPUM PARE","state":"ARUNACHAL PRADESH","circle":"North Eastern Circle","region":"Shillong HQ Region"},{"pincode":"791119","office":"Sarchgai","district":"LOWER SUBANSIRI","state":"ARUNACHAL PRADESH","circle":"North Eastern Circle","region":"Shillong HQ Region"},{"pincode":"791119","office":"Pinte","district":"LOWER SUBANSIRI","state":"ARUNACHAL PRADESH","circle":"North Eastern Circle","region":"Shillong HQ Region"},{"pincode":"791119","office":"Potin","district":"LOWER SUBANSIRI","state":"ARUNACHAL PRADESH","circle":"North Eastern Circle","region":"Shillong HQ Region"},{"pincode":"791119","office":"Kuch-Kut","district":"LOWER SUBANSIRI","state":"ARUNACHAL PRADESH","circle":"North Eastern Circle","region":"Shillong HQ Region"},{"pincode":"791104","office":"Anupam B.O","district":"LOWER DIBANG VALLEY","state":"ARUNACHAL PRADESH","circle":"North Eastern Circle","region":"Shillong HQ Region"},{"pincode":"792110","office":"Bomjir B.O","district":"LOWER DIBANG VALLEY","state":"ARUNACHAL PRADESH","circle":"North Eastern Circle","region":"Shillong HQ Region"},{"pincode":"792110","office":"Koranu B.O","district":"LOWER DIBANG VALLEY","state":"ARUNACHAL PRADESH","circle":"North Eastern Circle","region":"Shillong HQ Region"},{"pincode":"792110","office":"Brinli","district":"DIBANG VALLEY","state":"ARUNACHAL PRADESH","circle":"North Eastern Circle","region":"Shillong HQ Region"},{"pincode":"792110","office":"New Elope","district":"DIBANG VALLEY","state":"ARUNACHAL PRADESH","circle":"North Eastern Circle","region":"Shillong HQ Region"},{"pincode":"792110","office":"Taloni","district":"DIBANG VALLEY","state":"ARUNACHAL PRADESH","circle":"North Eastern Circle","region":"Shillong HQ Region"},{"pincode":"792110","office":"Choroni","district":"DIBANG VALLEY","state":"ARUNACHAL PRADESH","circle":"North Eastern Circle","region":"Shillong HQ Region"},{"pincode":"792110","office":"Poblung - II","district":"DIBANG VALLEY","state":"ARUNACHAL PRADESH","circle":"North Eastern Circle","region":"Shillong HQ Region"},{"pincode":"792110","office":"Sirang","district":"DIBANG VALLEY","state":"ARUNACHAL PRADESH","circle":"North Eastern Circle","region":"Shillong HQ Region"},{"pincode":"792110","office":"Keba","district":"DIBANG VALLEY","state":"ARUNACHAL PRADESH","circle":"North Eastern Circle","region":"Shillong HQ Region"},{"pincode":"790103","office":"Jolly","district":"PAKKE KESSANG","state":"ARUNACHAL PRADESH","circle":"North Eastern Circle","region":"Shillong HQ Region"},{"pincode":"790103","office":"Namorah","district":"PAKKE KESSANG","state":"ARUNACHAL PRADESH","circle":"North Eastern Circle","region":"Shillong HQ Region"},{"pincode":"790103","office":"Baliso","district":"PAKKE KESSANG","state":"ARUNACHAL PRADESH","circle":"North Eastern Circle","region":"Shillong HQ Region"},{"pincode":"790103","office":"Upper Dikal Mukh","district":"PAKKE KESSANG","state":"ARUNACHAL PRADESH","circle":"North Eastern Circle","region":"Shillong HQ Region"},{"pincode":"790103","office":"Dipik","district":"PAKKE KESSANG","state":"ARUNACHAL PRADESH","circle":"North Eastern Circle","region":"Shillong HQ Region"},{"pincode":"790102","office":"Thrizino B.O","district":"WEST KAMENG","state":"ARUNACHAL PRADESH","circle":"North Eastern Circle","region":"Shillong HQ Region"},{"pincode":"790102","office":"New Sapong","district":"EAST KAMENG","state":"ARUNACHAL PRADESH","circle":"North Eastern Circle","region":"Shillong HQ Region"},{"pincode":"790102","office":"Fengche","district":"EAST KAMENG","state":"ARUNACHAL PRADESH","circle":"North Eastern Circle","region":"Shillong HQ Region"},{"pincode":"790102","office":"Pakoti","district":"EAST KAMENG","state":"ARUNACHAL PRADESH","circle":"North Eastern Circle","region":"Shillong HQ Region"},{"pincode":"790102","office":"Nyari Welly Model Village","district":"EAST KAMENG","state":"ARUNACHAL PRADESH","circle":"North Eastern Circle","region":"Shillong HQ Region"},{"pincode":"790102","office":"Sachung","district":"EAST KAMENG","state":"ARUNACHAL PRADESH","circle":"North Eastern Circle","region":"Shillong HQ Region"},{"pincode":"790102","office":"Tawe","district":"EAST KAMENG","state":"ARUNACHAL PRADESH","circle":"North Eastern Circle","region":"Shillong HQ Region"},{"pincode":"790102","office":"Nabalang","district":"EAST KAMENG","state":"ARUNACHAL PRADESH","circle":"North Eastern Circle","region":"Shillong HQ Region"},{"pincode":"790102","office":"Jawa Camp","district":"EAST KAMENG","state":"ARUNACHAL PRADESH","circle":"North Eastern Circle","region":"Shillong HQ Region"},{"pincode":"790102","office":"Paksa","district":"EAST KAMENG","state":"ARUNACHAL PRADESH","circle":"North Eastern Circle","region":"Shillong HQ Region"},{"pincode":"790102","office":"Attarang","district":"EAST KAMENG","state":"ARUNACHAL PRADESH","circle":"North Eastern Circle","region":"Shillong HQ Region"},{"pincode":"790102","office":"Tagang Warang","district":"EAST KAMENG","state":"ARUNACHAL PRADESH","circle":"North Eastern Circle","region":"Shillong HQ Region"},{"pincode":"790102","office":"Sangbia","district":"EAST KAMENG","state":"ARUNACHAL PRADESH","circle":"North Eastern Circle","region":"Shillong HQ Region"},{"pincode":"790102","office":"Saria Takhang","district":"EAST KAMENG","state":"ARUNACHAL PRADESH","circle":"North Eastern Circle","region":"Shillong HQ Region"},{"pincode":"790102","office":"Yakli Sullung","district":"EAST KAMENG","state":"ARUNACHAL PRADESH","circle":"North Eastern Circle","region":"Shillong HQ Region"},{"pincode":"790102","office":"Rusi","district":"EAST KAMENG","state":"ARUNACHAL PRADESH","circle":"North Eastern Circle","region":"Shillong HQ Region"},{"pincode":"790102","office":"Habia","district":"EAST KAMENG","state":"ARUNACHAL PRADESH","circle":"North Eastern Circle","region":"Shillong HQ Region"},{"pincode":"790104","office":"Lumberdung B.O","district":"TAWANG","state":"ARUNACHAL PRADESH","circle":"North Eastern Circle","region":"Shillong HQ Region"},{"pincode":"790104","office":"Lebrang","district":"TAWANG","state":"ARUNACHAL PRADESH","circle":"North Eastern Circle","region":"Shillong HQ Region"},{"pincode":"790116","office":"Dedza B.O","district":"WEST KAMENG","state":"ARUNACHAL PRADESH","circle":"North Eastern Circle","region":"Shillong HQ Region"},{"pincode":"792001","office":"Tafragram B.O","district":"LOHIT","state":"ARUNACHAL PRADESH","circle":"North Eastern Circle","region":"Shillong HQ Region"},{"pincode":"792001","office":"Tindolong B.O","district":"LOHIT","state":"ARUNACHAL PRADESH","circle":"North Eastern Circle","region":"Shillong HQ Region"},{"pincode":"792001","office":"43rd Mile","district":"LOHIT","state":"ARUNACHAL PRADESH","circle":"North Eastern Circle","region":"Shillong HQ Region"},{"pincode":"792001","office":"Manthi","district":"LOHIT","state":"ARUNACHAL PRADESH","circle":"North Eastern Circle","region":"Shillong HQ Region"},{"pincode":"791105","office":"Singa B.O","district":"UPPER SIANG","state":"ARUNACHAL PRADESH","circle":"North Eastern Circle","region":"Shillong HQ Region"},{"pincode":"791105","office":"Jido","district":"UPPER SIANG","state":"ARUNACHAL PRADESH","circle":"North Eastern Circle","region":"Shillong HQ Region"},{"pincode":"791105","office":"Nyering","district":"UPPER SIANG","state":"ARUNACHAL PRADESH","circle":"North Eastern Circle","region":"Shillong HQ Region"},{"pincode":"791105","office":"Mayum","district":"UPPER SIANG","state":"ARUNACHAL PRADESH","circle":"North Eastern Circle","region":"Shillong HQ Region"},{"pincode":"791105","office":"Singa H.Q.","district":"UPPER SIANG","state":"ARUNACHAL PRADESH","circle":"North Eastern Circle","region":"Shillong HQ Region"},{"pincode":"791002","office":"Gobuk","district":"UPPER SIANG","state":"ARUNACHAL PRADESH","circle":"North Eastern Circle","region":"Shillong HQ Region"},{"pincode":"791002","office":"Sikadine","district":"UPPER SIANG","state":"ARUNACHAL PRADESH","circle":"North Eastern Circle","region":"Shillong HQ Region"},{"pincode":"791120","office":"Boasimla B.O","district":"KAMLE","state":"ARUNACHAL PRADESH","circle":"North Eastern Circle","region":"Shillong HQ Region"},{"pincode":"791120","office":"Joram B.O","district":"LOWER SUBANSIRI","state":"ARUNACHAL PRADESH","circle":"North Eastern Circle","region":"Shillong HQ Region"},{"pincode":"791120","office":"SIIRO B.O","district":"LOWER SUBANSIRI","state":"ARUNACHAL PRADESH","circle":"North Eastern Circle","region":"Shillong HQ Region"},{"pincode":"791120","office":"Hanoko","district":"LOWER SUBANSIRI","state":"ARUNACHAL PRADESH","circle":"North Eastern Circle","region":"Shillong HQ Region"},{"pincode":"791120","office":"Duku","district":"LOWER SUBANSIRI","state":"ARUNACHAL PRADESH","circle":"North Eastern Circle","region":"Shillong HQ Region"},{"pincode":"791120","office":"Sekhe","district":"LOWER SUBANSIRI","state":"ARUNACHAL PRADESH","circle":"North Eastern Circle","region":"Shillong HQ Region"},{"pincode":"791120","office":"New Moya","district":"LOWER SUBANSIRI","state":"ARUNACHAL PRADESH","circle":"North Eastern Circle","region":"Shillong HQ Region"},{"pincode":"791120","office":"Ambam","district":"LOWER SUBANSIRI","state":"ARUNACHAL PRADESH","circle":"North Eastern Circle","region":"Shillong HQ Region"},{"pincode":"791120","office":"Pistana H.Q.","district":"LOWER SUBANSIRI","state":"ARUNACHAL PRADESH","circle":"North Eastern Circle","region":"Shillong HQ Region"},{"pincode":"791120","office":"Yom","district":"LOWER SUBANSIRI","state":"ARUNACHAL PRADESH","circle":"North Eastern Circle","region":"Shillong HQ Region"},{"pincode":"791120","office":"Tanyo","district":"LOWER SUBANSIRI","state":"ARUNACHAL PRADESH","circle":"North Eastern Circle","region":"Shillong HQ Region"},{"pincode":"791114","office":"Leporiang H.Q.","district":"PAPUM PARE","state":"ARUNACHAL PRADESH","circle":"North Eastern Circle","region":"Shillong HQ Region"},{"pincode":"791114","office":"Raik","district":"PAPUM PARE","state":"ARUNACHAL PRADESH","circle":"North Eastern Circle","region":"Shillong HQ Region"},{"pincode":"791111","office":"Itanagar H.O","district":"PAPUM PARE","state":"ARUNACHAL PRADESH","circle":"North Eastern Circle","region":"Shillong HQ Region"},{"pincode":"791001","office":"Along S.O","district":"WEST SIANG","state":"ARUNACHAL PRADESH","circle":"North Eastern Circle","region":"Shillong HQ Region"},{"pincode":"791123","office":"Banderdewa S.O","district":"PAPUM PARE","state":"ARUNACHAL PRADESH","circle":"North Eastern Circle","region":"Shillong HQ Region"},{"pincode":"791101","office":"Basar S.O (West Siang)","district":"LEPARADA","state":"ARUNACHAL PRADESH","circle":"North Eastern Circle","region":"Shillong HQ Region"},{"pincode":"792104","office":"Hayuliang S.O","district":"ANJAW","state":"ARUNACHAL PRADESH","circle":"North Eastern Circle","region":"Shillong HQ Region"},{"pincode":"790002","office":"Kalaktang S.O","district":"WEST KAMENG","state":"ARUNACHAL PRADESH","circle":"North Eastern Circle","region":"Shillong HQ Region"},{"pincode":"791109","office":"Nirjuli S.O","district":"PAPUM PARE","state":"ARUNACHAL PRADESH","circle":"North Eastern Circle","region":"Shillong HQ Region"},{"pincode":"791118","office":"Palin S.O","district":"KRA DAADI","state":"ARUNACHAL PRADESH","circle":"North Eastern Circle","region":"Shillong HQ Region"},{"pincode":"791113","office":"Ram Krishna Mission S.O","district":"PAPUM PARE","state":"ARUNACHAL PRADESH","circle":"North Eastern Circle","region":"Shillong HQ Region"},{"pincode":"792110","office":"Roing S.O","district":"LOWER DIBANG VALLEY","state":"ARUNACHAL PRADESH","circle":"North Eastern Circle","region":"Shillong HQ Region"},{"pincode":"790102","office":"Seppa S.O","district":"EAST KAMENG","state":"ARUNACHAL PRADESH","circle":"North Eastern Circle","region":"Shillong HQ Region"}]