[{"pincode":"110090","office":"Khajoori Khas BO","district":"NORTH EAST","state":"DELHI","circle":"Delhi Circle","region":"DivReportingCircle"},{"pincode":"110090","office":"Sabhapur BO","district":"NORTH EAST","state":"DELHI","circle":"Delhi Circle","region":"DivReportingCircle"},{"pincode":"110036","office":"Hiranki BO","district":"NORTH","state":"DELHI","circle":"Delhi Circle","region":"DivReportingCircle"},{"pincode":"110039","office":"Jat Khore BO","district":"NORTH","state":"DELHI","circle":"Delhi Circle","region":"DivReportingCircle"},{"pincode":"110039","office":"Nangal Thakran BO","district":"NORTH","state":"DELHI","circle":"Delhi Circle","region":"DivReportingCircle"},{"pincode":"110081","office":"Chand Pur BO","district":"NORTH WEST","state":"DELHI","circle":"Delhi Circle","region":"DivReportingCircle"},{"pincode":"110081","office":"Mubarak Pur Dabas BO","district":"NORTH WEST","state":"DELHI","circle":"Delhi Circle","region":"DivReportingCircle"},{"pincode":"110081","office":"Punjab Khor BO","district":"NORTH WEST","state":"DELHI","circle":"Delhi Circle","region":"DivReportingCircle"},{"pincode":"110040","office":"Lampur BO","district":"NORTH","state":"DELHI","circle":"Delhi Circle","region":"DivReportingCircle"},{"pincode":"110035","office":"Rampura BO","district":"NORTH WEST","state":"DELHI","circle":"Delhi Circle","region":"DivReportingCircle"},{"pincode":"110086","office":"Budh Vihar BO","district":"NORTH WEST","state":"DELHI","circle":"Delhi Circle","region":"DivReportingCircle"},{"pincode":"110076","office":"Madanpur Khadar BO","district":"SOUTH","state":"DELHI","circle":"Delhi Circle","region":"DivReportingCircle"},{"pincode":"110074","office":"BHATI VILLAGE BO","district":"SOUTH","state":"DELHI","circle":"Delhi Circle","region":"DivReportingCircle"},{"pincode":"110037","office":"Mahipalpur BO","district":"NEW DELHI","state":"DELHI","circle":"Delhi Circle","region":"DivReportingCircle"},{"pincode":"110037","office":"Nangal Dewat BO","district":"NEW DELHI","state":"DELHI","circle":"Delhi Circle","region":"DivReportingCircle"},{"pincode":"110030","office":"Gadaipur BO","district":"SOUTH","state":"DELHI","circle":"Delhi Circle","region":"DivReportingCircle"},{"pincode":"110043","office":"Khaira B.O","district":"WEST","state":"DELHI","circle":"Delhi Circle","region":"DivReportingCircle"},{"pincode":"110043","office":"Dindarpur B.O","district":"WEST","state":"DELHI","circle":"Delhi Circle","region":"DivReportingCircle"},{"pincode":"110043","office":"Surehra B.O","district":"WEST","state":"DELHI","circle":"Delhi Circle","region":"DivReportingCircle"},{"pincode":"110043","office":"Tilangpur Kotla B.O","district":"WEST","state":"DELHI","circle":"Delhi Circle","region":"DivReportingCircle"},{"pincode":"110045","office":"Dabri B.O","district":"SOUTH WEST","state":"DELHI","circle":"Delhi Circle","region":"DivReportingCircle"},{"pincode":"110073","office":"Galib Pur B.O","district":"SOUTH WEST","state":"DELHI","circle":"Delhi Circle","region":"DivReportingCircle"},{"pincode":"110041","office":"Nilothi B.O","district":"WEST","state":"DELHI","circle":"Delhi Circle","region":"DivReportingCircle"},{"pincode":"110041","office":"Tikri Kalan B.O","district":"WEST","state":"DELHI","circle":"Delhi Circle","region":"DivReportingCircle"},{"pincode":"110018","office":"Chaukhandi B.O","district":"WEST","state":"DELHI","circle":"Delhi Circle","region":"DivReportingCircle"},{"pincode":"110059","office":"Hastal Village B.O","district":"WEST","state":"DELHI","circle":"Delhi Circle","region":"DivReportingCircle"},{"pincode":"110053","office":"Brahampuri SO","district":"NORTH EAST","state":"DELHI","circle":"Delhi Circle","region":"DivReportingCircle"},{"pincode":"110095","office":"Dilshad Garden SO","district":"SHAHDARA","state":"DELHI","circle":"Delhi Circle","region":"DivReportingCircle"},{"pincode":"110094","office":"Gokal Puri SO","district":"NORTH EAST","state":"DELHI","circle":"Delhi Circle","region":"DivReportingCircle"},{"pincode":"110090","office":"Karawal Nagar SO","district":"NORTH EAST","state":"DELHI","circle":"Delhi Circle","region":"DivReportingCircle"},{"pincode":"110032","office":"Rohtash Nagar SO","district":"SHAHDARA","state":"DELHI","circle":"Delhi Circle","region":"DivReportingCircle"},{"pincode":"110090","office":"Shaheed Bhagat Singh Colony SO","district":"NORTH EAST","state":"DELHI","circle":"Delhi Circle","region":"DivReportingCircle"},{"pincode":"110053","office":"Yamuna Vihar SO","district":"NORTH EAST","state":"DELHI","circle":"Delhi Circle","region":"DivReportingCircle"},{"pincode":"110091","office":"Kalyanpuri SO","district":"EAST","state":"DELHI","circle":"Delhi Circle","region":"DivReportingCircle"},{"pincode":"110091","office":"Patparganj SO","district":"EAST","state":"DELHI","circle":"Delhi Circle","region":"DivReportingCircle"},{"pincode":"110092","office":"Shakarpur SO","district":"EAST","state":"DELHI","circle":"Delhi Circle","region":"DivReportingCircle"},{"pincode":"110092","office":"Laxmi Nagar Extension SO","district":"EAST","state":"DELHI","circle":"Delhi Circle","region":"DivReportingCircle"},{"pincode":"110096","office":"New Ashok Nagar S.O","district":"EAST","state":"DELHI","circle":"Delhi Circle","region":"DivReportingCircle"},{"pincode":"110054","office":"Civil Lines SO North Delhi","district":"CENTRAL","state":"DELHI","circle":"Delhi Circle","region":"DivReportingCircle"},{"pincode":"110054","office":"District Courts SO North Delhi","district":"CENTRAL","state":"DELHI","circle":"Delhi Circle","region":"DivReportingCircle"},{"pincode":"110007","office":"Rana Pratap Bagh SO","district":"NORTH","state":"DELHI","circle":"Delhi Circle","region":"DivReportingCircle"},{"pincode":"110007","office":"Shakti Nagar SO North Delhi","district":"NORTH","state":"DELHI","circle":"Delhi Circle","region":"DivReportingCircle"},{"pincode":"110084","office":"Wazirabad Village SO","district":"CENTRAL","state":"DELHI","circle":"Delhi Circle","region":"DivReportingCircle"},{"pincode":"110039","office":"Bawana SO","district":"NORTH","state":"DELHI","circle":"Delhi Circle","region":"DivReportingCircle"},{"pincode":"110009","office":"GTB Nagar SO","district":"NORTH","state":"DELHI","circle":"Delhi Circle","region":"DivReportingCircle"},{"pincode":"110033","office":"Jahangir Puri H Block SO","district":"NORTH","state":"DELHI","circle":"Delhi Circle","region":"DivReportingCircle"},{"pincode":"110035","office":"C4 Keshav Puram SO North West Delhi","district":"NORTH WEST","state":"DELHI","circle":"Delhi Circle","region":"DivReportingCircle"},{"pincode":"110083","office":"Mangolpuri I  Block SO","district":"NORTH WEST","state":"DELHI","circle":"Delhi Circle","region":"DivReportingCircle"},{"pincode":"110035","office":"Keshavpuram SO","district":"NORTH WEST","state":"DELHI","circle":"Delhi Circle","region":"DivReportingCircle"},{"pincode":"110042","office":"Samai Pur SO","district":"NORTH","state":"DELHI","circle":"Delhi Circle","region":"DivReportingCircle"},{"pincode":"110035","office":"Sarai Rohilla SO","district":"NORTH WEST","state":"DELHI","circle":"Delhi Circle","region":"DivReportingCircle"},{"pincode":"110034","office":"Saraswati Vihar SO","district":"NORTH WEST","state":"DELHI","circle":"Delhi Circle","region":"DivReportingCircle"},{"pincode":"110110","office":"Nodal Delivery Centre(Parcel) Rohini","district":"NORTH WEST","state":"DELHI","circle":"Delhi Circle","region":"DivReportingCircle"},{"pincode":"110009","office":"G T B Nagar extension SO","district":"NORTH","state":"DELHI","circle":"Delhi Circle","region":"DivReportingCircle"},{"pincode":"110002","office":"AGCR SO","district":"CENTRAL","state":"DELHI","circle":"Delhi Circle","region":"DivReportingCircle"},{"pincode":"110002","office":"Ajmeri Gate Extn SO","district":"CENTRAL","state":"DELHI","circle":"Delhi Circle","region":"DivReportingCircle"},{"pincode":"110001","office":"Baroda House SO","district":"NEW DELHI","state":"DELHI","circle":"Delhi Circle","region":"DivReportingCircle"},{"pincode":"110001","office":"Supreme Court SO","district":"NEW DELHI","state":"DELHI","circle":"Delhi Circle","region":"DivReportingCircle"},{"pincode":"110003","office":"Delhi High Court Extension Counter SO","district":"NEW DELHI","state":"DELHI","circle":"Delhi Circle","region":"DivReportingCircle"},{"pincode":"110001","office":"CAT EXTENSION COUNTER","district":"NEW DELHI","state":"DELHI","circle":"Delhi Circle","region":"DivReportingCircle"},{"pincode":"110002","office":"Rouse Avenue Extension Counter SO","district":"CENTRAL","state":"DELHI","circle":"Delhi Circle","region":"DivReportingCircle"},{"pincode":"110001","office":"Bengali Market SO","district":"NEW DELHI","state":"DELHI","circle":"Delhi Circle","region":"DivReportingCircle"},{"pincode":"110001","office":"Secretariat North SO","district":"NEW DELHI","state":"DELHI","circle":"Delhi Circle","region":"DivReportingCircle"},{"pincode":"110055","office":"SRT NAGAR EXTENSION COUNTER","district":"CENTRAL","state":"DELHI","circle":"Delhi Circle","region":"DivReportingCircle"},{"pincode":"110055","office":"AKMarket SO","district":"CENTRAL","state":"DELHI","circle":"Delhi Circle","region":"DivReportingCircle"},{"pincode":"110001","office":"Bhagat Singh Market SO","district":"NEW DELHI","state":"DELHI","circle":"Delhi Circle","region":"DivReportingCircle"},{"pincode":"110005","office":"Desh Bandhu Gupta Road SO","district":"CENTRAL","state":"DELHI","circle":"Delhi Circle","region":"DivReportingCircle"},{"pincode":"110005","office":"Guru Gobind Singh Marg SO","district":"CENTRAL","state":"DELHI","circle":"Delhi Circle","region":"DivReportingCircle"},{"pincode":"110008","office":"Patel Nagar East SO","district":"WEST","state":"DELHI","circle":"Delhi Circle","region":"DivReportingCircle"},{"pincode":"110008","office":"Patel Nagar West SO","district":"WEST","state":"DELHI","circle":"Delhi Circle","region":"DivReportingCircle"},{"pincode":"110062","office":"Dr Ambedkar Nagar SO South Delhi","district":"SOUTH","state":"DELHI","circle":"Delhi Circle","region":"DivReportingCircle"},{"pincode":"110025","office":"Jamia Nagar SO","district":"South East","state":"DELHI","circle":"Delhi Circle","region":"DivReportingCircle"},{"pincode":"110062","office":"Pushpa Bhawan SO","district":"SOUTH","state":"DELHI","circle":"Delhi Circle","region":"DivReportingCircle"},{"pincode":"110080","office":"Sangam Vihar SO","district":"SOUTH","state":"DELHI","circle":"Delhi Circle","region":"DivReportingCircle"},{"pincode":"110024","office":"Amar Colony SO","district":"South East","state":"DELHI","circle":"Delhi Circle","region":"DivReportingCircle"},{"pincode":"110003","office":"C G O Complex SO","district":"South East","state":"DELHI","circle":"Delhi Circle","region":"DivReportingCircle"},{"pincode":"110065","office":"East Of Kailash PhaseI SO","district":"South East","state":"DELHI","circle":"Delhi Circle","region":"DivReportingCircle"},{"pincode":"110014","office":"Hari Nagar Ashram SO","district":"South East","state":"DELHI","circle":"Delhi Circle","region":"DivReportingCircle"},{"pincode":"110024","office":"Lajpat Nagar South Delhi SO","district":"SOUTH","state":"DELHI","circle":"Delhi Circle","region":"DivReportingCircle"},{"pincode":"110017","office":"MMTCSTC Colony SO","district":"SOUTH","state":"DELHI","circle":"Delhi Circle","region":"DivReportingCircle"},{"pincode":"110049","office":"New Delhi South ExtII SO","district":"South East","state":"DELHI","circle":"Delhi Circle","region":"DivReportingCircle"},{"pincode":"110003","office":"Pragati Vihar SO","district":"South East","state":"DELHI","circle":"Delhi Circle","region":"DivReportingCircle"},{"pincode":"110014","office":"Pratap Market SO","district":"South East","state":"DELHI","circle":"Delhi Circle","region":"DivReportingCircle"},{"pincode":"110003","office":"Safdarjung Air Port SO","district":"South East","state":"DELHI","circle":"Delhi Circle","region":"DivReportingCircle"},{"pincode":"110124","office":"LAJPAT NAGAR NDC","district":"SOUTH","state":"DELHI","circle":"Delhi Circle","region":"DivReportingCircle"},{"pincode":"110021","office":"Chanakya Puri SO","district":"NEW DELHI","state":"DELHI","circle":"Delhi Circle","region":"DivReportingCircle"},{"pincode":"110037","office":"Gurgaon Road SO","district":"NEW DELHI","state":"DELHI","circle":"Delhi Circle","region":"DivReportingCircle"},{"pincode":"110023","office":"Laxmi Bai Nagar SO","district":"NEW DELHI","state":"DELHI","circle":"Delhi Circle","region":"DivReportingCircle"},{"pincode":"110030","office":"Mehrauli SO","district":"SOUTH","state":"DELHI","circle":"Delhi Circle","region":"DivReportingCircle"},{"pincode":"110067","office":"Munirka SO","district":"NEW DELHI","state":"DELHI","circle":"Delhi Circle","region":"DivReportingCircle"},{"pincode":"110022","office":"R K Puram Sect1 SO","district":"NEW DELHI","state":"DELHI","circle":"Delhi Circle","region":"DivReportingCircle"},{"pincode":"110029","office":"Safdarjung Enclave SO","district":"SOUTH","state":"DELHI","circle":"Delhi Circle","region":"DivReportingCircle"},{"pincode":"110016","office":"Technology Bhawan SO","district":"SOUTH","state":"DELHI","circle":"Delhi Circle","region":"DivReportingCircle"},{"pincode":"110070","office":"Vasant Kunj SO","district":"NEW DELHI","state":"DELHI","circle":"Delhi Circle","region":"DivReportingCircle"},{"pincode":"110028","office":"Naraina Village S.O","district":"NEW DELHI","state":"DELHI","circle":"Delhi Circle","region":"DivReportingCircle"},{"pincode":"110046","office":"Sagarpur S.O","district":"NEW DELHI","state":"DELHI","circle":"Delhi Circle","region":"DivReportingCircle"},{"pincode":"110043","office":"Gopal Nagar SO","district":"WEST","state":"DELHI","circle":"Delhi Circle","region":"DivReportingCircle"},{"pincode":"110043","office":"Durga Park PO","district":"WEST","state":"DELHI","circle":"Delhi Circle","region":"DivReportingCircle"},{"pincode":"110075","office":"NDC DWARKA SEC-6","district":"SOUTH WEST","state":"DELHI","circle":"Delhi Circle","region":"DivReportingCircle"},{"pincode":"110018","office":"Chand Nagar S.O","district":"WEST","state":"DELHI","circle":"Delhi Circle","region":"DivReportingCircle"},{"pincode":"110064","office":"Hari Nagar BE Block S.O","district":"WEST","state":"DELHI","circle":"Delhi Circle","region":"DivReportingCircle"},{"pincode":"110015","office":"L. M. Nagar Indl. Area S.O","district":"WEST","state":"DELHI","circle":"Delhi Circle","region":"DivReportingCircle"},{"pincode":"110063","office":"Madipur Village S.O","district":"WEST","state":"DELHI","circle":"Delhi Circle","region":"DivReportingCircle"},{"pincode":"110027","office":"Rajouri Market S.O","district":"WEST","state":"DELHI","circle":"Delhi Circle","region":"DivReportingCircle"},{"pincode":"110018","office":"Tilak Nagar S.O (West Delhi)","district":"WEST","state":"DELHI","circle":"Delhi Circle","region":"DivReportingCircle"},{"pincode":"110059","office":"Uttam Nagar S.O","district":"WEST","state":"DELHI","circle":"Delhi Circle","region":"DivReportingCircle"},{"pincode":"110018","office":"Vishnu Garden S.O","district":"WEST","state":"DELHI","circle":"Delhi Circle","region":"DivReportingCircle"},{"pincode":"110015","office":"Zakhira S.O","district":"WEST","state":"DELHI","circle":"Delhi Circle","region":"DivReportingCircle"},{"pincode":"110041","office":"Mundka SO","district":"WEST","state":"DELHI","circle":"Delhi Circle","region":"DivReportingCircle"},{"pincode":"110095","office":"Jhilmil HO","district":"SHAHDARA","state":"DELHI","circle":"Delhi Circle","region":"DivReportingCircle"},{"pincode":"110006","office":"Delhi GPO","district":"NORTH","state":"DELHI","circle":"Delhi Circle","region":"DivReportingCircle"},{"pincode":"110002","office":"Indraprastha HO","district":"CENTRAL","state":"DELHI","circle":"Delhi Circle","region":"DivReportingCircle"},{"pincode":"110003","office":"Lodi Road HO","district":"SOUTH","state":"DELHI","circle":"Delhi Circle","region":"DivReportingCircle"},{"pincode":"110015","office":"Ramesh Nagar H.O","district":"WEST","state":"DELHI","circle":"Delhi Circle","region":"DivReportingCircle"},{"pincode":"110094","office":"Johripur BO","district":"NORTH EAST","state":"DELHI","circle":"Delhi Circle","region":"DivReportingCircle"},{"pincode":"110036","office":"Bakoli BO","district":"NORTH","state":"DELHI","circle":"Delhi Circle","region":"DivReportingCircle"},{"pincode":"110039","office":"Pooth Khurd BO","district":"NORTH","state":"DELHI","circle":"Delhi Circle","region":"DivReportingCircle"},{"pincode":"110081","office":"Karala BO","district":"NORTH WEST","state":"DELHI","circle":"Delhi Circle","region":"DivReportingCircle"},{"pincode":"110081","office":"Nizampur BO","district":"NORTH WEST","state":"DELHI","circle":"Delhi Circle","region":"DivReportingCircle"},{"pincode":"110040","office":"Kanya Gurukul BO","district":"NORTH","state":"DELHI","circle":"Delhi Circle","region":"DivReportingCircle"},{"pincode":"110040","office":"Singhu BO","district":"NORTH","state":"DELHI","circle":"Delhi Circle","region":"DivReportingCircle"},{"pincode":"110042","office":"Siraspur BO","district":"NORTH","state":"DELHI","circle":"Delhi Circle","region":"DivReportingCircle"},{"pincode":"110042","office":"Mukundpur Village","district":"NORTH","state":"DELHI","circle":"Delhi Circle","region":"DivReportingCircle"},{"pincode":"110086","office":"Begumpur BO","district":"NORTH WEST","state":"DELHI","circle":"Delhi Circle","region":"DivReportingCircle"},{"pincode":"110086","office":"Prem Nagar BO","district":"NORTH WEST","state":"DELHI","circle":"Delhi Circle","region":"DivReportingCircle"},{"pincode":"110020","office":"Tehkhand BO","district":"SOUTH","state":"DELHI","circle":"Delhi Circle","region":"DivReportingCircle"},{"pincode":"110076","office":"Ali BO","district":"SOUTH","state":"DELHI","circle":"Delhi Circle","region":"DivReportingCircle"},{"pincode":"110014","office":"Jeevan Nagar BO","district":"SOUTH","state":"DELHI","circle":"Delhi Circle","region":"DivReportingCircle"},{"pincode":"110047","office":"Mandi BO","district":"SOUTH","state":"DELHI","circle":"Delhi Circle","region":"DivReportingCircle"},{"pincode":"110074","office":"Dera BO","district":"SOUTH","state":"DELHI","circle":"Delhi Circle","region":"DivReportingCircle"},{"pincode":"110010","office":"Aps Colony BO","district":"NEW DELHI","state":"DELHI","circle":"Delhi Circle","region":"DivReportingCircle"},{"pincode":"110030","office":"Ghitorni BO","district":"SOUTH","state":"DELHI","circle":"Delhi Circle","region":"DivReportingCircle"},{"pincode":"110030","office":"Lado Sarai BO","district":"SOUTH","state":"DELHI","circle":"Delhi Circle","region":"DivReportingCircle"},{"pincode":"110043","office":"Mitraon B.O","district":"WEST","state":"DELHI","circle":"Delhi Circle","region":"DivReportingCircle"},{"pincode":"110073","office":"Khera Dabur B.O","district":"SOUTH WEST","state":"DELHI","circle":"Delhi Circle","region":"DivReportingCircle"},{"pincode":"110073","office":"Mundela Kalan B.O","district":"SOUTH WEST","state":"DELHI","circle":"Delhi Circle","region":"DivReportingCircle"},{"pincode":"110073","office":"Quazipur B.O","district":"SOUTH WEST","state":"DELHI","circle":"Delhi Circle","region":"DivReportingCircle"},{"pincode":"110073","office":"Raota B.O","district":"SOUTH WEST","state":"DELHI","circle":"Delhi Circle","region":"DivReportingCircle"},{"pincode":"110041","office":"Neelwal BO","district":"WEST","state":"DELHI","circle":"Delhi Circle","region":"DivReportingCircle"},{"pincode":"110095","office":"GTB Hospital SO","district":"SHAHDARA","state":"DELHI","circle":"Delhi Circle","region":"DivReportingCircle"},{"pincode":"110053","office":"Jagjit Nagar SO","district":"NORTH EAST","state":"DELHI","circle":"Delhi Circle","region":"DivReportingCircle"},{"pincode":"110032","office":"Shahdara SO","district":"SHAHDARA","state":"DELHI","circle":"Delhi Circle","region":"DivReportingCircle"},{"pincode":"110090","office":"Sonia Vihar SO","district":"NORTH EAST","state":"DELHI","circle":"Delhi Circle","region":"DivReportingCircle"},{"pincode":"110032","office":"Distt Court KKD SO","district":"SHAHDARA","state":"DELHI","circle":"Delhi Circle","region":"DivReportingCircle"},{"pincode":"110031","office":"Gandhi Nagar Bazar SO","district":"SHAHDARA","state":"DELHI","circle":"Delhi Circle","region":"DivReportingCircle"},{"pincode":"110051","office":"Govind Pura SO","district":"EAST","state":"DELHI","circle":"Delhi Circle","region":"DivReportingCircle"},{"pincode":"110031","office":"Kailash Nagar SO","district":"SHAHDARA","state":"DELHI","circle":"Delhi Circle","region":"DivReportingCircle"},{"pincode":"110092","office":"Laxmi Nagar SO East Delhi","district":"EAST","state":"DELHI","circle":"Delhi Circle","region":"DivReportingCircle"},{"pincode":"110091","office":"Mayur Vihar PhI SO","district":"EAST","state":"DELHI","circle":"Delhi Circle","region":"DivReportingCircle"},{"pincode":"110031","office":"Shastri Nagar SO East Delhi","district":"EAST","state":"DELHI","circle":"Delhi Circle","region":"DivReportingCircle"},{"pincode":"110096","office":"Vasundhra Enclave SO","district":"EAST","state":"DELHI","circle":"Delhi Circle","region":"DivReportingCircle"},{"pincode":"110151","office":"KRISHNA NAGAR NDC","district":"SHAHDARA","state":"DELHI","circle":"Delhi Circle","region":"DivReportingCircle"},{"pincode":"110007","office":"Malka Ganj SO","district":"CENTRAL","state":"DELHI","circle":"Delhi Circle","region":"DivReportingCircle"},{"pincode":"110007","office":"Roshan Ara Road SO","district":"NORTH","state":"DELHI","circle":"Delhi Circle","region":"DivReportingCircle"},{"pincode":"110033","office":"Adrash Nagar SO","district":"NORTH","state":"DELHI","circle":"Delhi Circle","region":"DivReportingCircle"},{"pincode":"110036","office":"Alipur SO","district":"NORTH","state":"DELHI","circle":"Delhi Circle","region":"DivReportingCircle"},{"pincode":"110033","office":"Jahangir Puri D Block SO","district":"NORTH","state":"DELHI","circle":"Delhi Circle","region":"DivReportingCircle"},{"pincode":"110009","office":"Model Town III SO","district":"NORTH","state":"DELHI","circle":"Delhi Circle","region":"DivReportingCircle"},{"pincode":"110052","office":"Nimri SO","district":"NORTH WEST","state":"DELHI","circle":"Delhi Circle","region":"DivReportingCircle"},{"pincode":"110085","office":"Prashant Vihar SO","district":"NORTH WEST","state":"DELHI","circle":"Delhi Circle","region":"DivReportingCircle"},{"pincode":"110034","office":"Rani Bagh SO","district":"NORTH WEST","state":"DELHI","circle":"Delhi Circle","region":"DivReportingCircle"},{"pincode":"110085","office":"Rohini Courts SO","district":"NORTH WEST","state":"DELHI","circle":"Delhi Circle","region":"DivReportingCircle"},{"pincode":"110034","office":"Sri Nagar Colony SO","district":"NORTH WEST","state":"DELHI","circle":"Delhi Circle","region":"DivReportingCircle"},{"pincode":"110084","office":"Nathupura Village SO","district":"CENTRAL","state":"DELHI","circle":"Delhi Circle","region":"DivReportingCircle"},{"pincode":"110099","office":"ROHINI SECTOR 23 SO","district":"NORTH WEST","state":"DELHI","circle":"Delhi Circle","region":"DivReportingCircle"},{"pincode":"110042","office":"Shahbad Dairy PO","district":"NORTH","state":"DELHI","circle":"Delhi Circle","region":"DivReportingCircle"},{"pincode":"110006","office":"Chawri Bazar SO","district":"NORTH","state":"DELHI","circle":"Delhi Circle","region":"DivReportingCircle"},{"pincode":"110006","office":"Hauz Qazi SO","district":"NORTH","state":"DELHI","circle":"Delhi Circle","region":"DivReportingCircle"},{"pincode":"110002","office":"Civic Centre PO","district":"CENTRAL","state":"DELHI","circle":"Delhi Circle","region":"DivReportingCircle"},{"pincode":"110001","office":"Connaught Place SO","district":"NEW DELHI","state":"DELHI","circle":"Delhi Circle","region":"DivReportingCircle"},{"pincode":"110001","office":"Krishi Bhawan SO","district":"NEW DELHI","state":"DELHI","circle":"Delhi Circle","region":"DivReportingCircle"},{"pincode":"110001","office":"Rail Bhawan SO","district":"NEW DELHI","state":"DELHI","circle":"Delhi Circle","region":"DivReportingCircle"},{"pincode":"110001","office":"South Avenue SO","district":"NEW DELHI","state":"DELHI","circle":"Delhi Circle","region":"DivReportingCircle"},{"pincode":"110008","office":"Dada Ghosh Bhawan SO","district":"WEST","state":"DELHI","circle":"Delhi Circle","region":"DivReportingCircle"},{"pincode":"110005","office":"Karol Bagh SO","district":"CENTRAL","state":"DELHI","circle":"Delhi Circle","region":"DivReportingCircle"},{"pincode":"110005","office":"Sat Nagar SO","district":"CENTRAL","state":"DELHI","circle":"Delhi Circle","region":"DivReportingCircle"},{"pincode":"110055","office":"Swami Ram Tirth Nagar SO","district":"CENTRAL","state":"DELHI","circle":"Delhi Circle","region":"DivReportingCircle"},{"pincode":"110080","office":"Air Force Station Tugalkabad SO","district":"SOUTH","state":"DELHI","circle":"Delhi Circle","region":"DivReportingCircle"},{"pincode":"110020","office":"Okhla Industrial Estate SO","district":"SOUTH","state":"DELHI","circle":"Delhi Circle","region":"DivReportingCircle"},{"pincode":"110080","office":"Talimabad SO","district":"SOUTH","state":"DELHI","circle":"Delhi Circle","region":"DivReportingCircle"},{"pincode":"110003","office":"Aliganj SO South Delhi","district":"South East","state":"DELHI","circle":"Delhi Circle","region":"DivReportingCircle"},{"pincode":"110049","office":"Andrewsganj SO","district":"SOUTH","state":"DELHI","circle":"Delhi Circle","region":"DivReportingCircle"},{"pincode":"110024","office":"Defence Colony SO South Delhi","district":"South East","state":"DELHI","circle":"Delhi Circle","region":"DivReportingCircle"},{"pincode":"110017","office":"Distt Court Complex Saket SO","district":"SOUTH","state":"DELHI","circle":"Delhi Circle","region":"DivReportingCircle"},{"pincode":"110065","office":"East Of Kailash SO","district":"South East","state":"DELHI","circle":"Delhi Circle","region":"DivReportingCircle"},{"pincode":"110049","office":"Gautam Nagar SO","district":"South East","state":"DELHI","circle":"Delhi Circle","region":"DivReportingCircle"},{"pincode":"110003","office":"Golf Links SO","district":"South East","state":"DELHI","circle":"Delhi Circle","region":"DivReportingCircle"},{"pincode":"110065","office":"Nehru Nagar SO South Delhi","district":"South East","state":"DELHI","circle":"Delhi Circle","region":"DivReportingCircle"},{"pincode":"110017","office":"Sarvodya Enclave SO","district":"SOUTH","state":"DELHI","circle":"Delhi Circle","region":"DivReportingCircle"},{"pincode":"110010","office":"A F Palam SO","district":"NEW DELHI","state":"DELHI","circle":"Delhi Circle","region":"DivReportingCircle"},{"pincode":"110021","office":"Anand Niketan SO","district":"NEW DELHI","state":"DELHI","circle":"Delhi Circle","region":"DivReportingCircle"},{"pincode":"110061","office":"Bijwasan SO","district":"SOUTH WEST","state":"DELHI","circle":"Delhi Circle","region":"DivReportingCircle"},{"pincode":"110010","office":"COD SO South West Delhi","district":"NEW DELHI","state":"DELHI","circle":"Delhi Circle","region":"DivReportingCircle"},{"pincode":"110010","office":"Delhi Cantt SO","district":"NEW DELHI","state":"DELHI","circle":"Delhi Circle","region":"DivReportingCircle"},{"pincode":"110016","office":"Hauz Khas Market SO","district":"SOUTH","state":"DELHI","circle":"Delhi Circle","region":"DivReportingCircle"},{"pincode":"110010","office":"Kirby Place SO","district":"NEW DELHI","state":"DELHI","circle":"Delhi Circle","region":"DivReportingCircle"},{"pincode":"110022","office":"R K Puram Sect12 SO","district":"NEW DELHI","state":"DELHI","circle":"Delhi Circle","region":"DivReportingCircle"},{"pincode":"110066","office":"R K Puram West SO","district":"NEW DELHI","state":"DELHI","circle":"Delhi Circle","region":"DivReportingCircle"},{"pincode":"110057","office":"Vasant Vihar2 SO","district":"NEW DELHI","state":"DELHI","circle":"Delhi Circle","region":"DivReportingCircle"},{"pincode":"110047","office":"Aya Nagar S.O","district":"SOUTH","state":"DELHI","circle":"Delhi Circle","region":"DivReportingCircle"},{"pincode":"110078","office":"N.S.I.T. Dwarka S.O","district":"SOUTH WEST","state":"DELHI","circle":"Delhi Circle","region":"DivReportingCircle"},{"pincode":"110077","office":"Raj Nagar   II S.O","district":"SOUTH WEST","state":"DELHI","circle":"Delhi Circle","region":"DivReportingCircle"},{"pincode":"110073","office":"Ujwa S.O","district":"SOUTH WEST","state":"DELHI","circle":"Delhi Circle","region":"DivReportingCircle"},{"pincode":"110043","office":"SHYAM VIHAR S.O","district":"WEST","state":"DELHI","circle":"Delhi Circle","region":"DivReportingCircle"},{"pincode":"110027","office":"Janta Market S.O","district":"WEST","state":"DELHI","circle":"Delhi Circle","region":"DivReportingCircle"},{"pincode":"110015","office":"Karam Pura S.O","district":"WEST","state":"DELHI","circle":"Delhi Circle","region":"DivReportingCircle"},{"pincode":"110018","office":"Khyala Phase   II S.O","district":"WEST","state":"DELHI","circle":"Delhi Circle","region":"DivReportingCircle"},{"pincode":"110015","office":"Mansarover Garden S.O","district":"WEST","state":"DELHI","circle":"Delhi Circle","region":"DivReportingCircle"},{"pincode":"110063","office":"Paschim Vihar B Block S.O","district":"WEST","state":"DELHI","circle":"Delhi Circle","region":"DivReportingCircle"},{"pincode":"110026","office":"Punjabi Bagh S.O","district":"WEST","state":"DELHI","circle":"Delhi Circle","region":"DivReportingCircle"},{"pincode":"110027","office":"Rajouri Garden J 6 S.O","district":"WEST","state":"DELHI","circle":"Delhi Circle","region":"DivReportingCircle"},{"pincode":"110015","office":"Moti Nagar S.O","district":"WEST","state":"DELHI","circle":"Delhi Circle","region":"DivReportingCircle"},{"pincode":"110019","office":"Kalkaji HO","district":"SOUTH","state":"DELHI","circle":"Delhi Circle","region":"DivReportingCircle"},{"pincode":"110023","office":"Sarojini Nagar HO","district":"NEW DELHI","state":"DELHI","circle":"Delhi Circle","region":"DivReportingCircle"},{"pincode":"110093","office":"Mandoli Saboli BO","district":"NORTH EAST","state":"DELHI","circle":"Delhi Circle","region":"DivReportingCircle"},{"pincode":"110053","office":"New Usmanpur BO","district":"NORTH EAST","state":"DELHI","circle":"Delhi Circle","region":"DivReportingCircle"},{"pincode":"110096","office":"Ghazipur BO","district":"EAST","state":"DELHI","circle":"Delhi Circle","region":"DivReportingCircle"},{"pincode":"110084","office":"Jagatpur BO","district":"NORTH","state":"DELHI","circle":"Delhi Circle","region":"DivReportingCircle"},{"pincode":"110036","office":"Nangal Poona BO","district":"NORTH","state":"DELHI","circle":"Delhi Circle","region":"DivReportingCircle"},{"pincode":"110039","office":"Auchandi BO","district":"NORTH","state":"DELHI","circle":"Delhi Circle","region":"DivReportingCircle"},{"pincode":"110039","office":"Ghoga BO","district":"NORTH","state":"DELHI","circle":"Delhi Circle","region":"DivReportingCircle"},{"pincode":"110039","office":"Hareveli BO","district":"NORTH","state":"DELHI","circle":"Delhi Circle","region":"DivReportingCircle"},{"pincode":"110039","office":"Qutabagarh BO","district":"NORTH WEST","state":"DELHI","circle":"Delhi Circle","region":"DivReportingCircle"},{"pincode":"110081","office":"Jaunti BO","district":"NORTH WEST","state":"DELHI","circle":"Delhi Circle","region":"DivReportingCircle"},{"pincode":"110081","office":"Rani Khera BO","district":"NORTH WEST","state":"DELHI","circle":"Delhi Circle","region":"DivReportingCircle"},{"pincode":"110040","office":"Bankner BO","district":"NORTH","state":"DELHI","circle":"Delhi Circle","region":"DivReportingCircle"},{"pincode":"110088","office":"Shalamar BO","district":"NORTH","state":"DELHI","circle":"Delhi Circle","region":"DivReportingCircle"},{"pincode":"110044","office":"Village Tugalkabad BO","district":"SOUTH","state":"DELHI","circle":"Delhi Circle","region":"DivReportingCircle"},{"pincode":"110049","office":"Sahpurjat BO","district":"SOUTH","state":"DELHI","circle":"Delhi Circle","region":"DivReportingCircle"},{"pincode":"110038","office":"Rajokari BO","district":"NEW DELHI","state":"DELHI","circle":"Delhi Circle","region":"DivReportingCircle"},{"pincode":"110047","office":"Jaunapur BO","district":"SOUTH","state":"DELHI","circle":"Delhi Circle","region":"DivReportingCircle"},{"pincode":"110074","office":"CSKM School BO","district":"SOUTH","state":"DELHI","circle":"Delhi Circle","region":"DivReportingCircle"},{"pincode":"110074","office":"Chandanhoola BO","district":"SOUTH","state":"DELHI","circle":"Delhi Circle","region":"DivReportingCircle"},{"pincode":"110074","office":"Sanjay Colony Bhati Mines BO","district":"SOUTH","state":"DELHI","circle":"Delhi Circle","region":"DivReportingCircle"},{"pincode":"110071","office":"Kangan Heri B.O","district":"SOUTH WEST","state":"DELHI","circle":"Delhi Circle","region":"DivReportingCircle"},{"pincode":"110072","office":"Jharoda Kalan B.O","district":"SOUTH WEST","state":"DELHI","circle":"Delhi Circle","region":"DivReportingCircle"},{"pincode":"110043","office":"Baprola B.O","district":"WEST","state":"DELHI","circle":"Delhi Circle","region":"DivReportingCircle"},{"pincode":"110043","office":"Pandwala Kalan B.O","district":"WEST","state":"DELHI","circle":"Delhi Circle","region":"DivReportingCircle"},{"pincode":"110043","office":"Papravat B.O","district":"WEST","state":"DELHI","circle":"Delhi Circle","region":"DivReportingCircle"},{"pincode":"110043","office":"Rewla Khanpur B.O","district":"WEST","state":"DELHI","circle":"Delhi Circle","region":"DivReportingCircle"},{"pincode":"110045","office":"Indira Park B.O","district":"SOUTH WEST","state":"DELHI","circle":"Delhi Circle","region":"DivReportingCircle"},{"pincode":"110073","office":"Issapur B.O","district":"SOUTH WEST","state":"DELHI","circle":"Delhi Circle","region":"DivReportingCircle"},{"pincode":"110059","office":"Matiala B.O","district":"WEST","state":"DELHI","circle":"Delhi Circle","region":"DivReportingCircle"},{"pincode":"110087","office":"Peeragarhi B.O","district":"WEST","state":"DELHI","circle":"Delhi Circle","region":"DivReportingCircle"},{"pincode":"110041","office":"Bakkarwala B.O","district":"WEST","state":"DELHI","circle":"Delhi Circle","region":"DivReportingCircle"},{"pincode":"110041","office":"Hirankudna B.O","district":"WEST","state":"DELHI","circle":"Delhi Circle","region":"DivReportingCircle"},{"pincode":"110041","office":"Ranhola B.O","district":"WEST","state":"DELHI","circle":"Delhi Circle","region":"DivReportingCircle"},{"pincode":"110032","office":"Babarpur SO North East Delhi","district":"SHAHDARA","state":"DELHI","circle":"Delhi Circle","region":"DivReportingCircle"},{"pincode":"110032","office":"Bhola Nath Nagar SO","district":"SHAHDARA","state":"DELHI","circle":"Delhi Circle","region":"DivReportingCircle"},{"pincode":"110093","office":"Harsh Vihar SO","district":"NORTH EAST","state":"DELHI","circle":"Delhi Circle","region":"DivReportingCircle"},{"pincode":"110053","office":"Maujpur SO","district":"NORTH EAST","state":"DELHI","circle":"Delhi Circle","region":"DivReportingCircle"},{"pincode":"110093","office":"Nand Nagri C SO","district":"NORTH EAST","state":"DELHI","circle":"Delhi Circle","region":"DivReportingCircle"},{"pincode":"110195","office":"JHILMIL NDC","district":"SHAHDARA","state":"DELHI","circle":"Delhi Circle","region":"DivReportingCircle"},{"pincode":"110051","office":"Azad Nagar SO East Delhi","district":"SHAHDARA","state":"DELHI","circle":"Delhi Circle","region":"DivReportingCircle"},{"pincode":"110031","office":"Gandhi Nagar SO East Delhi","district":"SHAHDARA","state":"DELHI","circle":"Delhi Circle","region":"DivReportingCircle"},{"pincode":"110031","office":"Geeta Colony SO","district":"SHAHDARA","state":"DELHI","circle":"Delhi Circle","region":"DivReportingCircle"},{"pincode":"110092","office":"IP Extension SO","district":"EAST","state":"DELHI","circle":"Delhi Circle","region":"DivReportingCircle"},{"pincode":"110091","office":"Kalyanvas SO","district":"EAST","state":"DELHI","circle":"Delhi Circle","region":"DivReportingCircle"},{"pincode":"110092","office":"Nirman Vihar SO","district":"EAST","state":"DELHI","circle":"Delhi Circle","region":"DivReportingCircle"},{"pincode":"110092","office":"Yozna Vihar SO","district":"EAST","state":"DELHI","circle":"Delhi Circle","region":"DivReportingCircle"},{"pincode":"110091","office":"CHILLA  SO","district":"EAST","state":"DELHI","circle":"Delhi Circle","region":"DivReportingCircle"},{"pincode":"110007","office":"Gulabi Bagh SO","district":"NORTH WEST","state":"DELHI","circle":"Delhi Circle","region":"DivReportingCircle"},{"pincode":"110035","office":"Ganeshpura SO","district":"NORTH WEST","state":"DELHI","circle":"Delhi Circle","region":"DivReportingCircle"},{"pincode":"110033","office":"Jahangir Puri A Block SO","district":"NORTH","state":"DELHI","circle":"Delhi Circle","region":"DivReportingCircle"},{"pincode":"110081","office":"Kanjhawla SO","district":"NORTH WEST","state":"DELHI","circle":"Delhi Circle","region":"DivReportingCircle"},{"pincode":"110085","office":"Rohini sec11 SO","district":"NORTH WEST","state":"DELHI","circle":"Delhi Circle","region":"DivReportingCircle"},{"pincode":"110085","office":"Rohini Sector7 SO","district":"NORTH WEST","state":"DELHI","circle":"Delhi Circle","region":"DivReportingCircle"},{"pincode":"110052","office":"Satyawati Nagar SO","district":"NORTH","state":"DELHI","circle":"Delhi Circle","region":"DivReportingCircle"},{"pincode":"110034","office":"Shakur Pur I  Block SO","district":"NORTH WEST","state":"DELHI","circle":"Delhi Circle","region":"DivReportingCircle"},{"pincode":"110086","office":"KIRARI SULEMAN NAGAR SO","district":"NORTH WEST","state":"DELHI","circle":"Delhi Circle","region":"DivReportingCircle"},{"pincode":"110084","office":"Sant Nagar SO","district":"CENTRAL","state":"DELHI","circle":"Delhi Circle","region":"DivReportingCircle"},{"pincode":"110040","office":"Tikri Khurd","district":"NORTH","state":"DELHI","circle":"Delhi Circle","region":"DivReportingCircle"},{"pincode":"110002","office":"IPEstate SO","district":"CENTRAL","state":"DELHI","circle":"Delhi Circle","region":"DivReportingCircle"},{"pincode":"110006","office":"Jama Masjid SO","district":"NORTH","state":"DELHI","circle":"Delhi Circle","region":"DivReportingCircle"},{"pincode":"110003","office":"Pandara Road SO","district":"NEW DELHI","state":"DELHI","circle":"Delhi Circle","region":"DivReportingCircle"},{"pincode":"110001","office":"Patiala House SO","district":"NEW DELHI","state":"DELHI","circle":"Delhi Circle","region":"DivReportingCircle"},{"pincode":"110001","office":"Lady Harding Medical College SO","district":"NEW DELHI","state":"DELHI","circle":"Delhi Circle","region":"DivReportingCircle"},{"pincode":"110011","office":"Nirman Bhawan SO","district":"NEW DELHI","state":"DELHI","circle":"Delhi Circle","region":"DivReportingCircle"},{"pincode":"110004","office":"Rashtrapati Bhawan SO","district":"NEW DELHI","state":"DELHI","circle":"Delhi Circle","region":"DivReportingCircle"},{"pincode":"110001","office":"Sansadiya Soudh SO","district":"NEW DELHI","state":"DELHI","circle":"Delhi Circle","region":"DivReportingCircle"},{"pincode":"110011","office":"Udyog Bhawan SO","district":"NEW DELHI","state":"DELHI","circle":"Delhi Circle","region":"DivReportingCircle"},{"pincode":"110102","office":"NDC NDHO","district":"NEW DELHI","state":"DELHI","circle":"Delhi Circle","region":"DivReportingCircle"},{"pincode":"110012","office":"Inderpuri SO","district":"WEST","state":"DELHI","circle":"Delhi Circle","region":"DivReportingCircle"},{"pincode":"110055","office":"Pahar Ganj SO","district":"CENTRAL","state":"DELHI","circle":"Delhi Circle","region":"DivReportingCircle"},{"pincode":"110008","office":"Patel Nagar South SO","district":"WEST","state":"DELHI","circle":"Delhi Circle","region":"DivReportingCircle"},{"pincode":"110019","office":"Alaknanda SO","district":"South East","state":"DELHI","circle":"Delhi Circle","region":"DivReportingCircle"},{"pincode":"110044","office":"Badarpur SO South Delhi","district":"SOUTH","state":"DELHI","circle":"Delhi Circle","region":"DivReportingCircle"},{"pincode":"110019","office":"Chittranjan Park SO","district":"South East","state":"DELHI","circle":"Delhi Circle","region":"DivReportingCircle"},{"pincode":"110062","office":"Dakshinpuri PhaseI SO","district":"SOUTH","state":"DELHI","circle":"Delhi Circle","region":"DivReportingCircle"},{"pincode":"110048","office":"Greater Kailash SO","district":"SOUTH","state":"DELHI","circle":"Delhi Circle","region":"DivReportingCircle"},{"pincode":"110062","office":"Hamdard Nagar SO","district":"SOUTH","state":"DELHI","circle":"Delhi Circle","region":"DivReportingCircle"},{"pincode":"110048","office":"Kailash Colony SO","district":"South East","state":"DELHI","circle":"Delhi Circle","region":"DivReportingCircle"},{"pincode":"110025","office":"Sukhdev Vihar SO","district":"South East","state":"DELHI","circle":"Delhi Circle","region":"DivReportingCircle"},{"pincode":"110013","office":"Dargah Sharif SO","district":"South East","state":"DELHI","circle":"Delhi Circle","region":"DivReportingCircle"},{"pincode":"110013","office":"Hazrat Nizamuddin SO","district":"SOUTH","state":"DELHI","circle":"Delhi Circle","region":"DivReportingCircle"},{"pincode":"110017","office":"Malviya Nagar SO South Delhi","district":"SOUTH","state":"DELHI","circle":"Delhi Circle","region":"DivReportingCircle"},{"pincode":"110017","office":"Pushp Vihar SO","district":"SOUTH","state":"DELHI","circle":"Delhi Circle","region":"DivReportingCircle"},{"pincode":"110017","office":"Saket SO South Delhi","district":"SOUTH","state":"DELHI","circle":"Delhi Circle","region":"DivReportingCircle"},{"pincode":"110038","office":"A F Rajokari SO","district":"NEW DELHI","state":"DELHI","circle":"Delhi Circle","region":"DivReportingCircle"},{"pincode":"110068","office":"Ignou SO","district":"SOUTH","state":"DELHI","circle":"Delhi Circle","region":"DivReportingCircle"},{"pincode":"110067","office":"JNU SO","district":"NEW DELHI","state":"DELHI","circle":"Delhi Circle","region":"DivReportingCircle"},{"pincode":"110067","office":"JNU New Campus SO","district":"NEW DELHI","state":"DELHI","circle":"Delhi Circle","region":"DivReportingCircle"},{"pincode":"110097","office":"Kapashera SO","district":"SOUTH WEST","state":"DELHI","circle":"Delhi Circle","region":"DivReportingCircle"},{"pincode":"110023","office":"Kidwai Nagar East SO","district":"NEW DELHI","state":"DELHI","circle":"Delhi Circle","region":"DivReportingCircle"},{"pincode":"110021","office":"Moti Bagh SO","district":"NEW DELHI","state":"DELHI","circle":"Delhi Circle","region":"DivReportingCircle"},{"pincode":"110021","office":"Nanak Pura SO","district":"NEW DELHI","state":"DELHI","circle":"Delhi Circle","region":"DivReportingCircle"},{"pincode":"110037","office":"Palam Airport SO","district":"NEW DELHI","state":"DELHI","circle":"Delhi Circle","region":"DivReportingCircle"},{"pincode":"110022","office":"R K Puram Sect5 SO","district":"NEW DELHI","state":"DELHI","circle":"Delhi Circle","region":"DivReportingCircle"},{"pincode":"110022","office":"R K Puram Sect7 SO","district":"NEW DELHI","state":"DELHI","circle":"Delhi Circle","region":"DivReportingCircle"},{"pincode":"110022","office":"R K Puram Sector  6 Postal SB SO","district":"NEW DELHI","state":"DELHI","circle":"Delhi Circle","region":"DivReportingCircle"},{"pincode":"110010","office":"R R Hospital SO","district":"NEW DELHI","state":"DELHI","circle":"Delhi Circle","region":"DivReportingCircle"},{"pincode":"110010","office":"Subroto Park SO","district":"NEW DELHI","state":"DELHI","circle":"Delhi Circle","region":"DivReportingCircle"},{"pincode":"110030","office":"T B Hospital SO","district":"SOUTH","state":"DELHI","circle":"Delhi Circle","region":"DivReportingCircle"},{"pincode":"110070","office":"Vasant Kunj PktA SO","district":"NEW DELHI","state":"DELHI","circle":"Delhi Circle","region":"DivReportingCircle"},{"pincode":"110057","office":"Vasant Vihar1 SO","district":"NEW DELHI","state":"DELHI","circle":"Delhi Circle","region":"DivReportingCircle"},{"pincode":"110071","office":"Chhawla S.O","district":"SOUTH WEST","state":"DELHI","circle":"Delhi Circle","region":"DivReportingCircle"},{"pincode":"110045","office":"Palam Village S.O","district":"SOUTH WEST","state":"DELHI","circle":"Delhi Circle","region":"DivReportingCircle"},{"pincode":"110015","office":"ESI S.O","district":"WEST","state":"DELHI","circle":"Delhi Circle","region":"DivReportingCircle"},{"pincode":"110058","office":"Janakpuri A 3 S.O","district":"WEST","state":"DELHI","circle":"Delhi Circle","region":"DivReportingCircle"},{"pincode":"110087","office":"Jwala Puri S.O","district":"WEST","state":"DELHI","circle":"Delhi Circle","region":"DivReportingCircle"},{"pincode":"110018","office":"M.B.S. Nagar S.O","district":"WEST","state":"DELHI","circle":"Delhi Circle","region":"DivReportingCircle"},{"pincode":"110026","office":"Punjabi Bagh Sec   III S.O","district":"WEST","state":"DELHI","circle":"Delhi Circle","region":"DivReportingCircle"},{"pincode":"110027","office":"Subhash Nagar West S.O","district":"WEST","state":"DELHI","circle":"Delhi Circle","region":"DivReportingCircle"},{"pincode":"110018","office":"Tilak Nagar East S.O","district":"WEST","state":"DELHI","circle":"Delhi Circle","region":"DivReportingCircle"},{"pincode":"110018","office":"Vikas Puri S.O","district":"WEST","state":"DELHI","circle":"Delhi Circle","region":"DivReportingCircle"},{"pincode":"110001","office":"New Delhi GPO","district":"NEW DELHI","state":"DELHI","circle":"Delhi Circle","region":"DivReportingCircle"},{"pincode":"110094","office":"Dayalpur BO","district":"NORTH EAST","state":"DELHI","circle":"Delhi Circle","region":"DivReportingCircle"},{"pincode":"110090","office":"Badarpur Khadar BO","district":"NORTH EAST","state":"DELHI","circle":"Delhi Circle","region":"DivReportingCircle"},{"pincode":"110036","office":"Bakhtawar Pur BO","district":"NORTH","state":"DELHI","circle":"Delhi Circle","region":"DivReportingCircle"},{"pincode":"110036","office":"Kadipur BO","district":"NORTH","state":"DELHI","circle":"Delhi Circle","region":"DivReportingCircle"},{"pincode":"110036","office":"Khampur BO","district":"NORTH","state":"DELHI","circle":"Delhi Circle","region":"DivReportingCircle"},{"pincode":"110036","office":"Mukhmelpur BO","district":"NORTH","state":"DELHI","circle":"Delhi Circle","region":"DivReportingCircle"},{"pincode":"110039","office":"Barwala BO","district":"NORTH","state":"DELHI","circle":"Delhi Circle","region":"DivReportingCircle"},{"pincode":"110033","office":"Bhalaswa BO","district":"NORTH","state":"DELHI","circle":"Delhi Circle","region":"DivReportingCircle"},{"pincode":"110081","office":"Gheora BO","district":"NORTH WEST","state":"DELHI","circle":"Delhi Circle","region":"DivReportingCircle"},{"pincode":"110081","office":"Lad Pur BO","district":"NORTH WEST","state":"DELHI","circle":"Delhi Circle","region":"DivReportingCircle"},{"pincode":"110082","office":"Khera Khurd BO","district":"NORTH","state":"DELHI","circle":"Delhi Circle","region":"DivReportingCircle"},{"pincode":"110082","office":"Naya Bans BO","district":"NORTH","state":"DELHI","circle":"Delhi Circle","region":"DivReportingCircle"},{"pincode":"110040","office":"Bhorgarh BO","district":"NORTH","state":"DELHI","circle":"Delhi Circle","region":"DivReportingCircle"},{"pincode":"110042","office":"Pehlad Pur BO","district":"NORTH","state":"DELHI","circle":"Delhi Circle","region":"DivReportingCircle"},{"pincode":"110086","office":"Pooth Kalan BO","district":"NORTH WEST","state":"DELHI","circle":"Delhi Circle","region":"DivReportingCircle"},{"pincode":"110044","office":"Pul Pahladpur BO","district":"SOUTH","state":"DELHI","circle":"Delhi Circle","region":"DivReportingCircle"},{"pincode":"110061","office":"Shahbad Mohammadpur BO","district":"NEW DELHI","state":"DELHI","circle":"Delhi Circle","region":"DivReportingCircle"},{"pincode":"110068","office":"Maidan Garhi BO","district":"SOUTH","state":"DELHI","circle":"Delhi Circle","region":"DivReportingCircle"},{"pincode":"110030","office":"Sultanpur BO","district":"SOUTH","state":"DELHI","circle":"Delhi Circle","region":"DivReportingCircle"},{"pincode":"110070","office":"Masood Pur BO","district":"NEW DELHI","state":"DELHI","circle":"Delhi Circle","region":"DivReportingCircle"},{"pincode":"110043","office":"Kair B.O","district":"WEST","state":"DELHI","circle":"Delhi Circle","region":"DivReportingCircle"},{"pincode":"110078","office":"Kakrola B.O","district":"SOUTH WEST","state":"DELHI","circle":"Delhi Circle","region":"DivReportingCircle"},{"pincode":"110043","office":"Jhatikara B.O","district":"WEST","state":"DELHI","circle":"Delhi Circle","region":"DivReportingCircle"},{"pincode":"110045","office":"Nasirpur B.O","district":"SOUTH WEST","state":"DELHI","circle":"Delhi Circle","region":"DivReportingCircle"},{"pincode":"110077","office":"Bagdola B.O","district":"NEW DELHI","state":"DELHI","circle":"Delhi Circle","region":"DivReportingCircle"},{"pincode":"110077","office":"Barthal B.O","district":"SOUTH WEST","state":"DELHI","circle":"Delhi Circle","region":"DivReportingCircle"},{"pincode":"110077","office":"Dhulsiras B.O","district":"SOUTH WEST","state":"DELHI","circle":"Delhi Circle","region":"DivReportingCircle"},{"pincode":"110073","office":"Malik Pur B.O","district":"SOUTH WEST","state":"DELHI","circle":"Delhi Circle","region":"DivReportingCircle"},{"pincode":"110063","office":"Jawala Heri B.O","district":"WEST","state":"DELHI","circle":"Delhi Circle","region":"DivReportingCircle"},{"pincode":"110001","office":"Sansad Marg HO","district":"NEW DELHI","state":"DELHI","circle":"Delhi Circle","region":"DivReportingCircle"},{"pincode":"110028","office":"Naraina Industrial Estate H.O","district":"NEW DELHI","state":"DELHI","circle":"Delhi Circle","region":"DivReportingCircle"},{"pincode":"110032","office":"Balbir Nagar SO","district":"SHAHDARA","state":"DELHI","circle":"Delhi Circle","region":"DivReportingCircle"},{"pincode":"110053","office":"Bhajan Pura SO","district":"NORTH EAST","state":"DELHI","circle":"Delhi Circle","region":"DivReportingCircle"},{"pincode":"110093","office":"Housing Complex Loni Road SO","district":"NORTH EAST","state":"DELHI","circle":"Delhi Circle","region":"DivReportingCircle"},{"pincode":"110032","office":"Man Sarovar Park SO","district":"SHAHDARA","state":"DELHI","circle":"Delhi Circle","region":"DivReportingCircle"},{"pincode":"110095","office":"New Seemapuri SO","district":"SHAHDARA","state":"DELHI","circle":"Delhi Circle","region":"DivReportingCircle"},{"pincode":"110095","office":"Old Seemapuri SO","district":"SHAHDARA","state":"DELHI","circle":"Delhi Circle","region":"DivReportingCircle"},{"pincode":"110053","office":"Seelampur SO","district":"NORTH EAST","state":"DELHI","circle":"Delhi Circle","region":"DivReportingCircle"},{"pincode":"110032","office":"Shahdara Mandi SO","district":"SHAHDARA","state":"DELHI","circle":"Delhi Circle","region":"DivReportingCircle"},{"pincode":"110032","office":"Shivaji Park SO East Delhi","district":"SHAHDARA","state":"DELHI","circle":"Delhi Circle","region":"DivReportingCircle"},{"pincode":"110096","office":"Mayur Vihar PhIII SO","district":"EAST","state":"DELHI","circle":"Delhi Circle","region":"DivReportingCircle"},{"pincode":"110051","office":"Ram Nagar SO East Delhi","district":"EAST","state":"DELHI","circle":"Delhi Circle","region":"DivReportingCircle"},{"pincode":"110092","office":"Surajmal Vihar SO","district":"SHAHDARA","state":"DELHI","circle":"Delhi Circle","region":"DivReportingCircle"},{"pincode":"110095","office":"Vivek Vihar SO","district":"SHAHDARA","state":"DELHI","circle":"Delhi Circle","region":"DivReportingCircle"},{"pincode":"110084","office":"Burari SO","district":"CENTRAL","state":"DELHI","circle":"Delhi Circle","region":"DivReportingCircle"},{"pincode":"110007","office":"Delhi University SO","district":"NORTH","state":"DELHI","circle":"Delhi Circle","region":"DivReportingCircle"},{"pincode":"110007","office":"Jawahar Nagar SO North Delhi","district":"NORTH","state":"DELHI","circle":"Delhi Circle","region":"DivReportingCircle"},{"pincode":"110054","office":"Patrachar Vidyalay SO","district":"CENTRAL","state":"DELHI","circle":"Delhi Circle","region":"DivReportingCircle"},{"pincode":"110007","office":"RCAO SO","district":"NORTH","state":"DELHI","circle":"Delhi Circle","region":"DivReportingCircle"},{"pincode":"110085","office":"Avantika SO","district":"NORTH WEST","state":"DELHI","circle":"Delhi Circle","region":"DivReportingCircle"},{"pincode":"110088","office":"Haiderpur SO","district":"NORTH","state":"DELHI","circle":"Delhi Circle","region":"DivReportingCircle"},{"pincode":"110082","office":"Khera Kalan SO","district":"NORTH","state":"DELHI","circle":"Delhi Circle","region":"DivReportingCircle"},{"pincode":"110083","office":"Mangolpuri A Block SO","district":"NORTH WEST","state":"DELHI","circle":"Delhi Circle","region":"DivReportingCircle"},{"pincode":"110034","office":"Maurya Enclave SO","district":"NORTH WEST","state":"DELHI","circle":"Delhi Circle","region":"DivReportingCircle"},{"pincode":"110009","office":"Model Town II SO","district":"NORTH","state":"DELHI","circle":"Delhi Circle","region":"DivReportingCircle"},{"pincode":"110033","office":"NSMandi SO","district":"NORTH","state":"DELHI","circle":"Delhi Circle","region":"DivReportingCircle"},{"pincode":"110040","office":"Narela SO","district":"NORTH","state":"DELHI","circle":"Delhi Circle","region":"DivReportingCircle"},{"pincode":"110035","office":"Power House SO","district":"NORTH WEST","state":"DELHI","circle":"Delhi Circle","region":"DivReportingCircle"},{"pincode":"110085","office":"Rohini Sector 5 SO","district":"NORTH WEST","state":"DELHI","circle":"Delhi Circle","region":"DivReportingCircle"},{"pincode":"110088","office":"Shalimar Bagh SO North West Delhi","district":"NORTH","state":"DELHI","circle":"Delhi Circle","region":"DivReportingCircle"},{"pincode":"110086","office":"Sultanpuri B Block SO","district":"NORTH WEST","state":"DELHI","circle":"Delhi Circle","region":"DivReportingCircle"},{"pincode":"110086","office":"Sultanpuri C Block SO","district":"NORTH WEST","state":"DELHI","circle":"Delhi Circle","region":"DivReportingCircle"},{"pincode":"110086","office":"Sultanpuri F Block SO","district":"NORTH WEST","state":"DELHI","circle":"Delhi Circle","region":"DivReportingCircle"},{"pincode":"110052","office":"Wazir Pur III SO","district":"NORTH","state":"DELHI","circle":"Delhi Circle","region":"DivReportingCircle"},{"pincode":"110085","office":"Rohini Sector 16 PO","district":"NORTH WEST","state":"DELHI","circle":"Delhi Circle","region":"DivReportingCircle"},{"pincode":"110006","office":"Dareeba SO","district":"NORTH","state":"DELHI","circle":"Delhi Circle","region":"DivReportingCircle"},{"pincode":"110002","office":"Darya Ganj SO","district":"CENTRAL","state":"DELHI","circle":"Delhi Circle","region":"DivReportingCircle"},{"pincode":"110002","office":"Minto Road SO","district":"CENTRAL","state":"DELHI","circle":"Delhi Circle","region":"DivReportingCircle"},{"pincode":"110001","office":"Election Commission SO","district":"NEW DELHI","state":"DELHI","circle":"Delhi Circle","region":"DivReportingCircle"},{"pincode":"110001","office":"Janpath SO","district":"NEW DELHI","state":"DELHI","circle":"Delhi Circle","region":"DivReportingCircle"},{"pincode":"110001","office":"Parliament House SO","district":"NEW DELHI","state":"DELHI","circle":"Delhi Circle","region":"DivReportingCircle"},{"pincode":"110001","office":"Shastri Bhawan SO","district":"NEW DELHI","state":"DELHI","circle":"Delhi Circle","region":"DivReportingCircle"},{"pincode":"110069","office":"Union Public Service Commission SO","district":"NEW DELHI","state":"DELHI","circle":"Delhi Circle","region":"DivReportingCircle"},{"pincode":"110005","office":"Anand Parbat Indl Area SO","district":"CENTRAL","state":"DELHI","circle":"Delhi Circle","region":"DivReportingCircle"},{"pincode":"110005","office":"Anand Parbat SO","district":"CENTRAL","state":"DELHI","circle":"Delhi Circle","region":"DivReportingCircle"},{"pincode":"110005","office":"Bank Street SO Central Delhi","district":"CENTRAL","state":"DELHI","circle":"Delhi Circle","region":"DivReportingCircle"},{"pincode":"110012","office":"IARI SO","district":"WEST","state":"DELHI","circle":"Delhi Circle","region":"DivReportingCircle"},{"pincode":"110055","office":"Multani Dhanda SO","district":"WEST","state":"DELHI","circle":"Delhi Circle","region":"DivReportingCircle"},{"pincode":"110062","office":"Dakshinpuri PhaseII SO","district":"SOUTH","state":"DELHI","circle":"Delhi Circle","region":"DivReportingCircle"},{"pincode":"110062","office":"Dakshinpuri PhaseIII SO","district":"SOUTH","state":"DELHI","circle":"Delhi Circle","region":"DivReportingCircle"},{"pincode":"110020","office":"F F C Okhla SO","district":"South East","state":"DELHI","circle":"Delhi Circle","region":"DivReportingCircle"},{"pincode":"110080","office":"Khanpur SO South Delhi","district":"SOUTH","state":"DELHI","circle":"Delhi Circle","region":"DivReportingCircle"},{"pincode":"110048","office":"Masjid Moth SO","district":"South East","state":"DELHI","circle":"Delhi Circle","region":"DivReportingCircle"},{"pincode":"110025","office":"New Friends Colony SO","district":"SOUTH","state":"DELHI","circle":"Delhi Circle","region":"DivReportingCircle"},{"pincode":"110044","office":"Tugalkabad Railway Colony SO","district":"South East","state":"DELHI","circle":"Delhi Circle","region":"DivReportingCircle"},{"pincode":"110044","office":"Meethapur SO","district":"South East","state":"DELHI","circle":"Delhi Circle","region":"DivReportingCircle"},{"pincode":"110119","office":"KALKAJI NDC","district":"South East","state":"DELHI","circle":"Delhi Circle","region":"DivReportingCircle"},{"pincode":"110014","office":"Jungpura SO","district":"SOUTH","state":"DELHI","circle":"Delhi Circle","region":"DivReportingCircle"},{"pincode":"110003","office":"Kasturba Nagar SO South Delhi","district":"South East","state":"DELHI","circle":"Delhi Circle","region":"DivReportingCircle"},{"pincode":"110017","office":"Panchsheel Enclave SO","district":"SOUTH","state":"DELHI","circle":"Delhi Circle","region":"DivReportingCircle"},{"pincode":"110049","office":"Sadiq Nagar SO","district":"South East","state":"DELHI","circle":"Delhi Circle","region":"DivReportingCircle"},{"pincode":"110047","office":"Arjungarh SO","district":"SOUTH","state":"DELHI","circle":"Delhi Circle","region":"DivReportingCircle"},{"pincode":"110010","office":"CVD SO","district":"NEW DELHI","state":"DELHI","circle":"Delhi Circle","region":"DivReportingCircle"},{"pincode":"110074","office":"Chattarpur SO","district":"SOUTH","state":"DELHI","circle":"Delhi Circle","region":"DivReportingCircle"},{"pincode":"110016","office":"Green Park Market SO","district":"SOUTH","state":"DELHI","circle":"Delhi Circle","region":"DivReportingCircle"},{"pincode":"110037","office":"IGI Airport SO","district":"NEW DELHI","state":"DELHI","circle":"Delhi Circle","region":"DivReportingCircle"},{"pincode":"110023","office":"Netaji Nagar SO South West Delhi","district":"NEW DELHI","state":"DELHI","circle":"Delhi Circle","region":"DivReportingCircle"},{"pincode":"110016","office":"NIE Campus SO","district":"SOUTH","state":"DELHI","circle":"Delhi Circle","region":"DivReportingCircle"},{"pincode":"110010","office":"Pinto Park SO","district":"NEW DELHI","state":"DELHI","circle":"Delhi Circle","region":"DivReportingCircle"},{"pincode":"110022","office":"R K Puram Sect3 SO","district":"NEW DELHI","state":"DELHI","circle":"Delhi Circle","region":"DivReportingCircle"},{"pincode":"110074","office":"Fatehpur Beri S.O","district":"SOUTH","state":"DELHI","circle":"Delhi Circle","region":"DivReportingCircle"},{"pincode":"110064","office":"Mayapuri Shopping Centre S.O","district":"WEST","state":"DELHI","circle":"Delhi Circle","region":"DivReportingCircle"},{"pincode":"110043","office":"Najafgarh S.O","district":"WEST","state":"DELHI","circle":"Delhi Circle","region":"DivReportingCircle"},{"pincode":"110077","office":"Palam Extn (Harijan Basti) S.O","district":"SOUTH WEST","state":"DELHI","circle":"Delhi Circle","region":"DivReportingCircle"},{"pincode":"110043","office":"Chanchal Park SO","district":"WEST","state":"DELHI","circle":"Delhi Circle","region":"DivReportingCircle"},{"pincode":"110018","office":"Ashok Nagar S.O (West Delhi)","district":"WEST","state":"DELHI","circle":"Delhi Circle","region":"DivReportingCircle"},{"pincode":"110059","office":"D. K. Mohan Garden S.O","district":"WEST","state":"DELHI","circle":"Delhi Circle","region":"DivReportingCircle"},{"pincode":"110058","office":"D.E.S.U. Colony S.O","district":"WEST","state":"DELHI","circle":"Delhi Circle","region":"DivReportingCircle"},{"pincode":"110018","office":"Fateh Nagar S.O","district":"WEST","state":"DELHI","circle":"Delhi Circle","region":"DivReportingCircle"},{"pincode":"110064","office":"Hari Nagar Dadb Block S.O","district":"WEST","state":"DELHI","circle":"Delhi Circle","region":"DivReportingCircle"},{"pincode":"110058","office":"Janakpuri B 1 S.O","district":"WEST","state":"DELHI","circle":"Delhi Circle","region":"DivReportingCircle"},{"pincode":"110018","office":"Khyala Phase    I S.O","district":"WEST","state":"DELHI","circle":"Delhi Circle","region":"DivReportingCircle"},{"pincode":"110018","office":"Mahabir Nagar S.O","district":"WEST","state":"DELHI","circle":"Delhi Circle","region":"DivReportingCircle"},{"pincode":"110041","office":"Nangloi   III S.O","district":"WEST","state":"DELHI","circle":"Delhi Circle","region":"DivReportingCircle"},{"pincode":"110063","office":"Paschim Vihar S.O","district":"WEST","state":"DELHI","circle":"Delhi Circle","region":"DivReportingCircle"},{"pincode":"110027","office":"Subhash Nagar S.O (West Delhi)","district":"WEST","state":"DELHI","circle":"Delhi Circle","region":"DivReportingCircle"},{"pincode":"110041","office":"Kunwar Singh Nagar PO","district":"WEST","state":"DELHI","circle":"Delhi Circle","region":"DivReportingCircle"},{"pincode":"110095","office":"Jhilmil Tahirpur BO","district":"SHAHDARA","state":"DELHI","circle":"Delhi Circle","region":"DivReportingCircle"},{"pincode":"110053","office":"Garhi Mandu BO","district":"NORTH EAST","state":"DELHI","circle":"Delhi Circle","region":"DivReportingCircle"},{"pincode":"110084","office":"Jharoda Majraa BO","district":"NORTH","state":"DELHI","circle":"Delhi Circle","region":"DivReportingCircle"},{"pincode":"110036","office":"Palla BO","district":"NORTH","state":"DELHI","circle":"Delhi Circle","region":"DivReportingCircle"},{"pincode":"110039","office":"Katewara BO","district":"NORTH","state":"DELHI","circle":"Delhi Circle","region":"DivReportingCircle"},{"pincode":"110039","office":"Mungeshpur BO","district":"NORTH","state":"DELHI","circle":"Delhi Circle","region":"DivReportingCircle"},{"pincode":"110081","office":"Majra Dabas BO","district":"NORTH WEST","state":"DELHI","circle":"Delhi Circle","region":"DivReportingCircle"},{"pincode":"110082","office":"Holambi Kalan BO","district":"NORTH","state":"DELHI","circle":"Delhi Circle","region":"DivReportingCircle"},{"pincode":"110085","office":"Rithala BO","district":"NORTH WEST","state":"DELHI","circle":"Delhi Circle","region":"DivReportingCircle"},{"pincode":"110044","office":"Jaitpur BO","district":"SOUTH","state":"DELHI","circle":"Delhi Circle","region":"DivReportingCircle"},{"pincode":"110044","office":"Molarband BO","district":"SOUTH","state":"DELHI","circle":"Delhi Circle","region":"DivReportingCircle"},{"pincode":"110044","office":"Lal Kuan BO","district":"SOUTH","state":"DELHI","circle":"Delhi Circle","region":"DivReportingCircle"},{"pincode":"110080","office":"Deoli BO","district":"SOUTH","state":"DELHI","circle":"Delhi Circle","region":"DivReportingCircle"},{"pincode":"110074","office":"Satbari","district":"SOUTH","state":"DELHI","circle":"Delhi Circle","region":"DivReportingCircle"},{"pincode":"110071","office":"Badusarai B.O","district":"SOUTH WEST","state":"DELHI","circle":"Delhi Circle","region":"DivReportingCircle"},{"pincode":"110075","office":"Amberhai B.O","district":"SOUTH WEST","state":"DELHI","circle":"Delhi Circle","region":"DivReportingCircle"},{"pincode":"110043","office":"Daulatpur B.O","district":"WEST","state":"DELHI","circle":"Delhi Circle","region":"DivReportingCircle"},{"pincode":"110043","office":"Dichaun Kalan B.O","district":"WEST","state":"DELHI","circle":"Delhi Circle","region":"DivReportingCircle"},{"pincode":"110073","office":"Ghuman Hera B.O","district":"SOUTH WEST","state":"DELHI","circle":"Delhi Circle","region":"DivReportingCircle"},{"pincode":"110073","office":"Jafarpur B.O","district":"SOUTH WEST","state":"DELHI","circle":"Delhi Circle","region":"DivReportingCircle"},{"pincode":"110041","office":"Nangloi   II B.O","district":"WEST","state":"DELHI","circle":"Delhi Circle","region":"DivReportingCircle"},{"pincode":"110059","office":"Jeevan Park B.O","district":"WEST","state":"DELHI","circle":"Delhi Circle","region":"DivReportingCircle"},{"pincode":"110051","office":"Krishna Nagar HO","district":"SHAHDARA","state":"DELHI","circle":"Delhi Circle","region":"DivReportingCircle"},{"pincode":"110052","office":"Ashok Vihar HO","district":"NORTH","state":"DELHI","circle":"Delhi Circle","region":"DivReportingCircle"},{"pincode":"110032","office":"Loni Road SO","district":"SHAHDARA","state":"DELHI","circle":"Delhi Circle","region":"DivReportingCircle"},{"pincode":"110092","office":"Anand Vihar SO","district":"EAST","state":"DELHI","circle":"Delhi Circle","region":"DivReportingCircle"},{"pincode":"110091","office":"Himmatpuri SO","district":"EAST","state":"DELHI","circle":"Delhi Circle","region":"DivReportingCircle"},{"pincode":"110092","office":"Mandawali Fazalpur SO","district":"EAST","state":"DELHI","circle":"Delhi Circle","region":"DivReportingCircle"},{"pincode":"110031","office":"Rajgarh Colony SO","district":"EAST","state":"DELHI","circle":"Delhi Circle","region":"DivReportingCircle"},{"pincode":"110091","office":"Trilok Puri SO","district":"EAST","state":"DELHI","circle":"Delhi Circle","region":"DivReportingCircle"},{"pincode":"110095","office":"Vishwakarma Nagar SO","district":"SHAHDARA","state":"DELHI","circle":"Delhi Circle","region":"DivReportingCircle"},{"pincode":"110032","office":"Vishwas Nagar SO","district":"SHAHDARA","state":"DELHI","circle":"Delhi Circle","region":"DivReportingCircle"},{"pincode":"110054","office":"Aruna Nagar SO","district":"CENTRAL","state":"DELHI","circle":"Delhi Circle","region":"DivReportingCircle"},{"pincode":"110006","office":"Delhi Sadar Bazar SO","district":"NORTH","state":"DELHI","circle":"Delhi Circle","region":"DivReportingCircle"},{"pincode":"110007","office":"Padam Nagar SO North Delhi","district":"NORTH","state":"DELHI","circle":"Delhi Circle","region":"DivReportingCircle"},{"pincode":"110054","office":"Timarpur SO","district":"CENTRAL","state":"DELHI","circle":"Delhi Circle","region":"DivReportingCircle"},{"pincode":"110106","office":"DELHI GPO NDC","district":"NORTH","state":"DELHI","circle":"Delhi Circle","region":"DivReportingCircle"},{"pincode":"110034","office":"Anandvas Shakurpur SO","district":"NORTH WEST","state":"DELHI","circle":"Delhi Circle","region":"DivReportingCircle"},{"pincode":"110042","office":"Badli SO North West Delhi","district":"NORTH WEST","state":"DELHI","circle":"Delhi Circle","region":"DivReportingCircle"},{"pincode":"110042","office":"Delhi Engg College SO","district":"NORTH WEST","state":"DELHI","circle":"Delhi Circle","region":"DivReportingCircle"},{"pincode":"110009","office":"DrMukerjee Nagar SO","district":"NORTH","state":"DELHI","circle":"Delhi Circle","region":"DivReportingCircle"},{"pincode":"110009","office":"Gujranwala Colony SO","district":"NORTH WEST","state":"DELHI","circle":"Delhi Circle","region":"DivReportingCircle"},{"pincode":"110083","office":"Mangolpuri N Block SO","district":"NORTH WEST","state":"DELHI","circle":"Delhi Circle","region":"DivReportingCircle"},{"pincode":"110083","office":"Mangolpuri S Block SO","district":"NORTH WEST","state":"DELHI","circle":"Delhi Circle","region":"DivReportingCircle"},{"pincode":"110009","office":"Nirankari Colony SO","district":"NORTH","state":"DELHI","circle":"Delhi Circle","region":"DivReportingCircle"},{"pincode":"110089","office":"Rohini Sector 15 SO","district":"NORTH WEST","state":"DELHI","circle":"Delhi Circle","region":"DivReportingCircle"},{"pincode":"110056","office":"Shakur Basti Depot SO","district":"NORTH WEST","state":"DELHI","circle":"Delhi Circle","region":"DivReportingCircle"},{"pincode":"110034","office":"Shakurbasti Rs SO","district":"NORTH WEST","state":"DELHI","circle":"Delhi Circle","region":"DivReportingCircle"},{"pincode":"110040","office":"Sannoth SO","district":"NORTH","state":"DELHI","circle":"Delhi Circle","region":"DivReportingCircle"},{"pincode":"110040","office":"NARELA TOWN","district":"NORTH","state":"DELHI","circle":"Delhi Circle","region":"DivReportingCircle"},{"pincode":"110006","office":"Baratooti SO","district":"NORTH","state":"DELHI","circle":"Delhi Circle","region":"DivReportingCircle"},{"pincode":"110006","office":"Chandni Chowk SO","district":"NORTH","state":"DELHI","circle":"Delhi Circle","region":"DivReportingCircle"},{"pincode":"110003","office":"Delhi High Court SO","district":"NEW DELHI","state":"DELHI","circle":"Delhi Circle","region":"DivReportingCircle"},{"pincode":"110002","office":"Gandhi Smarak Nidhi SO","district":"CENTRAL","state":"DELHI","circle":"Delhi Circle","region":"DivReportingCircle"},{"pincode":"110001","office":"Pragati Maidan SO","district":"NEW DELHI","state":"DELHI","circle":"Delhi Circle","region":"DivReportingCircle"},{"pincode":"110001","office":"NGT EXTENSION COUNTER","district":"NEW DELHI","state":"DELHI","circle":"Delhi Circle","region":"DivReportingCircle"},{"pincode":"110001","office":"North Avenue SO","district":"NEW DELHI","state":"DELHI","circle":"Delhi Circle","region":"DivReportingCircle"},{"pincode":"110005","office":"Master Prithvi Nath Marg SO","district":"CENTRAL","state":"DELHI","circle":"Delhi Circle","region":"DivReportingCircle"},{"pincode":"110012","office":"National Physical Laboratory SO","district":"WEST","state":"DELHI","circle":"Delhi Circle","region":"DivReportingCircle"},{"pincode":"110008","office":"Patel Nagar SO Central Delhi","district":"WEST","state":"DELHI","circle":"Delhi Circle","region":"DivReportingCircle"},{"pincode":"110060","office":"Rajender Nagar SO","district":"CENTRAL","state":"DELHI","circle":"Delhi Circle","region":"DivReportingCircle"},{"pincode":"110001","office":"RML EXTN COUNTER NDHO","district":"NEW DELHI","state":"DELHI","circle":"Delhi Circle","region":"DivReportingCircle"},{"pincode":"110080","office":"BSF Camp Tigri SO","district":"SOUTH","state":"DELHI","circle":"Delhi Circle","region":"DivReportingCircle"},{"pincode":"110020","office":"C R R I SO South Delhi","district":"South East","state":"DELHI","circle":"Delhi Circle","region":"DivReportingCircle"},{"pincode":"110044","office":"Jaitpur SO South Delhi","district":"South East","state":"DELHI","circle":"Delhi Circle","region":"DivReportingCircle"},{"pincode":"110019","office":"Nehru Place SO","district":"South East","state":"DELHI","circle":"Delhi Circle","region":"DivReportingCircle"},{"pincode":"110020","office":"Okhla Industrial Area Phasei SO","district":"South East","state":"DELHI","circle":"Delhi Circle","region":"DivReportingCircle"},{"pincode":"110076","office":"Sarita Vihar SO","district":"SOUTH","state":"DELHI","circle":"Delhi Circle","region":"DivReportingCircle"},{"pincode":"110025","office":"Zakir Nagar SO","district":"South East","state":"DELHI","circle":"Delhi Circle","region":"DivReportingCircle"},{"pincode":"110049","office":"Gulmohar Park SO","district":"South East","state":"DELHI","circle":"Delhi Circle","region":"DivReportingCircle"},{"pincode":"110024","office":"Krishna Market SO","district":"South East","state":"DELHI","circle":"Delhi Circle","region":"DivReportingCircle"},{"pincode":"110065","office":"Sant Nagar SO South Delhi","district":"South East","state":"DELHI","circle":"Delhi Circle","region":"DivReportingCircle"},{"pincode":"110017","office":"South Malviya Nagar SO","district":"SOUTH","state":"DELHI","circle":"Delhi Circle","region":"DivReportingCircle"},{"pincode":"110065","office":"Sriniwaspuri SO","district":"SOUTH","state":"DELHI","circle":"Delhi Circle","region":"DivReportingCircle"},{"pincode":"110029","office":"Ansari Nagar SO","district":"SOUTH","state":"DELHI","circle":"Delhi Circle","region":"DivReportingCircle"},{"pincode":"110010","office":"Dhaula Kuan SO","district":"NEW DELHI","state":"DELHI","circle":"Delhi Circle","region":"DivReportingCircle"},{"pincode":"110016","office":"Hauz Khas SO","district":"SOUTH","state":"DELHI","circle":"Delhi Circle","region":"DivReportingCircle"},{"pincode":"110016","office":"IT Hauz Khas SO","district":"SOUTH","state":"DELHI","circle":"Delhi Circle","region":"DivReportingCircle"},{"pincode":"110023","office":"Kidwai Nagar West SO","district":"NEW DELHI","state":"DELHI","circle":"Delhi Circle","region":"DivReportingCircle"},{"pincode":"110021","office":"Malcha Marg SO","district":"NEW DELHI","state":"DELHI","circle":"Delhi Circle","region":"DivReportingCircle"},{"pincode":"110030","office":"Paryavaran Complex SO","district":"SOUTH","state":"DELHI","circle":"Delhi Circle","region":"DivReportingCircle"},{"pincode":"110066","office":"R K Puram Main SO","district":"NEW DELHI","state":"DELHI","circle":"Delhi Circle","region":"DivReportingCircle"},{"pincode":"110022","office":"R K Puram Sect4 SO","district":"NEW DELHI","state":"DELHI","circle":"Delhi Circle","region":"DivReportingCircle"},{"pincode":"110022","office":"R K Puram Sect8 SO","district":"NEW DELHI","state":"DELHI","circle":"Delhi Circle","region":"DivReportingCircle"},{"pincode":"110021","office":"South Delhi Campus SO","district":"NEW DELHI","state":"DELHI","circle":"Delhi Circle","region":"DivReportingCircle"},{"pincode":"110010","office":"Station Road SO South West Delhi","district":"NEW DELHI","state":"DELHI","circle":"Delhi Circle","region":"DivReportingCircle"},{"pincode":"110072","office":"CRPF Jharoda Kalan S.O","district":"SOUTH WEST","state":"DELHI","circle":"Delhi Circle","region":"DivReportingCircle"},{"pincode":"110075","office":"District Court Complex Dwarka S.O","district":"SOUTH WEST","state":"DELHI","circle":"Delhi Circle","region":"DivReportingCircle"},{"pincode":"110075","office":"Dwarka Sec-6 S.O","district":"SOUTH WEST","state":"DELHI","circle":"Delhi Circle","region":"DivReportingCircle"},{"pincode":"110064","office":"Maya Puri S.O","district":"WEST","state":"DELHI","circle":"Delhi Circle","region":"DivReportingCircle"},{"pincode":"110046","office":"Nangal Raya S.O","district":"NEW DELHI","state":"DELHI","circle":"Delhi Circle","region":"DivReportingCircle"},{"pincode":"110078","office":"GGSIP University S.O","district":"SOUTH WEST","state":"DELHI","circle":"Delhi Circle","region":"DivReportingCircle"},{"pincode":"110073","office":"Dhansa S.O","district":"SOUTH WEST","state":"DELHI","circle":"Delhi Circle","region":"DivReportingCircle"},{"pincode":"110071","office":"Qutub Vihar SO","district":"SOUTH WEST","state":"DELHI","circle":"Delhi Circle","region":"DivReportingCircle"},{"pincode":"110043","office":"Arjun Park PO","district":"WEST","state":"DELHI","circle":"Delhi Circle","region":"DivReportingCircle"},{"pincode":"110026","office":"Ashoka Park Extn. S.O","district":"WEST","state":"DELHI","circle":"Delhi Circle","region":"DivReportingCircle"},{"pincode":"110064","office":"Hari Nagar S.O (West Delhi)","district":"WEST","state":"DELHI","circle":"Delhi Circle","region":"DivReportingCircle"},{"pincode":"110058","office":"Jail Road S.O (West Delhi)","district":"WEST","state":"DELHI","circle":"Delhi Circle","region":"DivReportingCircle"},{"pincode":"110058","office":"Janakpuri C 4 S.O","district":"WEST","state":"DELHI","circle":"Delhi Circle","region":"DivReportingCircle"},{"pincode":"110063","office":"Madipur Slum Quarter S.O","district":"WEST","state":"DELHI","circle":"Delhi Circle","region":"DivReportingCircle"},{"pincode":"110041","office":"Nangloi S.O","district":"WEST","state":"DELHI","circle":"Delhi Circle","region":"DivReportingCircle"},{"pincode":"110026","office":"Shivaji Park S.O (West Delhi)","district":"WEST","state":"DELHI","circle":"Delhi Circle","region":"DivReportingCircle"},{"pincode":"110087","office":"Sunder Vihar S.O","district":"WEST","state":"DELHI","circle":"Delhi Circle","region":"DivReportingCircle"},{"pincode":"110027","office":"Tagore Garden S.O","district":"WEST","state":"DELHI","circle":"Delhi Circle","region":"DivReportingCircle"},{"pincode":"110059","office":"Sanjay Enclave PO","district":"WEST","state":"DELHI","circle":"Delhi Circle","region":"DivReportingCircle"},{"pincode":"110059","office":"K5 Extn. Mohan Garden","district":"WEST","state":"DELHI","circle":"Delhi Circle","region":"DivReportingCircle"},{"pincode":"110018","office":"NDC TILAK NAGAR","district":"WEST","state":"DELHI","circle":"Delhi Circle","region":"DivReportingCircle"}]