[{"pincode":"403702","office":"Bhatpal B.O","district":"SOUTH GOA","state":"GOA","circle":"Maharashtra Circle","region":"Goa-Panaji Region"},{"pincode":"403702","office":"Cola B.O","district":"SOUTH GOA","state":"GOA","circle":"Maharashtra Circle","region":"Goa-Panaji Region"},{"pincode":"403708","office":"Seraulim B.O","district":"SOUTH GOA","state":"GOA","circle":"Maharashtra Circle","region":"Goa-Panaji Region"},{"pincode":"403710","office":"Thana B.O","district":"SOUTH GOA","state":"GOA","circle":"Maharashtra Circle","region":"Goa-Panaji Region"},{"pincode":"403703","office":"Balli B.O","district":"SOUTH GOA","state":"GOA","circle":"Maharashtra Circle","region":"Goa-Panaji Region"},{"pincode":"403703","office":"Cananguinim B.O","district":"SOUTH GOA","state":"GOA","circle":"Maharashtra Circle","region":"Goa-Panaji Region"},{"pincode":"403703","office":"Morpirla B.O","district":"SOUTH GOA","state":"GOA","circle":"Maharashtra Circle","region":"Goa-Panaji Region"},{"pincode":"403728","office":"Loliem Polem B.O","district":"SOUTH GOA","state":"GOA","circle":"Maharashtra Circle","region":"Goa-Panaji Region"},{"pincode":"403718","office":"Camurlim B.O","district":"SOUTH GOA","state":"GOA","circle":"Maharashtra Circle","region":"Goa-Panaji Region"},{"pincode":"403713","office":"Utorda B.O","district":"SOUTH GOA","state":"GOA","circle":"Maharashtra Circle","region":"Goa-Panaji Region"},{"pincode":"403705","office":"Avedem B.O","district":"SOUTH GOA","state":"GOA","circle":"Maharashtra Circle","region":"Goa-Panaji Region"},{"pincode":"403705","office":"Rivona B.O","district":"SOUTH GOA","state":"GOA","circle":"Maharashtra Circle","region":"Goa-Panaji Region"},{"pincode":"403704","office":"Bati B.O","district":"SOUTH GOA","state":"GOA","circle":"Maharashtra Circle","region":"Goa-Panaji Region"},{"pincode":"403704","office":"Calem B.O","district":"SOUTH GOA","state":"GOA","circle":"Maharashtra Circle","region":"Goa-Panaji Region"},{"pincode":"403704","office":"Curdi B.O","district":"SOUTH GOA","state":"GOA","circle":"Maharashtra Circle","region":"Goa-Panaji Region"},{"pincode":"403704","office":"Molcarnem B.O","district":"SOUTH GOA","state":"GOA","circle":"Maharashtra Circle","region":"Goa-Panaji Region"},{"pincode":"403704","office":"Netorlim B.O","district":"SOUTH GOA","state":"GOA","circle":"Maharashtra Circle","region":"Goa-Panaji Region"},{"pincode":"403508","office":"Nachinola B.O","district":"NORTH GOA","state":"GOA","circle":"Maharashtra Circle","region":"Goa-Panaji Region"},{"pincode":"403503","office":"Ibrampur B.O","district":"NORTH GOA","state":"GOA","circle":"Maharashtra Circle","region":"Goa-Panaji Region"},{"pincode":"403503","office":"Salem B.O","district":"NORTH GOA","state":"GOA","circle":"Maharashtra Circle","region":"Goa-Panaji Region"},{"pincode":"403101","office":"Salvador Do Mundo B.O","district":"NORTH GOA","state":"GOA","circle":"Maharashtra Circle","region":"Goa-Panaji Region"},{"pincode":"403513","office":"Dhargalim B.O","district":"NORTH GOA","state":"GOA","circle":"Maharashtra Circle","region":"Goa-Panaji Region"},{"pincode":"403513","office":"Revora B.O","district":"NORTH GOA","state":"GOA","circle":"Maharashtra Circle","region":"Goa-Panaji Region"},{"pincode":"403507","office":"Moira B.O","district":"NORTH GOA","state":"GOA","circle":"Maharashtra Circle","region":"Goa-Panaji Region"},{"pincode":"403404","office":"Marcaim B.O","district":"SOUTH GOA","state":"GOA","circle":"Maharashtra Circle","region":"Goa-Panaji Region"},{"pincode":"403004","office":"Matri Indian Antartic Station","district":"NORTH GOA","state":"GOA","circle":"Maharashtra Circle","region":"Goa-Panaji Region"},{"pincode":"403530","office":"Pissurlem B.O","district":"NORTH GOA","state":"GOA","circle":"Maharashtra Circle","region":"Goa-Panaji Region"},{"pincode":"403512","office":"Corgao B.O","district":"NORTH GOA","state":"GOA","circle":"Maharashtra Circle","region":"Goa-Panaji Region"},{"pincode":"403512","office":"Nagzar B.O","district":"NORTH GOA","state":"GOA","circle":"Maharashtra Circle","region":"Goa-Panaji Region"},{"pincode":"403511","office":"Sem Saligao B.O","district":"NORTH GOA","state":"GOA","circle":"Maharashtra Circle","region":"Goa-Panaji Region"},{"pincode":"403505","office":"Morlem B.O","district":"NORTH GOA","state":"GOA","circle":"Maharashtra Circle","region":"Goa-Panaji Region"},{"pincode":"403406","office":"Darbandora B.O","district":"SOUTH GOA","state":"GOA","circle":"Maharashtra Circle","region":"Goa-Panaji Region"},{"pincode":"403406","office":"Pillem B.O","district":"SOUTH GOA","state":"GOA","circle":"Maharashtra Circle","region":"Goa-Panaji Region"},{"pincode":"403406","office":"Usgao B.O","district":"SOUTH GOA","state":"GOA","circle":"Maharashtra Circle","region":"Goa-Panaji Region"},{"pincode":"403506","office":"Sanvordem B.O","district":"NORTH GOA","state":"GOA","circle":"Maharashtra Circle","region":"Goa-Panaji Region"},{"pincode":"403506","office":"Velguem O B.O","district":"NORTH GOA","state":"GOA","circle":"Maharashtra Circle","region":"Goa-Panaji Region"},{"pincode":"403731","office":"Cavelossim S.O","district":"SOUTH GOA","state":"GOA","circle":"Maharashtra Circle","region":"Goa-Panaji Region"},{"pincode":"403715","office":"Chinchinim S.O","district":"SOUTH GOA","state":"GOA","circle":"Maharashtra Circle","region":"Goa-Panaji Region"},{"pincode":"403601","office":"South Goa Collectorate SO","district":"SOUTH GOA","state":"GOA","circle":"Maharashtra Circle","region":"Goa-Panaji Region"},{"pincode":"403729","office":"Navelim Camp S.O","district":"SOUTH GOA","state":"GOA","circle":"Maharashtra Circle","region":"Goa-Panaji Region"},{"pincode":"403724","office":"Orlim S.O","district":"SOUTH GOA","state":"GOA","circle":"Maharashtra Circle","region":"Goa-Panaji Region"},{"pincode":"403720","office":"Raia S.O","district":"SOUTH GOA","state":"GOA","circle":"Maharashtra Circle","region":"Goa-Panaji Region"},{"pincode":"403802","office":"Vaddem S.O","district":"SOUTH GOA","state":"GOA","circle":"Maharashtra Circle","region":"Goa-Panaji Region"},{"pincode":"403802","office":"Vademnagar S.O","district":"SOUTH GOA","state":"GOA","circle":"Maharashtra Circle","region":"Goa-Panaji Region"},{"pincode":"403509","office":"Anjuna S.O","district":"NORTH GOA","state":"GOA","circle":"Maharashtra Circle","region":"Goa-Panaji Region"},{"pincode":"403513","office":"Colvale S.O","district":"NORTH GOA","state":"GOA","circle":"Maharashtra Circle","region":"Goa-Panaji Region"},{"pincode":"403115","office":"Cundaim I.E. S.O","district":"SOUTH GOA","state":"GOA","circle":"Maharashtra Circle","region":"Goa-Panaji Region"},{"pincode":"403206","office":"Goa University S.O","district":"NORTH GOA","state":"GOA","circle":"Maharashtra Circle","region":"Goa-Panaji Region"},{"pincode":"403105","office":"Pale S.O","district":"NORTH GOA","state":"GOA","circle":"Maharashtra Circle","region":"Goa-Panaji Region"},{"pincode":"403510","office":"Parra S.O","district":"NORTH GOA","state":"GOA","circle":"Maharashtra Circle","region":"Goa-Panaji Region"},{"pincode":"403203","office":"Pilar S.O (North Goa)","district":"NORTH GOA","state":"GOA","circle":"Maharashtra Circle","region":"Goa-Panaji Region"},{"pincode":"403511","office":"Saligao S.O","district":"NORTH GOA","state":"GOA","circle":"Maharashtra Circle","region":"Goa-Panaji Region"},{"pincode":"403106","office":"Sant Estevam S.O","district":"NORTH GOA","state":"GOA","circle":"Maharashtra Circle","region":"Goa-Panaji Region"},{"pincode":"403103","office":"Shiroda S.O (South Goa)","district":"SOUTH GOA","state":"GOA","circle":"Maharashtra Circle","region":"Goa-Panaji Region"},{"pincode":"403506","office":"Valpoi S.O","district":"NORTH GOA","state":"GOA","circle":"Maharashtra Circle","region":"Goa-Panaji Region"},{"pincode":"403601","office":"Margao H.O","district":"SOUTH GOA","state":"GOA","circle":"Maharashtra Circle","region":"Goa-Panaji Region"},{"pincode":"403702","office":"Agonda B.O","district":"SOUTH GOA","state":"GOA","circle":"Maharashtra Circle","region":"Goa-Panaji Region"},{"pincode":"403703","office":"Barcem B.O","district":"SOUTH GOA","state":"GOA","circle":"Maharashtra Circle","region":"Goa-Panaji Region"},{"pincode":"403709","office":"Macazana B.O","district":"SOUTH GOA","state":"GOA","circle":"Maharashtra Circle","region":"Goa-Panaji Region"},{"pincode":"403713","office":"Betalbhatim B.O","district":"SOUTH GOA","state":"GOA","circle":"Maharashtra Circle","region":"Goa-Panaji Region"},{"pincode":"403704","office":"Ugvem B.O","district":"SOUTH GOA","state":"GOA","circle":"Maharashtra Circle","region":"Goa-Panaji Region"},{"pincode":"403723","office":"Ambelim B.O","district":"SOUTH GOA","state":"GOA","circle":"Maharashtra Circle","region":"Goa-Panaji Region"},{"pincode":"403723","office":"ONGC Ipsem Betul B.O","district":"SOUTH GOA","state":"GOA","circle":"Maharashtra Circle","region":"Goa-Panaji Region"},{"pincode":"403508","office":"Corjuem B.O","district":"NORTH GOA","state":"GOA","circle":"Maharashtra Circle","region":"Goa-Panaji Region"},{"pincode":"403509","office":"Caisua B.O","district":"NORTH GOA","state":"GOA","circle":"Maharashtra Circle","region":"Goa-Panaji Region"},{"pincode":"403504","office":"Mauliguem B.O","district":"NORTH GOA","state":"GOA","circle":"Maharashtra Circle","region":"Goa-Panaji Region"},{"pincode":"403504","office":"Pilgao B.O","district":"NORTH GOA","state":"GOA","circle":"Maharashtra Circle","region":"Goa-Panaji Region"},{"pincode":"403513","office":"Menkurem B.O","district":"NORTH GOA","state":"GOA","circle":"Maharashtra Circle","region":"Goa-Panaji Region"},{"pincode":"403110","office":"Carambolim B.O","district":"NORTH GOA","state":"GOA","circle":"Maharashtra Circle","region":"Goa-Panaji Region"},{"pincode":"403108","office":"Siridao B.O","district":"NORTH GOA","state":"GOA","circle":"Maharashtra Circle","region":"Goa-Panaji Region"},{"pincode":"403507","office":"Bastora B.O","district":"NORTH GOA","state":"GOA","circle":"Maharashtra Circle","region":"Goa-Panaji Region"},{"pincode":"403507","office":"Gurim B.O","district":"NORTH GOA","state":"GOA","circle":"Maharashtra Circle","region":"Goa-Panaji Region"},{"pincode":"403530","office":"Advoi B.O","district":"NORTH GOA","state":"GOA","circle":"Maharashtra Circle","region":"Goa-Panaji Region"},{"pincode":"403517","office":"Parxem B.O","district":"NORTH GOA","state":"GOA","circle":"Maharashtra Circle","region":"Goa-Panaji Region"},{"pincode":"403512","office":"Virnora B.O","district":"NORTH GOA","state":"GOA","circle":"Maharashtra Circle","region":"Goa-Panaji Region"},{"pincode":"403401","office":"Bandora B.O","district":"SOUTH GOA","state":"GOA","circle":"Maharashtra Circle","region":"Goa-Panaji Region"},{"pincode":"403401","office":"Quela B.O","district":"SOUTH GOA","state":"GOA","circle":"Maharashtra Circle","region":"Goa-Panaji Region"},{"pincode":"403401","office":"Querim B.O","district":"SOUTH GOA","state":"GOA","circle":"Maharashtra Circle","region":"Goa-Panaji Region"},{"pincode":"403006","office":"Chimbel B.O","district":"NORTH GOA","state":"GOA","circle":"Maharashtra Circle","region":"Goa-Panaji Region"},{"pincode":"403505","office":"Querim B.O","district":"NORTH GOA","state":"GOA","circle":"Maharashtra Circle","region":"Goa-Panaji Region"},{"pincode":"403103","office":"Tarvalem B.O","district":"SOUTH GOA","state":"GOA","circle":"Maharashtra Circle","region":"Goa-Panaji Region"},{"pincode":"403506","office":"Birondem B.O","district":"NORTH GOA","state":"GOA","circle":"Maharashtra Circle","region":"Goa-Panaji Region"},{"pincode":"403506","office":"Nanorem B.O","district":"NORTH GOA","state":"GOA","circle":"Maharashtra Circle","region":"Goa-Panaji Region"},{"pincode":"403001","office":"Panaji H.O","district":"NORTH GOA","state":"GOA","circle":"Maharashtra Circle","region":"Goa-Panaji Region"},{"pincode":"403801","office":"A.P.Dabolim S.O","district":"SOUTH GOA","state":"GOA","circle":"Maharashtra Circle","region":"Goa-Panaji Region"},{"pincode":"403801","office":"A.P.Terminal S.O","district":"SOUTH GOA","state":"GOA","circle":"Maharashtra Circle","region":"Goa-Panaji Region"},{"pincode":"403601","office":"Aquem S.O","district":"SOUTH GOA","state":"GOA","circle":"Maharashtra Circle","region":"Goa-Panaji Region"},{"pincode":"403701","office":"Assolna S.O","district":"SOUTH GOA","state":"GOA","circle":"Maharashtra Circle","region":"Goa-Panaji Region"},{"pincode":"403712","office":"Cansaulim S.O","district":"SOUTH GOA","state":"GOA","circle":"Maharashtra Circle","region":"Goa-Panaji Region"},{"pincode":"403711","office":"Chicalim S.O","district":"SOUTH GOA","state":"GOA","circle":"Maharashtra Circle","region":"Goa-Panaji Region"},{"pincode":"403708","office":"Colva S.O","district":"SOUTH GOA","state":"GOA","circle":"Maharashtra Circle","region":"Goa-Panaji Region"},{"pincode":"403725","office":"Dramapur S.O","district":"SOUTH GOA","state":"GOA","circle":"Maharashtra Circle","region":"Goa-Panaji Region"},{"pincode":"403728","office":"Loliem S.O","district":"SOUTH GOA","state":"GOA","circle":"Maharashtra Circle","region":"Goa-Panaji Region"},{"pincode":"403723","office":"Velim S.O","district":"SOUTH GOA","state":"GOA","circle":"Maharashtra Circle","region":"Goa-Panaji Region"},{"pincode":"403524","office":"Arambol S.O","district":"NORTH GOA","state":"GOA","circle":"Maharashtra Circle","region":"Goa-Panaji Region"},{"pincode":"403001","office":"C.C.Altinho S.O","district":"NORTH GOA","state":"GOA","circle":"Maharashtra Circle","region":"Goa-Panaji Region"},{"pincode":"403516","office":"Calangute S.O","district":"NORTH GOA","state":"GOA","circle":"Maharashtra Circle","region":"Goa-Panaji Region"},{"pincode":"403102","office":"Chorao S.O","district":"NORTH GOA","state":"GOA","circle":"Maharashtra Circle","region":"Goa-Panaji Region"},{"pincode":"403107","office":"Marcela S.O","district":"SOUTH GOA","state":"GOA","circle":"Maharashtra Circle","region":"Goa-Panaji Region"},{"pincode":"403404","office":"Mardol S.O","district":"SOUTH GOA","state":"GOA","circle":"Maharashtra Circle","region":"Goa-Panaji Region"},{"pincode":"403004","office":"Nio Dona Paula S.O","district":"NORTH GOA","state":"GOA","circle":"Maharashtra Circle","region":"Goa-Panaji Region"},{"pincode":"403530","office":"Onda I.E. S.O","district":"NORTH GOA","state":"GOA","circle":"Maharashtra Circle","region":"Goa-Panaji Region"},{"pincode":"403401","office":"Ponda S.O","district":"SOUTH GOA","state":"GOA","circle":"Maharashtra Circle","region":"Goa-Panaji Region"},{"pincode":"403114","office":"Reis Magos S.O","district":"NORTH GOA","state":"GOA","circle":"Maharashtra Circle","region":"Goa-Panaji Region"},{"pincode":"403521","office":"Secretariat S.O (North Goa)","district":"NORTH GOA","state":"GOA","circle":"Maharashtra Circle","region":"Goa-Panaji Region"},{"pincode":"403001","office":"St Inez S.O","district":"NORTH GOA","state":"GOA","circle":"Maharashtra Circle","region":"Goa-Panaji Region"},{"pincode":"403001","office":"Tapal Bhavan","district":"NORTH GOA","state":"GOA","circle":"Maharashtra Circle","region":"Goa-Panaji Region"},{"pincode":"403713","office":"Nuvem B.O","district":"SOUTH GOA","state":"GOA","circle":"Maharashtra Circle","region":"Goa-Panaji Region"},{"pincode":"403702","office":"Palolem B.O","district":"SOUTH GOA","state":"GOA","circle":"Maharashtra Circle","region":"Goa-Panaji Region"},{"pincode":"403702","office":"Poinguinim B.O","district":"SOUTH GOA","state":"GOA","circle":"Maharashtra Circle","region":"Goa-Panaji Region"},{"pincode":"403714","office":"Cavorim B.O","district":"SOUTH GOA","state":"GOA","circle":"Maharashtra Circle","region":"Goa-Panaji Region"},{"pincode":"403710","office":"Sancoale B.O","district":"SOUTH GOA","state":"GOA","circle":"Maharashtra Circle","region":"Goa-Panaji Region"},{"pincode":"403707","office":"Talaulim B.O","district":"SOUTH GOA","state":"GOA","circle":"Maharashtra Circle","region":"Goa-Panaji Region"},{"pincode":"403705","office":"Sirvoi B.O","district":"SOUTH GOA","state":"GOA","circle":"Maharashtra Circle","region":"Goa-Panaji Region"},{"pincode":"403704","office":"Valkini B.O","district":"SOUTH GOA","state":"GOA","circle":"Maharashtra Circle","region":"Goa-Panaji Region"},{"pincode":"403723","office":"Betul B.O","district":"SOUTH GOA","state":"GOA","circle":"Maharashtra Circle","region":"Goa-Panaji Region"},{"pincode":"403506","office":"Satrem B.O","district":"NORTH GOA","state":"GOA","circle":"Maharashtra Circle","region":"Goa-Panaji Region"},{"pincode":"403705","office":"Cavorem B.O","district":"SOUTH GOA","state":"GOA","circle":"Maharashtra Circle","region":"Goa-Panaji Region"},{"pincode":"403524","office":"Querim B.O","district":"NORTH GOA","state":"GOA","circle":"Maharashtra Circle","region":"Goa-Panaji Region"},{"pincode":"403524","office":"Quiranpani B.O","district":"NORTH GOA","state":"GOA","circle":"Maharashtra Circle","region":"Goa-Panaji Region"},{"pincode":"403503","office":"Advalpal B.O","district":"NORTH GOA","state":"GOA","circle":"Maharashtra Circle","region":"Goa-Panaji Region"},{"pincode":"403503","office":"Sirgao B.O","district":"NORTH GOA","state":"GOA","circle":"Maharashtra Circle","region":"Goa-Panaji Region"},{"pincode":"403504","office":"Mayem B.O","district":"NORTH GOA","state":"GOA","circle":"Maharashtra Circle","region":"Goa-Panaji Region"},{"pincode":"403515","office":"Saipem B.O","district":"NORTH GOA","state":"GOA","circle":"Maharashtra Circle","region":"Goa-Panaji Region"},{"pincode":"403513","office":"Pirna B.O","district":"NORTH GOA","state":"GOA","circle":"Maharashtra Circle","region":"Goa-Panaji Region"},{"pincode":"403507","office":"Camurlim B.O","district":"NORTH GOA","state":"GOA","circle":"Maharashtra Circle","region":"Goa-Panaji Region"},{"pincode":"403107","office":"Cumbharjua B.O","district":"NORTH GOA","state":"GOA","circle":"Maharashtra Circle","region":"Goa-Panaji Region"},{"pincode":"403104","office":"Mandur B.O","district":"NORTH GOA","state":"GOA","circle":"Maharashtra Circle","region":"Goa-Panaji Region"},{"pincode":"403530","office":"Onda B.O","district":"NORTH GOA","state":"GOA","circle":"Maharashtra Circle","region":"Goa-Panaji Region"},{"pincode":"403527","office":"Morjim B.O","district":"NORTH GOA","state":"GOA","circle":"Maharashtra Circle","region":"Goa-Panaji Region"},{"pincode":"403512","office":"Varconda B.O","district":"NORTH GOA","state":"GOA","circle":"Maharashtra Circle","region":"Goa-Panaji Region"},{"pincode":"403401","office":"Betora B.O","district":"SOUTH GOA","state":"GOA","circle":"Maharashtra Circle","region":"Goa-Panaji Region"},{"pincode":"403401","office":"Borim B.O","district":"SOUTH GOA","state":"GOA","circle":"Maharashtra Circle","region":"Goa-Panaji Region"},{"pincode":"403114","office":"Pilerne B.O","district":"NORTH GOA","state":"GOA","circle":"Maharashtra Circle","region":"Goa-Panaji Region"},{"pincode":"403505","office":"Pratapnagar Harvale B.O","district":"NORTH GOA","state":"GOA","circle":"Maharashtra Circle","region":"Goa-Panaji Region"},{"pincode":"403505","office":"Surla B.O","district":"NORTH GOA","state":"GOA","circle":"Maharashtra Circle","region":"Goa-Panaji Region"},{"pincode":"403406","office":"Sancordem B.O","district":"SOUTH GOA","state":"GOA","circle":"Maharashtra Circle","region":"Goa-Panaji Region"},{"pincode":"403502","office":"Sirsaim B.O","district":"NORTH GOA","state":"GOA","circle":"Maharashtra Circle","region":"Goa-Panaji Region"},{"pincode":"403506","office":"Cotorem B.O","district":"NORTH GOA","state":"GOA","circle":"Maharashtra Circle","region":"Goa-Panaji Region"},{"pincode":"403506","office":"Guleli B.O","district":"NORTH GOA","state":"GOA","circle":"Maharashtra Circle","region":"Goa-Panaji Region"},{"pincode":"403410","office":"Collem S.O","district":"SOUTH GOA","state":"GOA","circle":"Maharashtra Circle","region":"Goa-Panaji Region"},{"pincode":"403706","office":"Curchorem S.O","district":"SOUTH GOA","state":"GOA","circle":"Maharashtra Circle","region":"Goa-Panaji Region"},{"pincode":"403709","office":"Curtorim S.O","district":"SOUTH GOA","state":"GOA","circle":"Maharashtra Circle","region":"Goa-Panaji Region"},{"pincode":"403602","office":"Fatorda S.O","district":"SOUTH GOA","state":"GOA","circle":"Maharashtra Circle","region":"Goa-Panaji Region"},{"pincode":"403713","office":"Majorda S.O","district":"SOUTH GOA","state":"GOA","circle":"Maharashtra Circle","region":"Goa-Panaji Region"},{"pincode":"403707","office":"Navelim S.O","district":"SOUTH GOA","state":"GOA","circle":"Maharashtra Circle","region":"Goa-Panaji Region"},{"pincode":"403721","office":"Varca S.O","district":"SOUTH GOA","state":"GOA","circle":"Maharashtra Circle","region":"Goa-Panaji Region"},{"pincode":"403802","office":"Vasco Da Gama S.O","district":"SOUTH GOA","state":"GOA","circle":"Maharashtra Circle","region":"Goa-Panaji Region"},{"pincode":"403101","office":"Betim S.O","district":"NORTH GOA","state":"GOA","circle":"Maharashtra Circle","region":"Goa-Panaji Region"},{"pincode":"403002","office":"Caranzalem S.O","district":"NORTH GOA","state":"GOA","circle":"Maharashtra Circle","region":"Goa-Panaji Region"},{"pincode":"403505","office":"Sanquelim S.O","district":"NORTH GOA","state":"GOA","circle":"Maharashtra Circle","region":"Goa-Panaji Region"},{"pincode":"403517","office":"Siolim S.O","district":"NORTH GOA","state":"GOA","circle":"Maharashtra Circle","region":"Goa-Panaji Region"},{"pincode":"403204","office":"St. Lourence S.O","district":"NORTH GOA","state":"GOA","circle":"Maharashtra Circle","region":"Goa-Panaji Region"},{"pincode":"403406","office":"Tisca S.O","district":"SOUTH GOA","state":"GOA","circle":"Maharashtra Circle","region":"Goa-Panaji Region"},{"pincode":"403526","office":"Tivim Ie S.O","district":"NORTH GOA","state":"GOA","circle":"Maharashtra Circle","region":"Goa-Panaji Region"},{"pincode":"403502","office":"Tivim S.O","district":"NORTH GOA","state":"GOA","circle":"Maharashtra Circle","region":"Goa-Panaji Region"},{"pincode":"403402","office":"Velha goa S.O","district":"NORTH GOA","state":"GOA","circle":"Maharashtra Circle","region":"Goa-Panaji Region"},{"pincode":"403001","office":"Miramar S.O","district":"NORTH GOA","state":"GOA","circle":"Maharashtra Circle","region":"Goa-Panaji Region"},{"pincode":"403703","office":"Gocoldem B.O","district":"SOUTH GOA","state":"GOA","circle":"Maharashtra Circle","region":"Goa-Panaji Region"},{"pincode":"403802","office":"Mangor Hill B.O","district":"SOUTH GOA","state":"GOA","circle":"Maharashtra Circle","region":"Goa-Panaji Region"},{"pincode":"403702","office":"Sadolxem B.O","district":"SOUTH GOA","state":"GOA","circle":"Maharashtra Circle","region":"Goa-Panaji Region"},{"pincode":"403714","office":"Assolda B.O","district":"SOUTH GOA","state":"GOA","circle":"Maharashtra Circle","region":"Goa-Panaji Region"},{"pincode":"403708","office":"Vanelim B.O","district":"SOUTH GOA","state":"GOA","circle":"Maharashtra Circle","region":"Goa-Panaji Region"},{"pincode":"403703","office":"Veroda B.O","district":"SOUTH GOA","state":"GOA","circle":"Maharashtra Circle","region":"Goa-Panaji Region"},{"pincode":"403706","office":"Panchwadi B.O","district":"SOUTH GOA","state":"GOA","circle":"Maharashtra Circle","region":"Goa-Panaji Region"},{"pincode":"403706","office":"Quirlapale B.O","district":"SOUTH GOA","state":"GOA","circle":"Maharashtra Circle","region":"Goa-Panaji Region"},{"pincode":"403706","office":"Xelvona B.O","district":"SOUTH GOA","state":"GOA","circle":"Maharashtra Circle","region":"Goa-Panaji Region"},{"pincode":"403503","office":"Mulgao B.O","district":"NORTH GOA","state":"GOA","circle":"Maharashtra Circle","region":"Goa-Panaji Region"},{"pincode":"403503","office":"Nanora B.O","district":"NORTH GOA","state":"GOA","circle":"Maharashtra Circle","region":"Goa-Panaji Region"},{"pincode":"403516","office":"Arpora B.O","district":"NORTH GOA","state":"GOA","circle":"Maharashtra Circle","region":"Goa-Panaji Region"},{"pincode":"403513","office":"Ozari B.O","district":"NORTH GOA","state":"GOA","circle":"Maharashtra Circle","region":"Goa-Panaji Region"},{"pincode":"403115","office":"Cundaim B.O","district":"SOUTH GOA","state":"GOA","circle":"Maharashtra Circle","region":"Goa-Panaji Region"},{"pincode":"403507","office":"Assagao B.O","district":"NORTH GOA","state":"GOA","circle":"Maharashtra Circle","region":"Goa-Panaji Region"},{"pincode":"403107","office":"Amona B.O","district":"SOUTH GOA","state":"GOA","circle":"Maharashtra Circle","region":"Goa-Panaji Region"},{"pincode":"403107","office":"Betki B.O","district":"SOUTH GOA","state":"GOA","circle":"Maharashtra Circle","region":"Goa-Panaji Region"},{"pincode":"403512","office":"Cansarvornem B.O","district":"NORTH GOA","state":"GOA","circle":"Maharashtra Circle","region":"Goa-Panaji Region"},{"pincode":"403512","office":"Poroscodem B.O","district":"NORTH GOA","state":"GOA","circle":"Maharashtra Circle","region":"Goa-Panaji Region"},{"pincode":"403512","office":"Torxem B.O","district":"NORTH GOA","state":"GOA","circle":"Maharashtra Circle","region":"Goa-Panaji Region"},{"pincode":"403512","office":"Tuem B.O","district":"NORTH GOA","state":"GOA","circle":"Maharashtra Circle","region":"Goa-Panaji Region"},{"pincode":"403401","office":"Durbhat B.O","district":"SOUTH GOA","state":"GOA","circle":"Maharashtra Circle","region":"Goa-Panaji Region"},{"pincode":"403511","office":"Sangolda B.O","district":"NORTH GOA","state":"GOA","circle":"Maharashtra Circle","region":"Goa-Panaji Region"},{"pincode":"403505","office":"Carapur B.O","district":"NORTH GOA","state":"GOA","circle":"Maharashtra Circle","region":"Goa-Panaji Region"},{"pincode":"403505","office":"Cudnem B.O","district":"NORTH GOA","state":"GOA","circle":"Maharashtra Circle","region":"Goa-Panaji Region"},{"pincode":"403505","office":"Poriem B.O","district":"NORTH GOA","state":"GOA","circle":"Maharashtra Circle","region":"Goa-Panaji Region"},{"pincode":"403506","office":"Mauze B.O","district":"NORTH GOA","state":"GOA","circle":"Maharashtra Circle","region":"Goa-Panaji Region"},{"pincode":"403506","office":"Thana B.O","district":"NORTH GOA","state":"GOA","circle":"Maharashtra Circle","region":"Goa-Panaji Region"},{"pincode":"403802","office":"Baina S.O","district":"SOUTH GOA","state":"GOA","circle":"Maharashtra Circle","region":"Goa-Panaji Region"},{"pincode":"403716","office":"Benaulim S.O","district":"SOUTH GOA","state":"GOA","circle":"Maharashtra Circle","region":"Goa-Panaji Region"},{"pincode":"403806","office":"Bogmalo S.O","district":"SOUTH GOA","state":"GOA","circle":"Maharashtra Circle","region":"Goa-Panaji Region"},{"pincode":"403702","office":"Canacona S.O","district":"SOUTH GOA","state":"GOA","circle":"Maharashtra Circle","region":"Goa-Panaji Region"},{"pincode":"403717","office":"Carmona S.O","district":"SOUTH GOA","state":"GOA","circle":"Maharashtra Circle","region":"Goa-Panaji Region"},{"pincode":"403714","office":"Chandor S.O","district":"SOUTH GOA","state":"GOA","circle":"Maharashtra Circle","region":"Goa-Panaji Region"},{"pincode":"403710","office":"Cortalim S.O","district":"SOUTH GOA","state":"GOA","circle":"Maharashtra Circle","region":"Goa-Panaji Region"},{"pincode":"403703","office":"Cuncolim S.O","district":"SOUTH GOA","state":"GOA","circle":"Maharashtra Circle","region":"Goa-Panaji Region"},{"pincode":"403705","office":"Quepem S.O","district":"SOUTH GOA","state":"GOA","circle":"Maharashtra Circle","region":"Goa-Panaji Region"},{"pincode":"403804","office":"Sada S.O","district":"SOUTH GOA","state":"GOA","circle":"Maharashtra Circle","region":"Goa-Panaji Region"},{"pincode":"403704","office":"Sanguem S.O","district":"SOUTH GOA","state":"GOA","circle":"Maharashtra Circle","region":"Goa-Panaji Region"},{"pincode":"403722","office":"Verna S.O","district":"SOUTH GOA","state":"GOA","circle":"Maharashtra Circle","region":"Goa-Panaji Region"},{"pincode":"403508","office":"Aldona S.O","district":"NORTH GOA","state":"GOA","circle":"Maharashtra Circle","region":"Goa-Panaji Region"},{"pincode":"403409","office":"Betora I.E. S.O","district":"SOUTH GOA","state":"GOA","circle":"Maharashtra Circle","region":"Goa-Panaji Region"},{"pincode":"403529","office":"Bicholim Industrial Estate S.O","district":"NORTH GOA","state":"GOA","circle":"Maharashtra Circle","region":"Goa-Panaji Region"},{"pincode":"403504","office":"Bicholim S.O","district":"NORTH GOA","state":"GOA","circle":"Maharashtra Circle","region":"Goa-Panaji Region"},{"pincode":"403523","office":"Carona S.O","district":"NORTH GOA","state":"GOA","circle":"Maharashtra Circle","region":"Goa-Panaji Region"},{"pincode":"403110","office":"Corlim IE S.O","district":"NORTH GOA","state":"GOA","circle":"Maharashtra Circle","region":"Goa-Panaji Region"},{"pincode":"403527","office":"Mandrem S.O","district":"NORTH GOA","state":"GOA","circle":"Maharashtra Circle","region":"Goa-Panaji Region"},{"pincode":"403104","office":"Neura S.O","district":"NORTH GOA","state":"GOA","circle":"Maharashtra Circle","region":"Goa-Panaji Region"},{"pincode":"403403","office":"Piedade S.O","district":"NORTH GOA","state":"GOA","circle":"Maharashtra Circle","region":"Goa-Panaji Region"},{"pincode":"403006","office":"Ribandar S.O","district":"NORTH GOA","state":"GOA","circle":"Maharashtra Circle","region":"Goa-Panaji Region"},{"pincode":"403005","office":"Santa Cruz S.O","district":"NORTH GOA","state":"GOA","circle":"Maharashtra Circle","region":"Goa-Panaji Region"},{"pincode":"403702","office":"Cotigaon B.O","district":"SOUTH GOA","state":"GOA","circle":"Maharashtra Circle","region":"Goa-Panaji Region"},{"pincode":"403702","office":"Gaodongarim B.O","district":"SOUTH GOA","state":"GOA","circle":"Maharashtra Circle","region":"Goa-Panaji Region"},{"pincode":"403410","office":"Mollem B.O","district":"SOUTH GOA","state":"GOA","circle":"Maharashtra Circle","region":"Goa-Panaji Region"},{"pincode":"403410","office":"Sigao B.O","district":"SOUTH GOA","state":"GOA","circle":"Maharashtra Circle","region":"Goa-Panaji Region"},{"pincode":"403703","office":"Fatorpa B.O","district":"SOUTH GOA","state":"GOA","circle":"Maharashtra Circle","region":"Goa-Panaji Region"},{"pincode":"403706","office":"Cacora B.O","district":"SOUTH GOA","state":"GOA","circle":"Maharashtra Circle","region":"Goa-Panaji Region"},{"pincode":"403707","office":"Davorlim B.O","district":"SOUTH GOA","state":"GOA","circle":"Maharashtra Circle","region":"Goa-Panaji Region"},{"pincode":"403705","office":"Pirla B.O","district":"SOUTH GOA","state":"GOA","circle":"Maharashtra Circle","region":"Goa-Panaji Region"},{"pincode":"403705","office":"Xeldem B.O","district":"SOUTH GOA","state":"GOA","circle":"Maharashtra Circle","region":"Goa-Panaji Region"},{"pincode":"403506","office":"Caranzol B.O","district":"NORTH GOA","state":"GOA","circle":"Maharashtra Circle","region":"Goa-Panaji Region"},{"pincode":"403503","office":"Dodamarg B.O","district":"NORTH GOA","state":"GOA","circle":"Maharashtra Circle","region":"Goa-Panaji Region"},{"pincode":"403101","office":"Penha De France B.O","district":"NORTH GOA","state":"GOA","circle":"Maharashtra Circle","region":"Goa-Panaji Region"},{"pincode":"403523","office":"Calvim B.O","district":"NORTH GOA","state":"GOA","circle":"Maharashtra Circle","region":"Goa-Panaji Region"},{"pincode":"403523","office":"Pomburpa B.O","district":"NORTH GOA","state":"GOA","circle":"Maharashtra Circle","region":"Goa-Panaji Region"},{"pincode":"403507","office":"Ucassiam B.O","district":"NORTH GOA","state":"GOA","circle":"Maharashtra Circle","region":"Goa-Panaji Region"},{"pincode":"403107","office":"Banastarim B.O","district":"SOUTH GOA","state":"GOA","circle":"Maharashtra Circle","region":"Goa-Panaji Region"},{"pincode":"403404","office":"Priol B.O","district":"SOUTH GOA","state":"GOA","circle":"Maharashtra Circle","region":"Goa-Panaji Region"},{"pincode":"403105","office":"Velguem B.O","district":"NORTH GOA","state":"GOA","circle":"Maharashtra Circle","region":"Goa-Panaji Region"},{"pincode":"403510","office":"Canca B.O","district":"NORTH GOA","state":"GOA","circle":"Maharashtra Circle","region":"Goa-Panaji Region"},{"pincode":"403517","office":"Agarwada B.O","district":"NORTH GOA","state":"GOA","circle":"Maharashtra Circle","region":"Goa-Panaji Region"},{"pincode":"403512","office":"Tamboxem B.O","district":"NORTH GOA","state":"GOA","circle":"Maharashtra Circle","region":"Goa-Panaji Region"},{"pincode":"403512","office":"Tuem I E B.O","district":"NORTH GOA","state":"GOA","circle":"Maharashtra Circle","region":"Goa-Panaji Region"},{"pincode":"403401","office":"Agapur Adpoi B.O","district":"SOUTH GOA","state":"GOA","circle":"Maharashtra Circle","region":"Goa-Panaji Region"},{"pincode":"403401","office":"Curti B.O","district":"SOUTH GOA","state":"GOA","circle":"Maharashtra Circle","region":"Goa-Panaji Region"},{"pincode":"403401","office":"Farmagudi B.O","district":"SOUTH GOA","state":"GOA","circle":"Maharashtra Circle","region":"Goa-Panaji Region"},{"pincode":"403401","office":"Nirankal B.O","district":"SOUTH GOA","state":"GOA","circle":"Maharashtra Circle","region":"Goa-Panaji Region"},{"pincode":"403401","office":"Verem De Ponda B.O","district":"SOUTH GOA","state":"GOA","circle":"Maharashtra Circle","region":"Goa-Panaji Region"},{"pincode":"403114","office":"Nerul B.O","district":"NORTH GOA","state":"GOA","circle":"Maharashtra Circle","region":"Goa-Panaji Region"},{"pincode":"403505","office":"Navelim B.O","district":"NORTH GOA","state":"GOA","circle":"Maharashtra Circle","region":"Goa-Panaji Region"},{"pincode":"403517","office":"Oxel B.O","district":"NORTH GOA","state":"GOA","circle":"Maharashtra Circle","region":"Goa-Panaji Region"},{"pincode":"403406","office":"Candepar B.O","district":"SOUTH GOA","state":"GOA","circle":"Maharashtra Circle","region":"Goa-Panaji Region"},{"pincode":"403506","office":"Nagargaon B.O","district":"NORTH GOA","state":"GOA","circle":"Maharashtra Circle","region":"Goa-Panaji Region"},{"pincode":"403601","office":"Gogol S.O","district":"SOUTH GOA","state":"GOA","circle":"Maharashtra Circle","region":"Goa-Panaji Region"},{"pincode":"403718","office":"Loutolim S.O","district":"SOUTH GOA","state":"GOA","circle":"Maharashtra Circle","region":"Goa-Panaji Region"},{"pincode":"403803","office":"Mormugao S.O","district":"SOUTH GOA","state":"GOA","circle":"Maharashtra Circle","region":"Goa-Panaji Region"},{"pincode":"403719","office":"Sem rachol  Soso S.O","district":"SOUTH GOA","state":"GOA","circle":"Maharashtra Circle","region":"Goa-Panaji Region"},{"pincode":"403709","office":"St. Jose De Areal S.O","district":"SOUTH GOA","state":"GOA","circle":"Maharashtra Circle","region":"Goa-Panaji Region"},{"pincode":"403726","office":"Zuarinagar S.O","district":"SOUTH GOA","state":"GOA","circle":"Maharashtra Circle","region":"Goa-Panaji Region"},{"pincode":"403521","office":"Alto Betim S.O","district":"NORTH GOA","state":"GOA","circle":"Maharashtra Circle","region":"Goa-Panaji Region"},{"pincode":"403521","office":"Alto porvorim S.O","district":"NORTH GOA","state":"GOA","circle":"Maharashtra Circle","region":"Goa-Panaji Region"},{"pincode":"403503","office":"Assonora S.O","district":"NORTH GOA","state":"GOA","circle":"Maharashtra Circle","region":"Goa-Panaji Region"},{"pincode":"403201","office":"Bambolim Camp S.O","district":"NORTH GOA","state":"GOA","circle":"Maharashtra Circle","region":"Goa-Panaji Region"},{"pincode":"403202","office":"Bambolim Complex S.O","district":"NORTH GOA","state":"GOA","circle":"Maharashtra Circle","region":"Goa-Panaji Region"},{"pincode":"403515","office":"Candolim S.O","district":"NORTH GOA","state":"GOA","circle":"Maharashtra Circle","region":"Goa-Panaji Region"},{"pincode":"403108","office":"Goa  velha S.O","district":"NORTH GOA","state":"GOA","circle":"Maharashtra Circle","region":"Goa-Panaji Region"},{"pincode":"403507","office":"Mapusa I.E. S.O","district":"NORTH GOA","state":"GOA","circle":"Maharashtra Circle","region":"Goa-Panaji Region"},{"pincode":"403507","office":"Mapusa S.O","district":"NORTH GOA","state":"GOA","circle":"Maharashtra Circle","region":"Goa-Panaji Region"},{"pincode":"403109","office":"N B Verem S.O","district":"NORTH GOA","state":"GOA","circle":"Maharashtra Circle","region":"Goa-Panaji Region"},{"pincode":"403512","office":"Pernem S.O","district":"NORTH GOA","state":"GOA","circle":"Maharashtra Circle","region":"Goa-Panaji Region"},{"pincode":"403401","office":"Ponda Camp S.O","district":"SOUTH GOA","state":"GOA","circle":"Maharashtra Circle","region":"Goa-Panaji Region"},{"pincode":"403501","office":"Porvorim S.O","district":"NORTH GOA","state":"GOA","circle":"Maharashtra Circle","region":"Goa-Panaji Region"},{"pincode":"403525","office":"Goa High Court S.O","district":"NORTH GOA","state":"GOA","circle":"Maharashtra Circle","region":"Goa-Panaji Region"}]