[{"pincode":"194104","office":"STOK B.O","district":"LEH LADAKH","state":"LADAKH","circle":"Jammu Kashmir Circle","region":"Srinagar HQ Region"},{"pincode":"194103","office":"SALISKOT B.O","district":"KARGIL","state":"LADAKH","circle":"Jammu Kashmir Circle","region":"Srinagar HQ Region"},{"pincode":"194104","office":"Saboo B.O","district":"LEH LADAKH","state":"LADAKH","circle":"Jammu Kashmir Circle","region":"Srinagar HQ Region"},{"pincode":"194401","office":"Panamik B.O","district":"LEH LADAKH","state":"LADAKH","circle":"Jammu Kashmir Circle","region":"Srinagar HQ Region"},{"pincode":"194401","office":"Terchey B.O","district":"LEH LADAKH","state":"LADAKH","circle":"Jammu Kashmir Circle","region":"Srinagar HQ Region"},{"pincode":"194103","office":"Silmoh B.O","district":"KARGIL","state":"LADAKH","circle":"Jammu Kashmir Circle","region":"Srinagar HQ Region"},{"pincode":"194103","office":"Tumail B.O","district":"KARGIL","state":"LADAKH","circle":"Jammu Kashmir Circle","region":"Srinagar HQ Region"},{"pincode":"194106","office":"Biama B.O","district":"LEH LADAKH","state":"LADAKH","circle":"Jammu Kashmir Circle","region":"Srinagar HQ Region"},{"pincode":"194106","office":"Dumkhar B.O","district":"LEH LADAKH","state":"LADAKH","circle":"Jammu Kashmir Circle","region":"Srinagar HQ Region"},{"pincode":"194106","office":"Hanoo B.O","district":"LEH LADAKH","state":"LADAKH","circle":"Jammu Kashmir Circle","region":"Srinagar HQ Region"},{"pincode":"194107","office":"LIKIR B.O","district":"LEH LADAKH","state":"LADAKH","circle":"Jammu Kashmir Circle","region":"Srinagar HQ Region"},{"pincode":"194106","office":"Tia B.O","district":"LEH LADAKH","state":"LADAKH","circle":"Jammu Kashmir Circle","region":"Srinagar HQ Region"},{"pincode":"194301","office":"Omba B.O","district":"KARGIL","state":"LADAKH","circle":"Jammu Kashmir Circle","region":"Srinagar HQ Region"},{"pincode":"194303","office":"Parkachik B.O","district":"KARGIL","state":"LADAKH","circle":"Jammu Kashmir Circle","region":"Srinagar HQ Region"},{"pincode":"194201","office":"KHAROO B.O","district":"LEH LADAKH","state":"LADAKH","circle":"Jammu Kashmir Circle","region":"Srinagar HQ Region"},{"pincode":"194201","office":"Shey B.O","district":"LEH LADAKH","state":"LADAKH","circle":"Jammu Kashmir Circle","region":"Srinagar HQ Region"},{"pincode":"194106","office":"Khalsi S.O","district":"LEH LADAKH","state":"LADAKH","circle":"Jammu Kashmir Circle","region":"Srinagar HQ Region"},{"pincode":"194302","office":"Padum S.O","district":"KARGIL","state":"LADAKH","circle":"Jammu Kashmir Circle","region":"Srinagar HQ Region"},{"pincode":"194202","office":"NYOMA MUD","district":"LEH LADAKH","state":"LADAKH","circle":"Jammu Kashmir Circle","region":"Srinagar HQ Region"},{"pincode":"194107","office":"BASGO B.O","district":"LEH LADAKH","state":"LADAKH","circle":"Jammu Kashmir Circle","region":"Srinagar HQ Region"},{"pincode":"194101","office":"Chuchul B.O","district":"LEH LADAKH","state":"LADAKH","circle":"Jammu Kashmir Circle","region":"Srinagar HQ Region"},{"pincode":"194104","office":"CHUCHOT YOKMA B.O","district":"LEH LADAKH","state":"LADAKH","circle":"Jammu Kashmir Circle","region":"Srinagar HQ Region"},{"pincode":"194104","office":"MATHOO B.O","district":"LEH LADAKH","state":"LADAKH","circle":"Jammu Kashmir Circle","region":"Srinagar HQ Region"},{"pincode":"194101","office":"Spituk B.O","district":"LEH LADAKH","state":"LADAKH","circle":"Jammu Kashmir Circle","region":"Srinagar HQ Region"},{"pincode":"194104","office":"Chuchot Gongma B.O","district":"LEH LADAKH","state":"LADAKH","circle":"Jammu Kashmir Circle","region":"Srinagar HQ Region"},{"pincode":"194103","office":"MINJI B.O","district":"KARGIL","state":"LADAKH","circle":"Jammu Kashmir Circle","region":"Srinagar HQ Region"},{"pincode":"194103","office":"TAMBIS B.O","district":"KARGIL","state":"LADAKH","circle":"Jammu Kashmir Circle","region":"Srinagar HQ Region"},{"pincode":"194401","office":"Khardong B.O","district":"LEH LADAKH","state":"LADAKH","circle":"Jammu Kashmir Circle","region":"Srinagar HQ Region"},{"pincode":"194401","office":"Turtuk B.O","district":"LEH LADAKH","state":"LADAKH","circle":"Jammu Kashmir Circle","region":"Srinagar HQ Region"},{"pincode":"194401","office":"BOGDANG B.O","district":"LEH LADAKH","state":"LADAKH","circle":"Jammu Kashmir Circle","region":"Srinagar HQ Region"},{"pincode":"194401","office":"TANGYAR B.O","district":"LEH LADAKH","state":"LADAKH","circle":"Jammu Kashmir Circle","region":"Srinagar HQ Region"},{"pincode":"194102","office":"Matayan B.O","district":"KARGIL","state":"LADAKH","circle":"Jammu Kashmir Circle","region":"Srinagar HQ Region"},{"pincode":"194102","office":"Pandrass B.O","district":"KARGIL","state":"LADAKH","circle":"Jammu Kashmir Circle","region":"Srinagar HQ Region"},{"pincode":"194103","office":"Akchamal B.O","district":"KARGIL","state":"LADAKH","circle":"Jammu Kashmir Circle","region":"Srinagar HQ Region"},{"pincode":"194103","office":"Chanigund B.O","district":"KARGIL","state":"LADAKH","circle":"Jammu Kashmir Circle","region":"Srinagar HQ Region"},{"pincode":"194103","office":"Hardas B.O","district":"KARGIL","state":"LADAKH","circle":"Jammu Kashmir Circle","region":"Srinagar HQ Region"},{"pincode":"194103","office":"Shaimshakharboo B.O","district":"KARGIL","state":"LADAKH","circle":"Jammu Kashmir Circle","region":"Srinagar HQ Region"},{"pincode":"194103","office":"Tumail Colony B.O","district":"KARGIL","state":"LADAKH","circle":"Jammu Kashmir Circle","region":"Srinagar HQ Region"},{"pincode":"194107","office":"Alchi B.O","district":"LEH LADAKH","state":"LADAKH","circle":"Jammu Kashmir Circle","region":"Srinagar HQ Region"},{"pincode":"194106","office":"Temisgam B.O","district":"LEH LADAKH","state":"LADAKH","circle":"Jammu Kashmir Circle","region":"Srinagar HQ Region"},{"pincode":"194109","office":"Chiktan B.O","district":"KARGIL","state":"LADAKH","circle":"Jammu Kashmir Circle","region":"Srinagar HQ Region"},{"pincode":"194109","office":"Safi B.O","district":"KARGIL","state":"LADAKH","circle":"Jammu Kashmir Circle","region":"Srinagar HQ Region"},{"pincode":"194109","office":"Samray B.O","district":"KARGIL","state":"LADAKH","circle":"Jammu Kashmir Circle","region":"Srinagar HQ Region"},{"pincode":"194109","office":"LAMSUSANDO B.O","district":"KARGIL","state":"LADAKH","circle":"Jammu Kashmir Circle","region":"Srinagar HQ Region"},{"pincode":"194302","office":"Karsha B.O","district":"KARGIL","state":"LADAKH","circle":"Jammu Kashmir Circle","region":"Srinagar HQ Region"},{"pincode":"194301","office":"Barsoo B.O","district":"KARGIL","state":"LADAKH","circle":"Jammu Kashmir Circle","region":"Srinagar HQ Region"},{"pincode":"194303","office":"PURTAKCHEY B.O","district":"KARGIL","state":"LADAKH","circle":"Jammu Kashmir Circle","region":"Srinagar HQ Region"},{"pincode":"194303","office":"Yuljuk B.O","district":"KARGIL","state":"LADAKH","circle":"Jammu Kashmir Circle","region":"Srinagar HQ Region"},{"pincode":"194201","office":"Igoo B.O","district":"LEH LADAKH","state":"LADAKH","circle":"Jammu Kashmir Circle","region":"Srinagar HQ Region"},{"pincode":"194107","office":"MARKHA B.O","district":"LEH LADAKH","state":"LADAKH","circle":"Jammu Kashmir Circle","region":"Srinagar HQ Region"},{"pincode":"194401","office":"Diskit S.O","district":"LEH LADAKH","state":"LADAKH","circle":"Jammu Kashmir Circle","region":"Srinagar HQ Region"},{"pincode":"194101","office":"Leh City S.O","district":"LEH LADAKH","state":"LADAKH","circle":"Jammu Kashmir Circle","region":"Srinagar HQ Region"},{"pincode":"194303","office":"Panikhar S.O","district":"KARGIL","state":"LADAKH","circle":"Jammu Kashmir Circle","region":"Srinagar HQ Region"},{"pincode":"194101","office":"Durbuk B.O","district":"LEH LADAKH","state":"LADAKH","circle":"Jammu Kashmir Circle","region":"Srinagar HQ Region"},{"pincode":"194101","office":"Faing B.O","district":"LEH LADAKH","state":"LADAKH","circle":"Jammu Kashmir Circle","region":"Srinagar HQ Region"},{"pincode":"194104","office":"CHUCHOT SHAMMA B.O","district":"LEH LADAKH","state":"LADAKH","circle":"Jammu Kashmir Circle","region":"Srinagar HQ Region"},{"pincode":"194101","office":"Horzey B.O","district":"LEH LADAKH","state":"LADAKH","circle":"Jammu Kashmir Circle","region":"Srinagar HQ Region"},{"pincode":"194107","office":"Ney B.O","district":"LEH LADAKH","state":"LADAKH","circle":"Jammu Kashmir Circle","region":"Srinagar HQ Region"},{"pincode":"194103","office":"CHOSKORE B.O","district":"KARGIL","state":"LADAKH","circle":"Jammu Kashmir Circle","region":"Srinagar HQ Region"},{"pincode":"194401","office":"Hunder B.O","district":"LEH LADAKH","state":"LADAKH","circle":"Jammu Kashmir Circle","region":"Srinagar HQ Region"},{"pincode":"194401","office":"Tiger Sumur B.O","district":"LEH LADAKH","state":"LADAKH","circle":"Jammu Kashmir Circle","region":"Srinagar HQ Region"},{"pincode":"194102","office":"Bhimbat B.O","district":"KARGIL","state":"LADAKH","circle":"Jammu Kashmir Circle","region":"Srinagar HQ Region"},{"pincode":"194102","office":"Mushkoo B.O","district":"KARGIL","state":"LADAKH","circle":"Jammu Kashmir Circle","region":"Srinagar HQ Region"},{"pincode":"194103","office":"Batalik B.O","district":"KARGIL","state":"LADAKH","circle":"Jammu Kashmir Circle","region":"Srinagar HQ Region"},{"pincode":"194103","office":"Karkitchoo B.O","district":"KARGIL","state":"LADAKH","circle":"Jammu Kashmir Circle","region":"Srinagar HQ Region"},{"pincode":"194106","office":"Lamayuru B.O","district":"LEH LADAKH","state":"LADAKH","circle":"Jammu Kashmir Circle","region":"Srinagar HQ Region"},{"pincode":"194109","office":"Bodhkharboo B.O","district":"KARGIL","state":"LADAKH","circle":"Jammu Kashmir Circle","region":"Srinagar HQ Region"},{"pincode":"194109","office":"Shakar B.O","district":"KARGIL","state":"LADAKH","circle":"Jammu Kashmir Circle","region":"Srinagar HQ Region"},{"pincode":"194302","office":"CHA-LUNGNAK B.O","district":"KARGIL","state":"LADAKH","circle":"Jammu Kashmir Circle","region":"Srinagar HQ Region"},{"pincode":"194302","office":"ABRAN B.O","district":"KARGIL","state":"LADAKH","circle":"Jammu Kashmir Circle","region":"Srinagar HQ Region"},{"pincode":"194202","office":"Hemiya B.O","district":"LEH LADAKH","state":"LADAKH","circle":"Jammu Kashmir Circle","region":"Srinagar HQ Region"},{"pincode":"194201","office":"Shara B.O","district":"LEH LADAKH","state":"LADAKH","circle":"Jammu Kashmir Circle","region":"Srinagar HQ Region"},{"pincode":"194202","office":"KARZOK B.O","district":"LEH LADAKH","state":"LADAKH","circle":"Jammu Kashmir Circle","region":"Srinagar HQ Region"},{"pincode":"194201","office":"Thiksay S.O","district":"LEH LADAKH","state":"LADAKH","circle":"Jammu Kashmir Circle","region":"Srinagar HQ Region"},{"pincode":"194107","office":"SASPOL S.O","district":"LEH LADAKH","state":"LADAKH","circle":"Jammu Kashmir Circle","region":"Srinagar HQ Region"},{"pincode":"194101","office":"Leh H.O","district":"LEH LADAKH","state":"LADAKH","circle":"Jammu Kashmir Circle","region":"Srinagar HQ Region"},{"pincode":"194103","office":"Trespone B.O","district":"KARGIL","state":"LADAKH","circle":"Jammu Kashmir Circle","region":"Srinagar HQ Region"},{"pincode":"194401","office":"HUNDER DOK B.O","district":"LEH LADAKH","state":"LADAKH","circle":"Jammu Kashmir Circle","region":"Srinagar HQ Region"},{"pincode":"194102","office":"Chokiyal B.O","district":"KARGIL","state":"LADAKH","circle":"Jammu Kashmir Circle","region":"Srinagar HQ Region"},{"pincode":"194103","office":"Garkon B.O","district":"KARGIL","state":"LADAKH","circle":"Jammu Kashmir Circle","region":"Srinagar HQ Region"},{"pincode":"194103","office":"Pashkum B.O","district":"KARGIL","state":"LADAKH","circle":"Jammu Kashmir Circle","region":"Srinagar HQ Region"},{"pincode":"194103","office":"Yurbaltik B.O","district":"KARGIL","state":"LADAKH","circle":"Jammu Kashmir Circle","region":"Srinagar HQ Region"},{"pincode":"194106","office":"Nurla B.O","district":"LEH LADAKH","state":"LADAKH","circle":"Jammu Kashmir Circle","region":"Srinagar HQ Region"},{"pincode":"194106","office":"Skurbuchan B.O","district":"LEH LADAKH","state":"LADAKH","circle":"Jammu Kashmir Circle","region":"Srinagar HQ Region"},{"pincode":"194106","office":"Wanla B.O","district":"LEH LADAKH","state":"LADAKH","circle":"Jammu Kashmir Circle","region":"Srinagar HQ Region"},{"pincode":"194109","office":"Karamba B.O","district":"KARGIL","state":"LADAKH","circle":"Jammu Kashmir Circle","region":"Srinagar HQ Region"},{"pincode":"194109","office":"Lochum B.O","district":"KARGIL","state":"LADAKH","circle":"Jammu Kashmir Circle","region":"Srinagar HQ Region"},{"pincode":"194109","office":"Tache B.O","district":"KARGIL","state":"LADAKH","circle":"Jammu Kashmir Circle","region":"Srinagar HQ Region"},{"pincode":"194109","office":"Wakha B.O","district":"KARGIL","state":"LADAKH","circle":"Jammu Kashmir Circle","region":"Srinagar HQ Region"},{"pincode":"194109","office":"KHANGRAL B.O","district":"KARGIL","state":"LADAKH","circle":"Jammu Kashmir Circle","region":"Srinagar HQ Region"},{"pincode":"194303","office":"Namsuru B.O","district":"KARGIL","state":"LADAKH","circle":"Jammu Kashmir Circle","region":"Srinagar HQ Region"},{"pincode":"194301","office":"Sangra B.O","district":"KARGIL","state":"LADAKH","circle":"Jammu Kashmir Circle","region":"Srinagar HQ Region"},{"pincode":"194301","office":"Tikat B.O","district":"KARGIL","state":"LADAKH","circle":"Jammu Kashmir Circle","region":"Srinagar HQ Region"},{"pincode":"194201","office":"Chamray B.O","district":"LEH LADAKH","state":"LADAKH","circle":"Jammu Kashmir Circle","region":"Srinagar HQ Region"},{"pincode":"194201","office":"Gia Meru B.O","district":"LEH LADAKH","state":"LADAKH","circle":"Jammu Kashmir Circle","region":"Srinagar HQ Region"},{"pincode":"194202","office":"Kungyam B.O","district":"LEH LADAKH","state":"LADAKH","circle":"Jammu Kashmir Circle","region":"Srinagar HQ Region"},{"pincode":"194103","office":"Kargil S.O","district":"KARGIL","state":"LADAKH","circle":"Jammu Kashmir Circle","region":"Srinagar HQ Region"},{"pincode":"194109","office":"Mulbek S.O","district":"KARGIL","state":"LADAKH","circle":"Jammu Kashmir Circle","region":"Srinagar HQ Region"},{"pincode":"194301","office":"Sankoo S.O","district":"KARGIL","state":"LADAKH","circle":"Jammu Kashmir Circle","region":"Srinagar HQ Region"},{"pincode":"194107","office":"NIMOO B.O","district":"LEH LADAKH","state":"LADAKH","circle":"Jammu Kashmir Circle","region":"Srinagar HQ Region"},{"pincode":"194401","office":"Kubat B.O","district":"LEH LADAKH","state":"LADAKH","circle":"Jammu Kashmir Circle","region":"Srinagar HQ Region"},{"pincode":"194103","office":"Thasgam B.O","district":"KARGIL","state":"LADAKH","circle":"Jammu Kashmir Circle","region":"Srinagar HQ Region"},{"pincode":"194106","office":"Hemis Shukpacahan B.O","district":"LEH LADAKH","state":"LADAKH","circle":"Jammu Kashmir Circle","region":"Srinagar HQ Region"},{"pincode":"194106","office":"Takmachik B.O","district":"LEH LADAKH","state":"LADAKH","circle":"Jammu Kashmir Circle","region":"Srinagar HQ Region"},{"pincode":"194106","office":"KANJI B.O","district":"LEH LADAKH","state":"LADAKH","circle":"Jammu Kashmir Circle","region":"Srinagar HQ Region"},{"pincode":"194106","office":"LINGSHED B.O","district":"LEH LADAKH","state":"LADAKH","circle":"Jammu Kashmir Circle","region":"Srinagar HQ Region"},{"pincode":"194109","office":"Shargol B.O","district":"KARGIL","state":"LADAKH","circle":"Jammu Kashmir Circle","region":"Srinagar HQ Region"},{"pincode":"194109","office":"KUKSHO B.O","district":"KARGIL","state":"LADAKH","circle":"Jammu Kashmir Circle","region":"Srinagar HQ Region"},{"pincode":"194302","office":"Zangla B.O","district":"KARGIL","state":"LADAKH","circle":"Jammu Kashmir Circle","region":"Srinagar HQ Region"},{"pincode":"194302","office":"AKSHOW B.O","district":"KARGIL","state":"LADAKH","circle":"Jammu Kashmir Circle","region":"Srinagar HQ Region"},{"pincode":"194301","office":"Khasgam Thuina B.O","district":"KARGIL","state":"LADAKH","circle":"Jammu Kashmir Circle","region":"Srinagar HQ Region"},{"pincode":"194301","office":"Lankarchey B.O","district":"KARGIL","state":"LADAKH","circle":"Jammu Kashmir Circle","region":"Srinagar HQ Region"},{"pincode":"194202","office":"Chumathang B.O","district":"LEH LADAKH","state":"LADAKH","circle":"Jammu Kashmir Circle","region":"Srinagar HQ Region"},{"pincode":"194201","office":"Hemis Changa B.O","district":"LEH LADAKH","state":"LADAKH","circle":"Jammu Kashmir Circle","region":"Srinagar HQ Region"},{"pincode":"194202","office":"Kairy B.O","district":"LEH LADAKH","state":"LADAKH","circle":"Jammu Kashmir Circle","region":"Srinagar HQ Region"},{"pincode":"194201","office":"Sakti B.O","district":"LEH LADAKH","state":"LADAKH","circle":"Jammu Kashmir Circle","region":"Srinagar HQ Region"},{"pincode":"194105","office":"Baroo S.O","district":"KARGIL","state":"LADAKH","circle":"Jammu Kashmir Circle","region":"Srinagar HQ Region"},{"pincode":"194104","office":"Chuglamsar S.O","district":"LEH LADAKH","state":"LADAKH","circle":"Jammu Kashmir Circle","region":"Srinagar HQ Region"},{"pincode":"194102","office":"Drass S.O","district":"KARGIL","state":"LADAKH","circle":"Jammu Kashmir Circle","region":"Srinagar HQ Region"}]