[{"pincode":"682553","office":"Agathi S.O","district":"LAKSHADWEEP DISTRICT","state":"LAKSHADWEEP","circle":"Kerala Circle","region":"Kochi Region"},{"pincode":"682552","office":"Amini S.O","district":"LAKSHADWEEP DISTRICT","state":"LAKSHADWEEP","circle":"Kerala Circle","region":"Kochi Region"},{"pincode":"682556","office":"Kadamat S.O","district":"LAKSHADWEEP DISTRICT","state":"LAKSHADWEEP","circle":"Kerala Circle","region":"Kochi Region"},{"pincode":"682557","office":"Kalpeni S.O","district":"LAKSHADWEEP DISTRICT","state":"LAKSHADWEEP","circle":"Kerala Circle","region":"Kochi Region"},{"pincode":"682551","office":"Androth S.O","district":"LAKSHADWEEP DISTRICT","state":"LAKSHADWEEP","circle":"Kerala Circle","region":"Kochi Region"},{"pincode":"682559","office":"Minicoy S.O","district":"LAKSHADWEEP DISTRICT","state":"LAKSHADWEEP","circle":"Kerala Circle","region":"Kochi Region"},{"pincode":"682555","office":"Kavaratti H.O","district":"LAKSHADWEEP DISTRICT","state":"LAKSHADWEEP","circle":"Kerala Circle","region":"Kochi Region"},{"pincode":"682558","office":"Kiltan S.O","district":"LAKSHADWEEP DISTRICT","state":"LAKSHADWEEP","circle":"Kerala Circle","region":"Kochi Region"},{"pincode":"682554","office":"Bithra B.O","district":"LAKSHADWEEP DISTRICT","state":"LAKSHADWEEP","circle":"Kerala Circle","region":"Kochi Region"},{"pincode":"682554","office":"Chetlat S.O","district":"LAKSHADWEEP DISTRICT","state":"LAKSHADWEEP","circle":"Kerala Circle","region":"Kochi Region"}]