[{"pincode":"795126","office":"Khoijuman B.O","district":"KANGPOKPI","state":"MANIPUR","circle":"North Eastern Circle","region":"North East - II Region"},{"pincode":"795126","office":"Toubul B.O","district":"KANGPOKPI","state":"MANIPUR","circle":"North Eastern Circle","region":"North East - II Region"},{"pincode":"795102","office":"Monbi B.O","district":"CHANDEL","state":"MANIPUR","circle":"North Eastern Circle","region":"North East - II Region"},{"pincode":"795102","office":"Phiran Machet B.O","district":"CHANDEL","state":"MANIPUR","circle":"North Eastern Circle","region":"North East - II Region"},{"pincode":"795102","office":"Thorchom B.O","district":"CHANDEL","state":"MANIPUR","circle":"North Eastern Circle","region":"North East - II Region"},{"pincode":"795102","office":"Mombi","district":"CHANDEL","state":"MANIPUR","circle":"North Eastern Circle","region":"North East - II Region"},{"pincode":"795102","office":"Shalluk","district":"CHANDEL","state":"MANIPUR","circle":"North Eastern Circle","region":"North East - II Region"},{"pincode":"795102","office":"Aisi","district":"CHANDEL","state":"MANIPUR","circle":"North Eastern Circle","region":"North East - II Region"},{"pincode":"795102","office":"Molngat","district":"CHANDEL","state":"MANIPUR","circle":"North Eastern Circle","region":"North East - II Region"},{"pincode":"795006","office":"Bungmual B.O","district":"PHERZAWL","state":"MANIPUR","circle":"North Eastern Circle","region":"North East - II Region"},{"pincode":"795128","office":"Henglep B.O","district":"CHURACHANDPUR","state":"MANIPUR","circle":"North Eastern Circle","region":"North East - II Region"},{"pincode":"795006","office":"Lingshiphai B.O","district":"PHERZAWL","state":"MANIPUR","circle":"North Eastern Circle","region":"North East - II Region"},{"pincode":"795006","office":"Mission Compound B.O","district":"CHURACHANDPUR","state":"MANIPUR","circle":"North Eastern Circle","region":"North East - II Region"},{"pincode":"795128","office":"Munpi B.O","district":"CHURACHANDPUR","state":"MANIPUR","circle":"North Eastern Circle","region":"North East - II Region"},{"pincode":"795128","office":"Saikhul Village B.O","district":"CHURACHANDPUR","state":"MANIPUR","circle":"North Eastern Circle","region":"North East - II Region"},{"pincode":"795128","office":"Tuinom B.O","district":"CHURACHANDPUR","state":"MANIPUR","circle":"North Eastern Circle","region":"North East - II Region"},{"pincode":"795128","office":"Dailon","district":"CHURACHANDPUR","state":"MANIPUR","circle":"North Eastern Circle","region":"North East - II Region"},{"pincode":"795113","office":"New Keithelmanbi B.O","district":"IMPHAL WEST","state":"MANIPUR","circle":"North Eastern Circle","region":"North East - II Region"},{"pincode":"795113","office":"Ngairangbam B.O","district":"IMPHAL WEST","state":"MANIPUR","circle":"North Eastern Circle","region":"North East - II Region"},{"pincode":"795113","office":"Tairenpokpi B.O","district":"IMPHAL WEST","state":"MANIPUR","circle":"North Eastern Circle","region":"North East - II Region"},{"pincode":"795113","office":"Yurembam B.O","district":"IMPHAL WEST","state":"MANIPUR","circle":"North Eastern Circle","region":"North East - II Region"},{"pincode":"795115","office":"BR Colony B.O","district":"JIRIBAM","state":"MANIPUR","circle":"North Eastern Circle","region":"North East - II Region"},{"pincode":"795116","office":"Bongmun B.O","district":"JIRIBAM","state":"MANIPUR","circle":"North Eastern Circle","region":"North East - II Region"},{"pincode":"795116","office":"Borobekra B.O","district":"JIRIBAM","state":"MANIPUR","circle":"North Eastern Circle","region":"North East - II Region"},{"pincode":"795116","office":"Champanagar B.O","district":"JIRIBAM","state":"MANIPUR","circle":"North Eastern Circle","region":"North East - II Region"},{"pincode":"795128","office":"Zenhang Lamka B.O","district":"JIRIBAM","state":"MANIPUR","circle":"North Eastern Circle","region":"North East - II Region"},{"pincode":"795116","office":"Suangpuimun B.O","district":"JIRIBAM","state":"MANIPUR","circle":"North Eastern Circle","region":"North East - II Region"},{"pincode":"795103","office":"Kalikalok B.O","district":"THOUBAL","state":"MANIPUR","circle":"North Eastern Circle","region":"North East - II Region"},{"pincode":"795103","office":"Naodam Bazar B.O","district":"THOUBAL","state":"MANIPUR","circle":"North Eastern Circle","region":"North East - II Region"},{"pincode":"795122","office":"Tokpa B.O","district":"KANGPOKPI","state":"MANIPUR","circle":"North Eastern Circle","region":"North East - II Region"},{"pincode":"795129","office":"Kangpokpi Mission B.O","district":"KANGPOKPI","state":"MANIPUR","circle":"North Eastern Circle","region":"North East - II Region"},{"pincode":"795007","office":"Thingba Khullen B.O","district":"SENAPATI","state":"MANIPUR","circle":"North Eastern Circle","region":"North East - II Region"},{"pincode":"795007","office":"Thingba Khunou B.O","district":"SENAPATI","state":"MANIPUR","circle":"North Eastern Circle","region":"North East - II Region"},{"pincode":"795010","office":"Moirang Purel B.O","district":"KANGPOKPI","state":"MANIPUR","circle":"North Eastern Circle","region":"North East - II Region"},{"pincode":"795010","office":"Ningthemchakhul B.O","district":"IMPHAL EAST","state":"MANIPUR","circle":"North Eastern Circle","region":"North East - II Region"},{"pincode":"795010","office":"Nongdam Tangkhul B.O","district":"KAMJONG","state":"MANIPUR","circle":"North Eastern Circle","region":"North East - II Region"},{"pincode":"795004","office":"Central Agriculture University B.O","district":"IMPHAL WEST","state":"MANIPUR","circle":"North Eastern Circle","region":"North East - II Region"},{"pincode":"795004","office":"Lamboi Khongnagkhong B.O","district":"IMPHAL WEST","state":"MANIPUR","circle":"North Eastern Circle","region":"North East - II Region"},{"pincode":"795004","office":"Sayang Kuraomakhong B.O","district":"IMPHAL WEST","state":"MANIPUR","circle":"North Eastern Circle","region":"North East - II Region"},{"pincode":"795146","office":"Mayang Langjing B.O","district":"IMPHAL WEST","state":"MANIPUR","circle":"North Eastern Circle","region":"North East - II Region"},{"pincode":"795130","office":"Urup B.O","district":"IMPHAL EAST","state":"MANIPUR","circle":"North Eastern Circle","region":"North East - II Region"},{"pincode":"795145","office":"Ashi B.O","district":"KAMJONG","state":"MANIPUR","circle":"North Eastern Circle","region":"North East - II Region"},{"pincode":"795145","office":"Chassad B.O","district":"KAMJONG","state":"MANIPUR","circle":"North Eastern Circle","region":"North East - II Region"},{"pincode":"795145","office":"Grihang B.O","district":"KAMJONG","state":"MANIPUR","circle":"North Eastern Circle","region":"North East - II Region"},{"pincode":"795145","office":"Lambui B.O","district":"UKHRUL","state":"MANIPUR","circle":"North Eastern Circle","region":"North East - II Region"},{"pincode":"795145","office":"Semol B.O","district":"KANGPOKPI","state":"MANIPUR","circle":"North Eastern Circle","region":"North East - II Region"},{"pincode":"795145","office":"Sorde B.O","district":"KAMJONG","state":"MANIPUR","circle":"North Eastern Circle","region":"North East - II Region"},{"pincode":"795145","office":"Kangpat Khullen","district":"IMPHAL EAST","state":"MANIPUR","circle":"North Eastern Circle","region":"North East - II Region"},{"pincode":"795145","office":"Nampisha","district":"IMPHAL EAST","state":"MANIPUR","circle":"North Eastern Circle","region":"North East - II Region"},{"pincode":"795145","office":"Riha(T)","district":"IMPHAL EAST","state":"MANIPUR","circle":"North Eastern Circle","region":"North East - II Region"},{"pincode":"795145","office":"Shingkap","district":"IMPHAL EAST","state":"MANIPUR","circle":"North Eastern Circle","region":"North East - II Region"},{"pincode":"795145","office":"Khambi","district":"IMPHAL EAST","state":"MANIPUR","circle":"North Eastern Circle","region":"North East - II Region"},{"pincode":"795145","office":"Ngaprum","district":"IMPHAL EAST","state":"MANIPUR","circle":"North Eastern Circle","region":"North East - II Region"},{"pincode":"795145","office":"Mawai","district":"IMPHAL EAST","state":"MANIPUR","circle":"North Eastern Circle","region":"North East - II Region"},{"pincode":"795145","office":"Kangkum","district":"IMPHAL EAST","state":"MANIPUR","circle":"North Eastern Circle","region":"North East - II Region"},{"pincode":"795145","office":"Makan","district":"IMPHAL EAST","state":"MANIPUR","circle":"North Eastern Circle","region":"North East - II Region"},{"pincode":"795145","office":"Wanglee","district":"IMPHAL EAST","state":"MANIPUR","circle":"North Eastern Circle","region":"North East - II Region"},{"pincode":"795124","office":"Mayuran B.O","district":"CHURACHANDPUR","state":"MANIPUR","circle":"North Eastern Circle","region":"North East - II Region"},{"pincode":"795003","office":"Kunja (P) B.O","district":"IMPHAL WEST","state":"MANIPUR","circle":"North Eastern Circle","region":"North East - II Region"},{"pincode":"795003","office":"Kyamgei B.O","district":"IMPHAL EAST","state":"MANIPUR","circle":"North Eastern Circle","region":"North East - II Region"},{"pincode":"795002","office":"Karakhul B.O","district":"KANGPOKPI","state":"MANIPUR","circle":"North Eastern Circle","region":"North East - II Region"},{"pincode":"795002","office":"Khurukhul B.O","district":"IMPHAL WEST","state":"MANIPUR","circle":"North Eastern Circle","region":"North East - II Region"},{"pincode":"795002","office":"Luwangsangbam B.O","district":"IMPHAL EAST","state":"MANIPUR","circle":"North Eastern Circle","region":"North East - II Region"},{"pincode":"795002","office":"Tendongyang (P) B.O","district":"IMPHAL WEST","state":"MANIPUR","circle":"North Eastern Circle","region":"North East - II Region"},{"pincode":"795015","office":"Koide B.O","district":"SENAPATI","state":"MANIPUR","circle":"North Eastern Circle","region":"North East - II Region"},{"pincode":"795015","office":"Purul B.O","district":"SENAPATI","state":"MANIPUR","circle":"North Eastern Circle","region":"North East - II Region"},{"pincode":"795132","office":"Arong B.O","district":"KAKCHING","state":"MANIPUR","circle":"North Eastern Circle","region":"North East - II Region"},{"pincode":"795132","office":"Irong Chessabal B.O","district":"KAKCHING","state":"MANIPUR","circle":"North Eastern Circle","region":"North East - II Region"},{"pincode":"795132","office":"Sekmaijin B.O","district":"KAKCHING","state":"MANIPUR","circle":"North Eastern Circle","region":"North East - II Region"},{"pincode":"795133","office":"Boroyangbi B.O","district":"BISHNUPUR","state":"MANIPUR","circle":"North Eastern Circle","region":"North East - II Region"},{"pincode":"795133","office":"Bunglon B.O","district":"CHURACHANDPUR","state":"MANIPUR","circle":"North Eastern Circle","region":"North East - II Region"},{"pincode":"795133","office":"Kumbi (P) B.O","district":"BISHNUPUR","state":"MANIPUR","circle":"North Eastern Circle","region":"North East - II Region"},{"pincode":"795133","office":"Nungthangtampak B.O","district":"CHURACHANDPUR","state":"MANIPUR","circle":"North Eastern Circle","region":"North East - II Region"},{"pincode":"795133","office":"Sagang B.O","district":"BISHNUPUR","state":"MANIPUR","circle":"North Eastern Circle","region":"North East - II Region"},{"pincode":"795133","office":"Thanga Karang B.O","district":"BISHNUPUR","state":"MANIPUR","circle":"North Eastern Circle","region":"North East - II Region"},{"pincode":"795131","office":"Tengnoupal B.O","district":"TENGNOUPAL","state":"MANIPUR","circle":"North Eastern Circle","region":"North East - II Region"},{"pincode":"795131","office":"Choktong","district":"TENGNOUPAL","state":"MANIPUR","circle":"North Eastern Circle","region":"North East - II Region"},{"pincode":"795107","office":"S.Bolkot B.O","district":"KANGPOKPI","state":"MANIPUR","circle":"North Eastern Circle","region":"North East - II Region"},{"pincode":"795107","office":"Thingsat B.O","district":"KANGPOKPI","state":"MANIPUR","circle":"North Eastern Circle","region":"North East - II Region"},{"pincode":"795134","office":"Awangjiri B.O","district":"IMPHAL WEST","state":"MANIPUR","circle":"North Eastern Circle","region":"North East - II Region"},{"pincode":"795134","office":"Thingkai Khullen B.O","district":"KANGPOKPI","state":"MANIPUR","circle":"North Eastern Circle","region":"North East - II Region"},{"pincode":"795159","office":"Awangkhul B.O","district":"NONEY","state":"MANIPUR","circle":"North Eastern Circle","region":"North East - II Region"},{"pincode":"795159","office":"Nagaching B.O","district":"NONEY","state":"MANIPUR","circle":"North Eastern Circle","region":"North East - II Region"},{"pincode":"795159","office":"New Kabui Khullen B.O","district":"NONEY","state":"MANIPUR","circle":"North Eastern Circle","region":"North East - II Region"},{"pincode":"795147","office":"Sekjang","district":"NONEY","state":"MANIPUR","circle":"North Eastern Circle","region":"North East - II Region"},{"pincode":"795135","office":"Angbrashu B.O","district":"CHANDEL","state":"MANIPUR","circle":"North Eastern Circle","region":"North East - II Region"},{"pincode":"795135","office":"Liwachangning B.O","district":"TENGNOUPAL","state":"MANIPUR","circle":"North Eastern Circle","region":"North East - II Region"},{"pincode":"795135","office":"Narum B.O","district":"TENGNOUPAL","state":"MANIPUR","circle":"North Eastern Circle","region":"North East - II Region"},{"pincode":"795135","office":"Songjang B.O","district":"TENGNOUPAL","state":"MANIPUR","circle":"North Eastern Circle","region":"North East - II Region"},{"pincode":"795117","office":"Khouwpuibung B.O","district":"CHURACHANDPUR","state":"MANIPUR","circle":"North Eastern Circle","region":"North East - II Region"},{"pincode":"795118","office":"Jangnoi B.O","district":"KANGPOKPI","state":"MANIPUR","circle":"North Eastern Circle","region":"North East - II Region"},{"pincode":"795118","office":"Molkon B.O","district":"KANGPOKPI","state":"MANIPUR","circle":"North Eastern Circle","region":"North East - II Region"},{"pincode":"795118","office":"Tingpibung B.O","district":"KANGPOKPI","state":"MANIPUR","circle":"North Eastern Circle","region":"North East - II Region"},{"pincode":"795136","office":"Kanglatongbi B.O","district":"IMPHAL WEST","state":"MANIPUR","circle":"North Eastern Circle","region":"North East - II Region"},{"pincode":"795106","office":"Tumuyan Khullen B.O","district":"KANGPOKPI","state":"MANIPUR","circle":"North Eastern Circle","region":"North East - II Region"},{"pincode":"795139","office":"Sialbu B.O","district":"CHURACHANDPUR","state":"MANIPUR","circle":"North Eastern Circle","region":"North East - II Region"},{"pincode":"795139","office":"Suangdoh B.O","district":"CHURACHANDPUR","state":"MANIPUR","circle":"North Eastern Circle","region":"North East - II Region"},{"pincode":"795139","office":"Vokbual B.O","district":"CHURACHANDPUR","state":"MANIPUR","circle":"North Eastern Circle","region":"North East - II Region"},{"pincode":"795008","office":"Khongnangpheidekpi B.O","district":"IMPHAL WEST","state":"MANIPUR","circle":"North Eastern Circle","region":"North East - II Region"},{"pincode":"795008","office":"Mongkhang Lambi B.O","district":"IMPHAL EAST","state":"MANIPUR","circle":"North Eastern Circle","region":"North East - II Region"},{"pincode":"795144","office":"Kachai B.O","district":"UKHRUL","state":"MANIPUR","circle":"North Eastern Circle","region":"North East - II Region"},{"pincode":"795101","office":"Chairen B.O","district":"KAKCHING","state":"MANIPUR","circle":"North Eastern Circle","region":"North East - II Region"},{"pincode":"795101","office":"Jul Bangching B.O","district":"CHANDEL","state":"MANIPUR","circle":"North Eastern Circle","region":"North East - II Region"},{"pincode":"795101","office":"K. Molnom B.O","district":"CHANDEL","state":"MANIPUR","circle":"North Eastern Circle","region":"North East - II Region"},{"pincode":"795101","office":"Khongnangpheisabi B.O","district":"CHANDEL","state":"MANIPUR","circle":"North Eastern Circle","region":"North East - II Region"},{"pincode":"795101","office":"M Bongmol B.O","district":"CHANDEL","state":"MANIPUR","circle":"North Eastern Circle","region":"North East - II Region"},{"pincode":"795101","office":"Sangaikot B.O","district":"CHANDEL","state":"MANIPUR","circle":"North Eastern Circle","region":"North East - II Region"},{"pincode":"795112","office":"Chalwa (P) B.O","district":"KANGPOKPI","state":"MANIPUR","circle":"North Eastern Circle","region":"North East - II Region"},{"pincode":"795112","office":"Cheljang B.O","district":"KANGPOKPI","state":"MANIPUR","circle":"North Eastern Circle","region":"North East - II Region"},{"pincode":"795112","office":"Irang B.O","district":"KANGPOKPI","state":"MANIPUR","circle":"North Eastern Circle","region":"North East - II Region"},{"pincode":"795112","office":"Kotlien B.O","district":"KANGPOKPI","state":"MANIPUR","circle":"North Eastern Circle","region":"North East - II Region"},{"pincode":"795104","office":"Chingai Khullen B.O","district":"SENAPATI","state":"MANIPUR","circle":"North Eastern Circle","region":"North East - II Region"},{"pincode":"795104","office":"Saranamei B.O","district":"SENAPATI","state":"MANIPUR","circle":"North Eastern Circle","region":"North East - II Region"},{"pincode":"795125","office":"Lemta B.O","district":"TAMENGLONG","state":"MANIPUR","circle":"North Eastern Circle","region":"North East - II Region"},{"pincode":"795141","office":"Kahulong B.O","district":"TAMENGLONG","state":"MANIPUR","circle":"North Eastern Circle","region":"North East - II Region"},{"pincode":"795141","office":"Longpram B.O","district":"TAMENGLONG","state":"MANIPUR","circle":"North Eastern Circle","region":"North East - II Region"},{"pincode":"795141","office":"Tamenglong Khunjao B.O","district":"TAMENGLONG","state":"MANIPUR","circle":"North Eastern Circle","region":"North East - II Region"},{"pincode":"795141","office":"Thuilon B.O","district":"TAMENGLONG","state":"MANIPUR","circle":"North Eastern Circle","region":"North East - II Region"},{"pincode":"795141","office":"Njingning","district":"TAMENGLONG","state":"MANIPUR","circle":"North Eastern Circle","region":"North East - II Region"},{"pincode":"795143","office":"Pamjal B.O","district":"PHERZAWL","state":"MANIPUR","circle":"North Eastern Circle","region":"North East - II Region"},{"pincode":"795006","office":"Senvon B.O","district":"PHERZAWL","state":"MANIPUR","circle":"North Eastern Circle","region":"North East - II Region"},{"pincode":"795138","office":"Charangpat B.O","district":"THOUBAL","state":"MANIPUR","circle":"North Eastern Circle","region":"North East - II Region"},{"pincode":"795138","office":"Khangabok B.O","district":"THOUBAL","state":"MANIPUR","circle":"North Eastern Circle","region":"North East - II Region"},{"pincode":"795138","office":"Phoudel B.O","district":"THOUBAL","state":"MANIPUR","circle":"North Eastern Circle","region":"North East - II Region"},{"pincode":"795142","office":"Hundung B.O","district":"UKHRUL","state":"MANIPUR","circle":"North Eastern Circle","region":"North East - II Region"},{"pincode":"795142","office":"Siroi B.O","district":"UKHRUL","state":"MANIPUR","circle":"North Eastern Circle","region":"North East - II Region"},{"pincode":"795142","office":"Tolloi B.O","district":"UKHRUL","state":"MANIPUR","circle":"North Eastern Circle","region":"North East - II Region"},{"pincode":"795142","office":"Tusom Christian","district":"UKHRUL","state":"MANIPUR","circle":"North Eastern Circle","region":"North East - II Region"},{"pincode":"795142","office":"Kachouphung(T)","district":"UKHRUL","state":"MANIPUR","circle":"North Eastern Circle","region":"North East - II Region"},{"pincode":"795148","office":"Salungpham B.O","district":"THOUBAL","state":"MANIPUR","circle":"North Eastern Circle","region":"North East - II Region"},{"pincode":"795009","office":"Bitrarakhong B.O","district":"IMPHAL WEST","state":"MANIPUR","circle":"North Eastern Circle","region":"North East - II Region"},{"pincode":"795009","office":"Samurou B.O","district":"IMPHAL WEST","state":"MANIPUR","circle":"North Eastern Circle","region":"North East - II Region"},{"pincode":"795149","office":"Changamdabi B.O","district":"KANGPOKPI","state":"MANIPUR","circle":"North Eastern Circle","region":"North East - II Region"},{"pincode":"795149","office":"Kamuching B.O","district":"KANGPOKPI","state":"MANIPUR","circle":"North Eastern Circle","region":"North East - II Region"},{"pincode":"795149","office":"Phouoibi B.O","district":"KANGPOKPI","state":"MANIPUR","circle":"North Eastern Circle","region":"North East - II Region"},{"pincode":"795149","office":"Top Chingtha B.O","district":"KANGPOKPI","state":"MANIPUR","circle":"North Eastern Circle","region":"North East - II Region"},{"pincode":"795149","office":"Ningthounai BO","district":"KANGPOKPI","state":"MANIPUR","circle":"North Eastern Circle","region":"North East - II Region"},{"pincode":"795126","office":"Bishnupur S.O (Bishnupur)","district":"KANGPOKPI","state":"MANIPUR","circle":"North Eastern Circle","region":"North East - II Region"},{"pincode":"795102","office":"Chakpikarong S.O","district":"CHANDEL","state":"MANIPUR","circle":"North Eastern Circle","region":"North East - II Region"},{"pincode":"795115","office":"Gularthol S.O","district":"JIRIBAM","state":"MANIPUR","circle":"North Eastern Circle","region":"North East - II Region"},{"pincode":"795116","office":"Jiribam Bazar S.O","district":"JIRIBAM","state":"MANIPUR","circle":"North Eastern Circle","region":"North East - II Region"},{"pincode":"795146","office":"Lamsang S.O","district":"IMPHAL WEST","state":"MANIPUR","circle":"North Eastern Circle","region":"North East - II Region"},{"pincode":"795124","office":"Loktak Project S.O","district":"BISHNUPUR","state":"MANIPUR","circle":"North Eastern Circle","region":"North East - II Region"},{"pincode":"795131","office":"Moreh S.O","district":"TENGNOUPAL","state":"MANIPUR","circle":"North Eastern Circle","region":"North East - II Region"},{"pincode":"795159","office":"None S.O","district":"NONEY","state":"MANIPUR","circle":"North Eastern Circle","region":"North East - II Region"},{"pincode":"795114","office":"Pngaei Yangdong S.O","district":"IMPHAL EAST","state":"MANIPUR","circle":"North Eastern Circle","region":"North East - II Region"},{"pincode":"795125","office":"Tamei S.O","district":"TAMENGLONG","state":"MANIPUR","circle":"North Eastern Circle","region":"North East - II Region"},{"pincode":"795121","office":"PARBUNG SO","district":"IMPHAL WEST","state":"MANIPUR","circle":"North Eastern Circle","region":"North East - II Region"},{"pincode":"795001","office":"Imphal H.O","district":"IMPHAL WEST","state":"MANIPUR","circle":"North Eastern Circle","region":"North East - II Region"},{"pincode":"795126","office":"Dolang B.O","district":"KANGPOKPI","state":"MANIPUR","circle":"North Eastern Circle","region":"North East - II Region"},{"pincode":"795102","office":"Khubungh Khullen B.O","district":"CHANDEL","state":"MANIPUR","circle":"North Eastern Circle","region":"North East - II Region"},{"pincode":"795102","office":"Libung","district":"CHANDEL","state":"MANIPUR","circle":"North Eastern Circle","region":"North East - II Region"},{"pincode":"795102","office":"Rungchang","district":"CHANDEL","state":"MANIPUR","circle":"North Eastern Circle","region":"North East - II Region"},{"pincode":"795102","office":"Hengshi","district":"CHANDEL","state":"MANIPUR","circle":"North Eastern Circle","region":"North East - II Region"},{"pincode":"795102","office":"Tolbung","district":"CHANDEL","state":"MANIPUR","circle":"North Eastern Circle","region":"North East - II Region"},{"pincode":"795102","office":"Bollok","district":"CHANDEL","state":"MANIPUR","circle":"North Eastern Circle","region":"North East - II Region"},{"pincode":"795102","office":"Aibol Jamkhomang","district":"CHANDEL","state":"MANIPUR","circle":"North Eastern Circle","region":"North East - II Region"},{"pincode":"795102","office":"Sehlon","district":"CHANDEL","state":"MANIPUR","circle":"North Eastern Circle","region":"North East - II Region"},{"pincode":"795127","office":"Duthang B.O","district":"CHANDEL","state":"MANIPUR","circle":"North Eastern Circle","region":"North East - II Region"},{"pincode":"795127","office":"Larong B.O","district":"CHANDEL","state":"MANIPUR","circle":"North Eastern Circle","region":"North East - II Region"},{"pincode":"795127","office":"Mittong B.O","district":"CHANDEL","state":"MANIPUR","circle":"North Eastern Circle","region":"North East - II Region"},{"pincode":"795128","office":"Aina B.O","district":"CHURACHANDPUR","state":"MANIPUR","circle":"North Eastern Circle","region":"North East - II Region"},{"pincode":"795128","office":"Kolhen B.O","district":"CHURACHANDPUR","state":"MANIPUR","circle":"North Eastern Circle","region":"North East - II Region"},{"pincode":"795006","office":"Kwanpui B.O","district":"CHURACHANDPUR","state":"MANIPUR","circle":"North Eastern Circle","region":"North East - II Region"},{"pincode":"795128","office":"Lungsai B.O","district":"CHURACHANDPUR","state":"MANIPUR","circle":"North Eastern Circle","region":"North East - II Region"},{"pincode":"795128","office":"Sielmet B.O","district":"CHURACHANDPUR","state":"MANIPUR","circle":"North Eastern Circle","region":"North East - II Region"},{"pincode":"795128","office":"Tolphei B.O","district":"CHURACHANDPUR","state":"MANIPUR","circle":"North Eastern Circle","region":"North East - II Region"},{"pincode":"795128","office":"Ukha B.O","district":"CHURACHANDPUR","state":"MANIPUR","circle":"North Eastern Circle","region":"North East - II Region"},{"pincode":"795128","office":"Muolkhangthol","district":"CHURACHANDPUR","state":"MANIPUR","circle":"North Eastern Circle","region":"North East - II Region"},{"pincode":"795128","office":"Suangsang","district":"CHURACHANDPUR","state":"MANIPUR","circle":"North Eastern Circle","region":"North East - II Region"},{"pincode":"795113","office":"Haorang Kairel B.O","district":"IMPHAL WEST","state":"MANIPUR","circle":"North Eastern Circle","region":"North East - II Region"},{"pincode":"795113","office":"Khamnam Bazar B.O","district":"IMPHAL WEST","state":"MANIPUR","circle":"North Eastern Circle","region":"North East - II Region"},{"pincode":"795113","office":"Khumbong Bazar B.O","district":"IMPHAL WEST","state":"MANIPUR","circle":"North Eastern Circle","region":"North East - II Region"},{"pincode":"795113","office":"Langjing Achouba B.O","district":"IMPHAL WEST","state":"MANIPUR","circle":"North Eastern Circle","region":"North East - II Region"},{"pincode":"795113","office":"Longa Koireng B.O","district":"KANGPOKPI","state":"MANIPUR","circle":"North Eastern Circle","region":"North East - II Region"},{"pincode":"795113","office":"Sagoltongba Bazar B.O","district":"IMPHAL WEST","state":"MANIPUR","circle":"North Eastern Circle","region":"North East - II Region"},{"pincode":"795115","office":"New Keiphundai B.O","district":"JIRIBAM","state":"MANIPUR","circle":"North Eastern Circle","region":"North East - II Region"},{"pincode":"795103","office":"Arong Nongmaikhong B.O","district":"THOUBAL","state":"MANIPUR","circle":"North Eastern Circle","region":"North East - II Region"},{"pincode":"795103","office":"Mairembam B.O","district":"KAKCHING","state":"MANIPUR","circle":"North Eastern Circle","region":"North East - II Region"},{"pincode":"795103","office":"Mantak B.O","district":"KAKCHING","state":"MANIPUR","circle":"North Eastern Circle","region":"North East - II Region"},{"pincode":"795103","office":"Waikhong B.O","district":"KAKCHING","state":"MANIPUR","circle":"North Eastern Circle","region":"North East - II Region"},{"pincode":"795122","office":"Keithelmanbi B.O","district":"KANGPOKPI","state":"MANIPUR","circle":"North Eastern Circle","region":"North East - II Region"},{"pincode":"795007","office":"Willong B.O","district":"SENAPATI","state":"MANIPUR","circle":"North Eastern Circle","region":"North East - II Region"},{"pincode":"795010","office":"Chingmang B.O","district":"KANGPOKPI","state":"MANIPUR","circle":"North Eastern Circle","region":"North East - II Region"},{"pincode":"795010","office":"Laikoiching B.O","district":"KANGPOKPI","state":"MANIPUR","circle":"North Eastern Circle","region":"North East - II Region"},{"pincode":"795010","office":"Phaknung B.O","district":"IMPHAL EAST","state":"MANIPUR","circle":"North Eastern Circle","region":"North East - II Region"},{"pincode":"795146","office":"Ijairong B.O","district":"NONEY","state":"MANIPUR","circle":"North Eastern Circle","region":"North East - II Region"},{"pincode":"795146","office":"Kangchup Chiru B.O","district":"KANGPOKPI","state":"MANIPUR","circle":"North Eastern Circle","region":"North East - II Region"},{"pincode":"795146","office":"Kangchup Makhong B.O","district":"KANGPOKPI","state":"MANIPUR","circle":"North Eastern Circle","region":"North East - II Region"},{"pincode":"795146","office":"Karam Vaiphei B.O","district":"KANGPOKPI","state":"MANIPUR","circle":"North Eastern Circle","region":"North East - II Region"},{"pincode":"795146","office":"Khundong Khukhaiba B.O","district":"TAMENGLONG","state":"MANIPUR","circle":"North Eastern Circle","region":"North East - II Region"},{"pincode":"795130","office":"Chajing Pt II B.O","district":"IMPHAL WEST","state":"MANIPUR","circle":"North Eastern Circle","region":"North East - II Region"},{"pincode":"795130","office":"Lairabokhong B.O","district":"THOUBAL","state":"MANIPUR","circle":"North Eastern Circle","region":"North East - II Region"},{"pincode":"795130","office":"Phunalmaring B.O","district":"THOUBAL","state":"MANIPUR","circle":"North Eastern Circle","region":"North East - II Region"},{"pincode":"795130","office":"Turel Ahanbi B.O","district":"THOUBAL","state":"MANIPUR","circle":"North Eastern Circle","region":"North East - II Region"},{"pincode":"795145","office":"L Tangkhul B.O","district":"KAMJONG","state":"MANIPUR","circle":"North Eastern Circle","region":"North East - II Region"},{"pincode":"795145","office":"Siyamongjam B.O","district":"KANGPOKPI","state":"MANIPUR","circle":"North Eastern Circle","region":"North East - II Region"},{"pincode":"795145","office":"Bungpa Khullen","district":"IMPHAL EAST","state":"MANIPUR","circle":"North Eastern Circle","region":"North East - II Region"},{"pincode":"795145","office":"Kultuk","district":"IMPHAL EAST","state":"MANIPUR","circle":"North Eastern Circle","region":"North East - II Region"},{"pincode":"795145","office":"Ningchou","district":"IMPHAL EAST","state":"MANIPUR","circle":"North Eastern Circle","region":"North East - II Region"},{"pincode":"795145","office":"H. Goda","district":"IMPHAL EAST","state":"MANIPUR","circle":"North Eastern Circle","region":"North East - II Region"},{"pincode":"795145","office":"Loushing","district":"IMPHAL EAST","state":"MANIPUR","circle":"North Eastern Circle","region":"North East - II Region"},{"pincode":"795145","office":"Ashang Khullen","district":"IMPHAL EAST","state":"MANIPUR","circle":"North Eastern Circle","region":"North East - II Region"},{"pincode":"795124","office":"Leimatak B.O","district":"CHURACHANDPUR","state":"MANIPUR","circle":"North Eastern Circle","region":"North East - II Region"},{"pincode":"795003","office":"Mongsangei B.O","district":"IMPHAL WEST","state":"MANIPUR","circle":"North Eastern Circle","region":"North East - II Region"},{"pincode":"795002","office":"Ahallup B.O","district":"IMPHAL EAST","state":"MANIPUR","circle":"North Eastern Circle","region":"North East - II Region"},{"pincode":"795132","office":"Sekmaijin  Khunou Konuma B.O","district":"KAKCHING","state":"MANIPUR","circle":"North Eastern Circle","region":"North East - II Region"},{"pincode":"795132","office":"Sekmaijin Khunou Litan Makhong B.O","district":"KAKCHING","state":"MANIPUR","circle":"North Eastern Circle","region":"North East - II Region"},{"pincode":"795132","office":"Tera Khoidum Mayai Leikai B.O","district":"KAKCHING","state":"MANIPUR","circle":"North Eastern Circle","region":"North East - II Region"},{"pincode":"795133","office":"Khordak Ichin B.O","district":"CHURACHANDPUR","state":"MANIPUR","circle":"North Eastern Circle","region":"North East - II Region"},{"pincode":"795133","office":"Molphei Tampak B.O","district":"CHURACHANDPUR","state":"MANIPUR","circle":"North Eastern Circle","region":"North East - II Region"},{"pincode":"795133","office":"Saiton B.O","district":"BISHNUPUR","state":"MANIPUR","circle":"North Eastern Circle","region":"North East - II Region"},{"pincode":"795131","office":"Bongjoi B.O","district":"TENGNOUPAL","state":"MANIPUR","circle":"North Eastern Circle","region":"North East - II Region"},{"pincode":"795131","office":"Khudengthabi B.O","district":"TENGNOUPAL","state":"MANIPUR","circle":"North Eastern Circle","region":"North East - II Region"},{"pincode":"795131","office":"Maojam B.O","district":"TENGNOUPAL","state":"MANIPUR","circle":"North Eastern Circle","region":"North East - II Region"},{"pincode":"795131","office":"T- Bongmun B.O","district":"TENGNOUPAL","state":"MANIPUR","circle":"North Eastern Circle","region":"North East - II Region"},{"pincode":"795107","office":"Nurathel B.O","district":"KANGPOKPI","state":"MANIPUR","circle":"North Eastern Circle","region":"North East - II Region"},{"pincode":"795134","office":"Irengbam B.O","district":"BISHNUPUR","state":"MANIPUR","circle":"North Eastern Circle","region":"North East - II Region"},{"pincode":"795134","office":"Kabowakching B.O","district":"BISHNUPUR","state":"MANIPUR","circle":"North Eastern Circle","region":"North East - II Region"},{"pincode":"795134","office":"Oinam B.O","district":"BISHNUPUR","state":"MANIPUR","circle":"North Eastern Circle","region":"North East - II Region"},{"pincode":"795134","office":"Pukhrambam B.O","district":"BISHNUPUR","state":"MANIPUR","circle":"North Eastern Circle","region":"North East - II Region"},{"pincode":"795135","office":"Aimol Kodamphai B.O","district":"TENGNOUPAL","state":"MANIPUR","circle":"North Eastern Circle","region":"North East - II Region"},{"pincode":"795135","office":"Bongli B.O","district":"CHANDEL","state":"MANIPUR","circle":"North Eastern Circle","region":"North East - II Region"},{"pincode":"795135","office":"Chatong B.O","district":"CHANDEL","state":"MANIPUR","circle":"North Eastern Circle","region":"North East - II Region"},{"pincode":"795135","office":"Kambang Khunou B.O","district":"CHANDEL","state":"MANIPUR","circle":"North Eastern Circle","region":"North East - II Region"},{"pincode":"795135","office":"Khoibu B.O","district":"CHANDEL","state":"MANIPUR","circle":"North Eastern Circle","region":"North East - II Region"},{"pincode":"795114","office":"Haraorou B.O","district":"IMPHAL EAST","state":"MANIPUR","circle":"North Eastern Circle","region":"North East - II Region"},{"pincode":"795114","office":"Kairang Litan Makhong B.O","district":"IMPHAL EAST","state":"MANIPUR","circle":"North Eastern Circle","region":"North East - II Region"},{"pincode":"795114","office":"Liklikhong Bazar B.O","district":"IMPHAL EAST","state":"MANIPUR","circle":"North Eastern Circle","region":"North East - II Region"},{"pincode":"795114","office":"Mapao Keithelmanbi B.O","district":"IMPHAL EAST","state":"MANIPUR","circle":"North Eastern Circle","region":"North East - II Region"},{"pincode":"795114","office":"Satang B.O","district":"IMPHAL EAST","state":"MANIPUR","circle":"North Eastern Circle","region":"North East - II Region"},{"pincode":"795114","office":"Waiton B.O","district":"IMPHAL EAST","state":"MANIPUR","circle":"North Eastern Circle","region":"North East - II Region"},{"pincode":"795114","office":"Wakhen Phai B.O","district":"IMPHAL EAST","state":"MANIPUR","circle":"North Eastern Circle","region":"North East - II Region"},{"pincode":"795114","office":"Yumnam Khunou B.O","district":"IMPHAL EAST","state":"MANIPUR","circle":"North Eastern Circle","region":"North East - II Region"},{"pincode":"795117","office":"Mual Vaiphei B.O","district":"CHURACHANDPUR","state":"MANIPUR","circle":"North Eastern Circle","region":"North East - II Region"},{"pincode":"795117","office":"Tuitengphai B.O","district":"CHURACHANDPUR","state":"MANIPUR","circle":"North Eastern Circle","region":"North East - II Region"},{"pincode":"795118","office":"Galam B.O","district":"KANGPOKPI","state":"MANIPUR","circle":"North Eastern Circle","region":"North East - II Region"},{"pincode":"795118","office":"Ichaigojang B.O","district":"KANGPOKPI","state":"MANIPUR","circle":"North Eastern Circle","region":"North East - II Region"},{"pincode":"795118","office":"Makokchung B.O","district":"KANGPOKPI","state":"MANIPUR","circle":"North Eastern Circle","region":"North East - II Region"},{"pincode":"795118","office":"T. Awkhumbung B.O","district":"KANGPOKPI","state":"MANIPUR","circle":"North Eastern Circle","region":"North East - II Region"},{"pincode":"795136","office":"Awang Leikinthabi B.O","district":"IMPHAL WEST","state":"MANIPUR","circle":"North Eastern Circle","region":"North East - II Region"},{"pincode":"795139","office":"Lungthul B.O","district":"CHURACHANDPUR","state":"MANIPUR","circle":"North Eastern Circle","region":"North East - II Region"},{"pincode":"795139","office":"Songtal B.O","district":"CHURACHANDPUR","state":"MANIPUR","circle":"North Eastern Circle","region":"North East - II Region"},{"pincode":"795008","office":"Irilbung B.O","district":"IMPHAL EAST","state":"MANIPUR","circle":"North Eastern Circle","region":"North East - II Region"},{"pincode":"795008","office":"Kongba Bazar B.O","district":"IMPHAL EAST","state":"MANIPUR","circle":"North Eastern Circle","region":"North East - II Region"},{"pincode":"795008","office":"Oinam Thingel B.O","district":"IMPHAL WEST","state":"MANIPUR","circle":"North Eastern Circle","region":"North East - II Region"},{"pincode":"795144","office":"Khongdei Simphung B.O","district":"SENAPATI","state":"MANIPUR","circle":"North Eastern Circle","region":"North East - II Region"},{"pincode":"795101","office":"Khambathel B.O","district":"CHANDEL","state":"MANIPUR","circle":"North Eastern Circle","region":"North East - II Region"},{"pincode":"795101","office":"Mahou Tera B.O","district":"KAKCHING","state":"MANIPUR","circle":"North Eastern Circle","region":"North East - II Region"},{"pincode":"795104","office":"Tungjoy B.O","district":"SENAPATI","state":"MANIPUR","circle":"North Eastern Circle","region":"North East - II Region"},{"pincode":"795125","office":"Illeng B.O","district":"TAMENGLONG","state":"MANIPUR","circle":"North Eastern Circle","region":"North East - II Region"},{"pincode":"795125","office":"Kasanlong B.O","district":"TAMENGLONG","state":"MANIPUR","circle":"North Eastern Circle","region":"North East - II Region"},{"pincode":"795125","office":"Magulong B.O","district":"TAMENGLONG","state":"MANIPUR","circle":"North Eastern Circle","region":"North East - II Region"},{"pincode":"795141","office":"Bongoijang B.O","district":"TAMENGLONG","state":"MANIPUR","circle":"North Eastern Circle","region":"North East - II Region"},{"pincode":"795141","office":"Keikao B.O","district":"TAMENGLONG","state":"MANIPUR","circle":"North Eastern Circle","region":"North East - II Region"},{"pincode":"795141","office":"Namtiram B.O","district":"TAMENGLONG","state":"MANIPUR","circle":"North Eastern Circle","region":"North East - II Region"},{"pincode":"795141","office":"Songpram B.O","district":"TAMENGLONG","state":"MANIPUR","circle":"North Eastern Circle","region":"North East - II Region"},{"pincode":"795141","office":"Wairengba B.O","district":"TAMENGLONG","state":"MANIPUR","circle":"North Eastern Circle","region":"North East - II Region"},{"pincode":"795006","office":"Aibulon B.O","district":"PHERZAWL","state":"MANIPUR","circle":"North Eastern Circle","region":"North East - II Region"},{"pincode":"795143","office":"Hanship B.O","district":"PHERZAWL","state":"MANIPUR","circle":"North Eastern Circle","region":"North East - II Region"},{"pincode":"795006","office":"Leison B.O","district":"PHERZAWL","state":"MANIPUR","circle":"North Eastern Circle","region":"North East - II Region"},{"pincode":"795143","office":"Tualbung B.O","district":"PHERZAWL","state":"MANIPUR","circle":"North Eastern Circle","region":"North East - II Region"},{"pincode":"795138","office":"Irong Thokchom (TCD) B.O","district":"THOUBAL","state":"MANIPUR","circle":"North Eastern Circle","region":"North East - II Region"},{"pincode":"795138","office":"Thoubal Khunou B.O","district":"THOUBAL","state":"MANIPUR","circle":"North Eastern Circle","region":"North East - II Region"},{"pincode":"795140","office":"Laiphrakom B.O","district":"IMPHAL WEST","state":"MANIPUR","circle":"North Eastern Circle","region":"North East - II Region"},{"pincode":"795140","office":"Sangaiprou B.O","district":"IMPHAL WEST","state":"MANIPUR","circle":"North Eastern Circle","region":"North East - II Region"},{"pincode":"795142","office":"Ngaimu B.O","district":"UKHRUL","state":"MANIPUR","circle":"North Eastern Circle","region":"North East - II Region"},{"pincode":"795142","office":"Challow","district":"UKHRUL","state":"MANIPUR","circle":"North Eastern Circle","region":"North East - II Region"},{"pincode":"795148","office":"Khongjom B.O","district":"THOUBAL","state":"MANIPUR","circle":"North Eastern Circle","region":"North East - II Region"},{"pincode":"795148","office":"Phundrei B.O","district":"THOUBAL","state":"MANIPUR","circle":"North Eastern Circle","region":"North East - II Region"},{"pincode":"795148","office":"Sangaiyumpham B.O","district":"THOUBAL","state":"MANIPUR","circle":"North Eastern Circle","region":"North East - II Region"},{"pincode":"795148","office":"Tekcham B.O","district":"THOUBAL","state":"MANIPUR","circle":"North Eastern Circle","region":"North East - II Region"},{"pincode":"795009","office":"Haoreibi B.O","district":"IMPHAL WEST","state":"MANIPUR","circle":"North Eastern Circle","region":"North East - II Region"},{"pincode":"795009","office":"Irom Meijrao B.O","district":"IMPHAL WEST","state":"MANIPUR","circle":"North Eastern Circle","region":"North East - II Region"},{"pincode":"795009","office":"Yumnam Huidrom B.O.","district":"IMPHAL WEST","state":"MANIPUR","circle":"North Eastern Circle","region":"North East - II Region"},{"pincode":"795149","office":"Angtha B.O","district":"KANGPOKPI","state":"MANIPUR","circle":"North Eastern Circle","region":"North East - II Region"},{"pincode":"795149","office":"Bongbal Khullen B.O","district":"KANGPOKPI","state":"MANIPUR","circle":"North Eastern Circle","region":"North East - II Region"},{"pincode":"795149","office":"Kamu Tongam B.O","district":"KANGPOKPI","state":"MANIPUR","circle":"North Eastern Circle","region":"North East - II Region"},{"pincode":"795149","office":"Kasom Khullen B.O","district":"KANGPOKPI","state":"MANIPUR","circle":"North Eastern Circle","region":"North East - II Region"},{"pincode":"795149","office":"Soichang B.O","district":"KANGPOKPI","state":"MANIPUR","circle":"North Eastern Circle","region":"North East - II Region"},{"pincode":"795006","office":"THANLON BO","district":"PHERZAWL","state":"MANIPUR","circle":"North Eastern Circle","region":"North East - II Region"},{"pincode":"795127","office":"Chandel S.O","district":"CHANDEL","state":"MANIPUR","circle":"North Eastern Circle","region":"North East - II Region"},{"pincode":"795128","office":"Chingkonpang S.O","district":"CHURACHANDPUR","state":"MANIPUR","circle":"North Eastern Circle","region":"North East - II Region"},{"pincode":"795128","office":"Churachandpur S.O","district":"CHURACHANDPUR","state":"MANIPUR","circle":"North Eastern Circle","region":"North East - II Region"},{"pincode":"795145","office":"Litan S.O","district":"KAMJONG","state":"MANIPUR","circle":"North Eastern Circle","region":"North East - II Region"},{"pincode":"795150","office":"Mao S.O","district":"SENAPATI","state":"MANIPUR","circle":"North Eastern Circle","region":"North East - II Region"},{"pincode":"795132","office":"Mayang Imphal S.O","district":"KAKCHING","state":"MANIPUR","circle":"North Eastern Circle","region":"North East - II Region"},{"pincode":"795133","office":"Moirang S.O","district":"BISHNUPUR","state":"MANIPUR","circle":"North Eastern Circle","region":"North East - II Region"},{"pincode":"795107","office":"Motbung S.O","district":"KANGPOKPI","state":"MANIPUR","circle":"North Eastern Circle","region":"North East - II Region"},{"pincode":"795117","office":"Saikot S.O","district":"CHURACHANDPUR","state":"MANIPUR","circle":"North Eastern Circle","region":"North East - II Region"},{"pincode":"795139","office":"Singhat S.O","district":"CHURACHANDPUR","state":"MANIPUR","circle":"North Eastern Circle","region":"North East - II Region"},{"pincode":"795008","office":"Singjamei S.O","district":"IMPHAL WEST","state":"MANIPUR","circle":"North Eastern Circle","region":"North East - II Region"},{"pincode":"795141","office":"Tamenglong S.O","district":"TAMENGLONG","state":"MANIPUR","circle":"North Eastern Circle","region":"North East - II Region"},{"pincode":"795138","office":"Thoubal S.O","district":"THOUBAL","state":"MANIPUR","circle":"North Eastern Circle","region":"North East - II Region"},{"pincode":"795126","office":"Dolang Khunou B.O","district":"KANGPOKPI","state":"MANIPUR","circle":"North Eastern Circle","region":"North East - II Region"},{"pincode":"795126","office":"Khongbung B.O","district":"KANGPOKPI","state":"MANIPUR","circle":"North Eastern Circle","region":"North East - II Region"},{"pincode":"795126","office":"Ngarian B.O","district":"KANGPOKPI","state":"MANIPUR","circle":"North Eastern Circle","region":"North East - II Region"},{"pincode":"795011","office":"Potsangbam B.O","district":"BISHNUPUR","state":"MANIPUR","circle":"North Eastern Circle","region":"North East - II Region"},{"pincode":"795126","office":"Thangal B.O","district":"KANGPOKPI","state":"MANIPUR","circle":"North Eastern Circle","region":"North East - II Region"},{"pincode":"795126","office":"Zouzangtek B.O","district":"KANGPOKPI","state":"MANIPUR","circle":"North Eastern Circle","region":"North East - II Region"},{"pincode":"795101","office":"Aigejang B.O","district":"CHANDEL","state":"MANIPUR","circle":"North Eastern Circle","region":"North East - II Region"},{"pincode":"795102","office":"S.Lhangnom","district":"CHANDEL","state":"MANIPUR","circle":"North Eastern Circle","region":"North East - II Region"},{"pincode":"795102","office":"Tuinou","district":"CHANDEL","state":"MANIPUR","circle":"North Eastern Circle","region":"North East - II Region"},{"pincode":"795102","office":"Kanakangbung","district":"CHANDEL","state":"MANIPUR","circle":"North Eastern Circle","region":"North East - II Region"},{"pincode":"795102","office":"Songkong","district":"CHANDEL","state":"MANIPUR","circle":"North Eastern Circle","region":"North East - II Region"},{"pincode":"795102","office":"Molpibung","district":"CHANDEL","state":"MANIPUR","circle":"North Eastern Circle","region":"North East - II Region"},{"pincode":"795127","office":"Liwasarai B.O","district":"CHANDEL","state":"MANIPUR","circle":"North Eastern Circle","region":"North East - II Region"},{"pincode":"795127","office":"Kongpe(Kongpa)","district":"CHANDEL","state":"MANIPUR","circle":"North Eastern Circle","region":"North East - II Region"},{"pincode":"795127","office":"Phiran Khullen","district":"CHANDEL","state":"MANIPUR","circle":"North Eastern Circle","region":"North East - II Region"},{"pincode":"795128","office":"Kangvai Bazar B.O","district":"CHURACHANDPUR","state":"MANIPUR","circle":"North Eastern Circle","region":"North East - II Region"},{"pincode":"795128","office":"Khanpi B.O","district":"CHURACHANDPUR","state":"MANIPUR","circle":"North Eastern Circle","region":"North East - II Region"},{"pincode":"795128","office":"Lailong B.O","district":"CHURACHANDPUR","state":"MANIPUR","circle":"North Eastern Circle","region":"North East - II Region"},{"pincode":"795006","office":"Mualkoi B.O","district":"PHERZAWL","state":"MANIPUR","circle":"North Eastern Circle","region":"North East - II Region"},{"pincode":"795006","office":"Takvam B.O","district":"CHURACHANDPUR","state":"MANIPUR","circle":"North Eastern Circle","region":"North East - II Region"},{"pincode":"795128","office":"Tollen B.O","district":"CHURACHANDPUR","state":"MANIPUR","circle":"North Eastern Circle","region":"North East - II Region"},{"pincode":"795113","office":"Kongakhul B.O","district":"KANGPOKPI","state":"MANIPUR","circle":"North Eastern Circle","region":"North East - II Region"},{"pincode":"795113","office":"Konthoujam B.O","district":"IMPHAL WEST","state":"MANIPUR","circle":"North Eastern Circle","region":"North East - II Region"},{"pincode":"795113","office":"Natok Kabui B.O","district":"IMPHAL WEST","state":"MANIPUR","circle":"North Eastern Circle","region":"North East - II Region"},{"pincode":"795113","office":"Takyel Khongbal B.O","district":"IMPHAL WEST","state":"MANIPUR","circle":"North Eastern Circle","region":"North East - II Region"},{"pincode":"795116","office":"Chingmun B.O","district":"JIRIBAM","state":"MANIPUR","circle":"North Eastern Circle","region":"North East - II Region"},{"pincode":"795116","office":"Jakurdhar B.O","district":"JIRIBAM","state":"MANIPUR","circle":"North Eastern Circle","region":"North East - II Region"},{"pincode":"795116","office":"Lalkhal B.O","district":"JIRIBAM","state":"MANIPUR","circle":"North Eastern Circle","region":"North East - II Region"},{"pincode":"795116","office":"Ngamphabung B.O","district":"JIRIBAM","state":"MANIPUR","circle":"North Eastern Circle","region":"North East - II Region"},{"pincode":"795116","office":"Babukhal","district":"JIRIBAM","state":"MANIPUR","circle":"North Eastern Circle","region":"North East - II Region"},{"pincode":"795103","office":"Hiyanglam B.O","district":"THOUBAL","state":"MANIPUR","circle":"North Eastern Circle","region":"North East - II Region"},{"pincode":"795103","office":"Kakching Lamkhai B.O","district":"KAKCHING","state":"MANIPUR","circle":"North Eastern Circle","region":"North East - II Region"},{"pincode":"795103","office":"Keirak B.O","district":"THOUBAL","state":"MANIPUR","circle":"North Eastern Circle","region":"North East - II Region"},{"pincode":"795103","office":"Khudei Khunou B.O","district":"CHANDEL","state":"MANIPUR","circle":"North Eastern Circle","region":"North East - II Region"},{"pincode":"795103","office":"Purum Pantha B.O","district":"CHANDEL","state":"MANIPUR","circle":"North Eastern Circle","region":"North East - II Region"},{"pincode":"795103","office":"Tokpaching B.O","district":"KAKCHING","state":"MANIPUR","circle":"North Eastern Circle","region":"North East - II Region"},{"pincode":"795103","office":"Wabagai B.O","district":"KAKCHING","state":"MANIPUR","circle":"North Eastern Circle","region":"North East - II Region"},{"pincode":"795103","office":"Wangoo Laipham B.O","district":"KAKCHING","state":"MANIPUR","circle":"North Eastern Circle","region":"North East - II Region"},{"pincode":"795122","office":"Kheljang B.O","district":"KANGPOKPI","state":"MANIPUR","circle":"North Eastern Circle","region":"North East - II Region"},{"pincode":"795122","office":"Persian B.O","district":"KANGPOKPI","state":"MANIPUR","circle":"North Eastern Circle","region":"North East - II Region"},{"pincode":"795129","office":"Toribari B.O","district":"KANGPOKPI","state":"MANIPUR","circle":"North Eastern Circle","region":"North East - II Region"},{"pincode":"795007","office":"Lairouching B.O","district":"SENAPATI","state":"MANIPUR","circle":"North Eastern Circle","region":"North East - II Region"},{"pincode":"795010","office":"Heinoumakhong B.O","district":"IMPHAL EAST","state":"MANIPUR","circle":"North Eastern Circle","region":"North East - II Region"},{"pincode":"795010","office":"Sawombung B.O","district":"IMPHAL EAST","state":"MANIPUR","circle":"North Eastern Circle","region":"North East - II Region"},{"pincode":"795010","office":"Tangkhul Hungdung B.O","district":"KAMJONG","state":"MANIPUR","circle":"North Eastern Circle","region":"North East - II Region"},{"pincode":"795146","office":"Kangchup Hill (P) B.O","district":"KANGPOKPI","state":"MANIPUR","circle":"North Eastern Circle","region":"North East - II Region"},{"pincode":"795146","office":"Lairen Sajik B.O","district":"IMPHAL WEST","state":"MANIPUR","circle":"North Eastern Circle","region":"North East - II Region"},{"pincode":"795146","office":"Lamdeng B.O","district":"IMPHAL WEST","state":"MANIPUR","circle":"North Eastern Circle","region":"North East - II Region"},{"pincode":"795146","office":"Ponlian B.O","district":"KANGPOKPI","state":"MANIPUR","circle":"North Eastern Circle","region":"North East - II Region"},{"pincode":"795130","office":"Arapti B.O","district":"IMPHAL EAST","state":"MANIPUR","circle":"North Eastern Circle","region":"North East - II Region"},{"pincode":"795130","office":"Haoreibi Mayai Leikai B.O","district":"THOUBAL","state":"MANIPUR","circle":"North Eastern Circle","region":"North East - II Region"},{"pincode":"795145","office":"Maku B.O","district":"KAMJONG","state":"MANIPUR","circle":"North Eastern Circle","region":"North East - II Region"},{"pincode":"795145","office":"Maokot B.O","district":"KAMJONG","state":"MANIPUR","circle":"North Eastern Circle","region":"North East - II Region"},{"pincode":"795145","office":"Ningthi","district":"IMPHAL EAST","state":"MANIPUR","circle":"North Eastern Circle","region":"North East - II Region"},{"pincode":"795145","office":"T. Hundung Khullen","district":"IMPHAL EAST","state":"MANIPUR","circle":"North Eastern Circle","region":"North East - II Region"},{"pincode":"795145","office":"Sorbung","district":"IMPHAL EAST","state":"MANIPUR","circle":"North Eastern Circle","region":"North East - II Region"},{"pincode":"795145","office":"Itham","district":"IMPHAL EAST","state":"MANIPUR","circle":"North Eastern Circle","region":"North East - II Region"},{"pincode":"795145","office":"Bungpun","district":"IMPHAL EAST","state":"MANIPUR","circle":"North Eastern Circle","region":"North East - II Region"},{"pincode":"795124","office":"Sadukhoiroi B.O","district":"BISHNUPUR","state":"MANIPUR","circle":"North Eastern Circle","region":"North East - II Region"},{"pincode":"795002","office":"Heingang B.O","district":"IMPHAL EAST","state":"MANIPUR","circle":"North Eastern Circle","region":"North East - II Region"},{"pincode":"795150","office":"Pudunamei B.O","district":"SENAPATI","state":"MANIPUR","circle":"North Eastern Circle","region":"North East - II Region"},{"pincode":"795015","office":"Lakhamei B.O","district":"SENAPATI","state":"MANIPUR","circle":"North Eastern Circle","region":"North East - II Region"},{"pincode":"795015","office":"Phuba B.O","district":"SENAPATI","state":"MANIPUR","circle":"North Eastern Circle","region":"North East - II Region"},{"pincode":"795132","office":"Chabung Company B.O","district":"KAKCHING","state":"MANIPUR","circle":"North Eastern Circle","region":"North East - II Region"},{"pincode":"795132","office":"Heibong Makhong B.O","district":"KAKCHING","state":"MANIPUR","circle":"North Eastern Circle","region":"North East - II Region"},{"pincode":"795132","office":"Komlakhong B.O","district":"KAKCHING","state":"MANIPUR","circle":"North Eastern Circle","region":"North East - II Region"},{"pincode":"795132","office":"Laphupat B.O","district":"KAKCHING","state":"MANIPUR","circle":"North Eastern Circle","region":"North East - II Region"},{"pincode":"795132","office":"Loukok Mayai Leikai B.O","district":"KAKCHING","state":"MANIPUR","circle":"North Eastern Circle","region":"North East - II Region"},{"pincode":"795132","office":"Mayang Impahl Bengoon B.O","district":"KAKCHING","state":"MANIPUR","circle":"North Eastern Circle","region":"North East - II Region"},{"pincode":"795133","office":"Ethai Bazar B.O","district":"BISHNUPUR","state":"MANIPUR","circle":"North Eastern Circle","region":"North East - II Region"},{"pincode":"795133","office":"Kwakta B.O","district":"BISHNUPUR","state":"MANIPUR","circle":"North Eastern Circle","region":"North East - II Region"},{"pincode":"795133","office":"Nabil (P) B.O","district":"CHURACHANDPUR","state":"MANIPUR","circle":"North Eastern Circle","region":"North East - II Region"},{"pincode":"795133","office":"Tronglaobi B.O","district":"BISHNUPUR","state":"MANIPUR","circle":"North Eastern Circle","region":"North East - II Region"},{"pincode":"795133","office":"Tuisang Gothal B.O.","district":"BISHNUPUR","state":"MANIPUR","circle":"North Eastern Circle","region":"North East - II Region"},{"pincode":"795133","office":"Wangoo B.O","district":"BISHNUPUR","state":"MANIPUR","circle":"North Eastern Circle","region":"North East - II Region"},{"pincode":"795134","office":"Bungte Chiru B.O","district":"KANGPOKPI","state":"MANIPUR","circle":"North Eastern Circle","region":"North East - II Region"},{"pincode":"795134","office":"Khabi B.O","district":"IMPHAL WEST","state":"MANIPUR","circle":"North Eastern Circle","region":"North East - II Region"},{"pincode":"795134","office":"Leimapokpam B.O","district":"BISHNUPUR","state":"MANIPUR","circle":"North Eastern Circle","region":"North East - II Region"},{"pincode":"795134","office":"Naorem B.O","district":"BISHNUPUR","state":"MANIPUR","circle":"North Eastern Circle","region":"North East - II Region"},{"pincode":"795159","office":"Khongsang B.O","district":"NONEY","state":"MANIPUR","circle":"North Eastern Circle","region":"North East - II Region"},{"pincode":"795147","office":"Kambiron B.O","district":"NONEY","state":"MANIPUR","circle":"North Eastern Circle","region":"North East - II Region"},{"pincode":"795147","office":"Rengpang B.O","district":"NONEY","state":"MANIPUR","circle":"North Eastern Circle","region":"North East - II Region"},{"pincode":"795147","office":"Taikhang","district":"NONEY","state":"MANIPUR","circle":"North Eastern Circle","region":"North East - II Region"},{"pincode":"795147","office":"Sempat Naga","district":"NONEY","state":"MANIPUR","circle":"North Eastern Circle","region":"North East - II Region"},{"pincode":"795135","office":"Lamlong Khunou B.O","district":"TENGNOUPAL","state":"MANIPUR","circle":"North Eastern Circle","region":"North East - II Region"},{"pincode":"795135","office":"Leibi B.O","district":"TENGNOUPAL","state":"MANIPUR","circle":"North Eastern Circle","region":"North East - II Region"},{"pincode":"795135","office":"Molhang B.O","district":"CHANDEL","state":"MANIPUR","circle":"North Eastern Circle","region":"North East - II Region"},{"pincode":"795135","office":"Thamnapokpi B.O","district":"CHANDEL","state":"MANIPUR","circle":"North Eastern Circle","region":"North East - II Region"},{"pincode":"795114","office":"Pukhao Ahallup B.O","district":"IMPHAL EAST","state":"MANIPUR","circle":"North Eastern Circle","region":"North East - II Region"},{"pincode":"795005","office":"Moirang Kampu B.O","district":"IMPHAL EAST","state":"MANIPUR","circle":"North Eastern Circle","region":"North East - II Region"},{"pincode":"795117","office":"Tuikham B.O","district":"CHURACHANDPUR","state":"MANIPUR","circle":"North Eastern Circle","region":"North East - II Region"},{"pincode":"795117","office":"Sihjang(Srs)","district":"CHURACHANDPUR","state":"MANIPUR","circle":"North Eastern Circle","region":"North East - II Region"},{"pincode":"795118","office":"Bunglong B.O","district":"KANGPOKPI","state":"MANIPUR","circle":"North Eastern Circle","region":"North East - II Region"},{"pincode":"795118","office":"Phaikon B.O","district":"KANGPOKPI","state":"MANIPUR","circle":"North Eastern Circle","region":"North East - II Region"},{"pincode":"795139","office":"Kangkap B.O","district":"CHURACHANDPUR","state":"MANIPUR","circle":"North Eastern Circle","region":"North East - II Region"},{"pincode":"795139","office":"Mualmun B.O","district":"CHURACHANDPUR","state":"MANIPUR","circle":"North Eastern Circle","region":"North East - II Region"},{"pincode":"795139","office":"S. Munhoi","district":"CHURACHANDPUR","state":"MANIPUR","circle":"North Eastern Circle","region":"North East - II Region"},{"pincode":"795008","office":"Keirao Makting B.O","district":"IMPHAL EAST","state":"MANIPUR","circle":"North Eastern Circle","region":"North East - II Region"},{"pincode":"795005","office":"Kshetribangoon B.O","district":"IMPHAL EAST","state":"MANIPUR","circle":"North Eastern Circle","region":"North East - II Region"},{"pincode":"795008","office":"Uchekon B.O","district":"IMPHAL EAST","state":"MANIPUR","circle":"North Eastern Circle","region":"North East - II Region"},{"pincode":"795144","office":"Phadang B.O","district":"UKHRUL","state":"MANIPUR","circle":"North Eastern Circle","region":"North East - II Region"},{"pincode":"795101","office":"Shahumphai B.O","district":"CHANDEL","state":"MANIPUR","circle":"North Eastern Circle","region":"North East - II Region"},{"pincode":"795104","office":"Chawanamei B.O","district":"SENAPATI","state":"MANIPUR","circle":"North Eastern Circle","region":"North East - II Region"},{"pincode":"795104","office":"Liyai B.O","district":"SENAPATI","state":"MANIPUR","circle":"North Eastern Circle","region":"North East - II Region"},{"pincode":"795125","office":"Khumphung B.O","district":"TAMENGLONG","state":"MANIPUR","circle":"North Eastern Circle","region":"North East - II Region"},{"pincode":"795125","office":"Lenglong B.O","district":"TAMENGLONG","state":"MANIPUR","circle":"North Eastern Circle","region":"North East - II Region"},{"pincode":"795125","office":"New Lambala B.O","district":"TAMENGLONG","state":"MANIPUR","circle":"North Eastern Circle","region":"North East - II Region"},{"pincode":"795141","office":"Tharon B.O","district":"TAMENGLONG","state":"MANIPUR","circle":"North Eastern Circle","region":"North East - II Region"},{"pincode":"795141","office":"Farmland B.O.","district":"TAMENGLONG","state":"MANIPUR","circle":"North Eastern Circle","region":"North East - II Region"},{"pincode":"795141","office":"Inem","district":"TAMENGLONG","state":"MANIPUR","circle":"North Eastern Circle","region":"North East - II Region"},{"pincode":"795143","office":"Pherzawl B.O","district":"PHERZAWL","state":"MANIPUR","circle":"North Eastern Circle","region":"North East - II Region"},{"pincode":"795138","office":"Athokpam Khunou B.O","district":"THOUBAL","state":"MANIPUR","circle":"North Eastern Circle","region":"North East - II Region"},{"pincode":"795138","office":"Haokha B.O","district":"THOUBAL","state":"MANIPUR","circle":"North Eastern Circle","region":"North East - II Region"},{"pincode":"795138","office":"Kshetri Leikai B.O","district":"THOUBAL","state":"MANIPUR","circle":"North Eastern Circle","region":"North East - II Region"},{"pincode":"795149","office":"Lembakhul B.O","district":"KANGPOKPI","state":"MANIPUR","circle":"North Eastern Circle","region":"North East - II Region"},{"pincode":"795138","office":"Poirou Khongjil B.O","district":"THOUBAL","state":"MANIPUR","circle":"North Eastern Circle","region":"North East - II Region"},{"pincode":"795138","office":"Sabaltongba B.O","district":"THOUBAL","state":"MANIPUR","circle":"North Eastern Circle","region":"North East - II Region"},{"pincode":"795138","office":"Thoubal Ningombam B.O","district":"THOUBAL","state":"MANIPUR","circle":"North Eastern Circle","region":"North East - II Region"},{"pincode":"795140","office":"Yarrow Meitram B.O","district":"IMPHAL WEST","state":"MANIPUR","circle":"North Eastern Circle","region":"North East - II Region"},{"pincode":"795142","office":"Chamu B.O","district":"UKHRUL","state":"MANIPUR","circle":"North Eastern Circle","region":"North East - II Region"},{"pincode":"795142","office":"Chither (P) B.O","district":"UKHRUL","state":"MANIPUR","circle":"North Eastern Circle","region":"North East - II Region"},{"pincode":"795142","office":"Jessami Edno B.O","district":"UKHRUL","state":"MANIPUR","circle":"North Eastern Circle","region":"North East - II Region"},{"pincode":"795142","office":"Kagai B.O","district":"UKHRUL","state":"MANIPUR","circle":"North Eastern Circle","region":"North East - II Region"},{"pincode":"795142","office":"Khamasom B.O","district":"UKHRUL","state":"MANIPUR","circle":"North Eastern Circle","region":"North East - II Region"},{"pincode":"795142","office":"Kharasom B.O","district":"UKHRUL","state":"MANIPUR","circle":"North Eastern Circle","region":"North East - II Region"},{"pincode":"795142","office":"Khayang B.O","district":"UKHRUL","state":"MANIPUR","circle":"North Eastern Circle","region":"North East - II Region"},{"pincode":"795142","office":"Lamlang Gate B.O","district":"UKHRUL","state":"MANIPUR","circle":"North Eastern Circle","region":"North East - II Region"},{"pincode":"795142","office":"Nungbi Khunou B.O","district":"UKHRUL","state":"MANIPUR","circle":"North Eastern Circle","region":"North East - II Region"},{"pincode":"795142","office":"Nungshang B.O","district":"UKHRUL","state":"MANIPUR","circle":"North Eastern Circle","region":"North East - II Region"},{"pincode":"795142","office":"Phungcham B.O","district":"UKHRUL","state":"MANIPUR","circle":"North Eastern Circle","region":"North East - II Region"},{"pincode":"795142","office":"Poii B.O","district":"UKHRUL","state":"MANIPUR","circle":"North Eastern Circle","region":"North East - II Region"},{"pincode":"795142","office":"Pushing B.O","district":"UKHRUL","state":"MANIPUR","circle":"North Eastern Circle","region":"North East - II Region"},{"pincode":"795142","office":"T.C. Compound B.O","district":"UKHRUL","state":"MANIPUR","circle":"North Eastern Circle","region":"North East - II Region"},{"pincode":"795142","office":"Tuinem B.O","district":"UKHRUL","state":"MANIPUR","circle":"North Eastern Circle","region":"North East - II Region"},{"pincode":"795148","office":"Cherapur B.O","district":"THOUBAL","state":"MANIPUR","circle":"North Eastern Circle","region":"North East - II Region"},{"pincode":"795148","office":"Heirok Part 2 B.O","district":"THOUBAL","state":"MANIPUR","circle":"North Eastern Circle","region":"North East - II Region"},{"pincode":"795148","office":"Sapam Salai B.O","district":"THOUBAL","state":"MANIPUR","circle":"North Eastern Circle","region":"North East - II Region"},{"pincode":"795148","office":"Tentha B.O","district":"THOUBAL","state":"MANIPUR","circle":"North Eastern Circle","region":"North East - II Region"},{"pincode":"795148","office":"Tollen B.O","district":"THOUBAL","state":"MANIPUR","circle":"North Eastern Circle","region":"North East - II Region"},{"pincode":"795009","office":"Hiyangthang B.O","district":"IMPHAL WEST","state":"MANIPUR","circle":"North Eastern Circle","region":"North East - II Region"},{"pincode":"795009","office":"Kodompokpi B.O","district":"IMPHAL WEST","state":"MANIPUR","circle":"North Eastern Circle","region":"North East - II Region"},{"pincode":"795009","office":"Paobitek B.O","district":"IMPHAL WEST","state":"MANIPUR","circle":"North Eastern Circle","region":"North East - II Region"},{"pincode":"795149","office":"Andro B.O","district":"KANGPOKPI","state":"MANIPUR","circle":"North Eastern Circle","region":"North East - II Region"},{"pincode":"795149","office":"Heinganglok B.O","district":"KANGPOKPI","state":"MANIPUR","circle":"North Eastern Circle","region":"North East - II Region"},{"pincode":"795149","office":"Irong Tangkhul B.O","district":"KANGPOKPI","state":"MANIPUR","circle":"North Eastern Circle","region":"North East - II Region"},{"pincode":"795001","office":"D.M College S.O","district":"IMPHAL WEST","state":"MANIPUR","circle":"North Eastern Circle","region":"North East - II Region"},{"pincode":"795129","office":"Kangpokpi S.O","district":"KANGPOKPI","state":"MANIPUR","circle":"North Eastern Circle","region":"North East - II Region"},{"pincode":"795130","office":"Lilong S.O","district":"THOUBAL","state":"MANIPUR","circle":"North Eastern Circle","region":"North East - II Region"},{"pincode":"795134","office":"Nambol S.O","district":"BISHNUPUR","state":"MANIPUR","circle":"North Eastern Circle","region":"North East - II Region"},{"pincode":"795135","office":"Pallel S.O","district":"KAKCHING","state":"MANIPUR","circle":"North Eastern Circle","region":"North East - II Region"},{"pincode":"795112","office":"T Waichong S.O","district":"KANGPOKPI","state":"MANIPUR","circle":"North Eastern Circle","region":"North East - II Region"},{"pincode":"795011","office":"Ningthoukhong SO","district":"BISHNUPUR","state":"MANIPUR","circle":"North Eastern Circle","region":"North East - II Region"},{"pincode":"795011","office":"Haotak Khullen B.O","district":"CHURACHANDPUR","state":"MANIPUR","circle":"North Eastern Circle","region":"North East - II Region"},{"pincode":"795126","office":"Ngaikhong Khullen B.O","district":"KANGPOKPI","state":"MANIPUR","circle":"North Eastern Circle","region":"North East - II Region"},{"pincode":"795011","office":"Phubala B.O","district":"BISHNUPUR","state":"MANIPUR","circle":"North Eastern Circle","region":"North East - II Region"},{"pincode":"795011","office":"Thinungei B.O","district":"BISHNUPUR","state":"MANIPUR","circle":"North Eastern Circle","region":"North East - II Region"},{"pincode":"795126","office":"Lamlanghupi BO","district":"KANGPOKPI","state":"MANIPUR","circle":"North Eastern Circle","region":"North East - II Region"},{"pincode":"795102","office":"Anal Khullen B.O","district":"CHANDEL","state":"MANIPUR","circle":"North Eastern Circle","region":"North East - II Region"},{"pincode":"795102","office":"Sajik Tampak B.O","district":"CHANDEL","state":"MANIPUR","circle":"North Eastern Circle","region":"North East - II Region"},{"pincode":"795101","office":"Sehao B.O","district":"CHANDEL","state":"MANIPUR","circle":"North Eastern Circle","region":"North East - II Region"},{"pincode":"795101","office":"Semol B.O","district":"CHANDEL","state":"MANIPUR","circle":"North Eastern Circle","region":"North East - II Region"},{"pincode":"795101","office":"Zoupi B.O","district":"CHANDEL","state":"MANIPUR","circle":"North Eastern Circle","region":"North East - II Region"},{"pincode":"795102","office":"Khumkot","district":"CHANDEL","state":"MANIPUR","circle":"North Eastern Circle","region":"North East - II Region"},{"pincode":"795127","office":"Oklu","district":"CHANDEL","state":"MANIPUR","circle":"North Eastern Circle","region":"North East - II Region"},{"pincode":"795127","office":"Khongjon","district":"CHANDEL","state":"MANIPUR","circle":"North Eastern Circle","region":"North East - II Region"},{"pincode":"795127","office":"Challong","district":"CHANDEL","state":"MANIPUR","circle":"North Eastern Circle","region":"North East - II Region"},{"pincode":"795128","office":"Chehjang B.O","district":"CHURACHANDPUR","state":"MANIPUR","circle":"North Eastern Circle","region":"North East - II Region"},{"pincode":"795128","office":"Chothemunpi B.O","district":"CHURACHANDPUR","state":"MANIPUR","circle":"North Eastern Circle","region":"North East - II Region"},{"pincode":"795006","office":"Geljang B.O","district":"CHURACHANDPUR","state":"MANIPUR","circle":"North Eastern Circle","region":"North East - II Region"},{"pincode":"795128","office":"Lungshung B.O","district":"CHURACHANDPUR","state":"MANIPUR","circle":"North Eastern Circle","region":"North East - II Region"},{"pincode":"795128","office":"Sangphou B.O","district":"CHURACHANDPUR","state":"MANIPUR","circle":"North Eastern Circle","region":"North East - II Region"},{"pincode":"795128","office":"Thangshi B.O","district":"CHURACHANDPUR","state":"MANIPUR","circle":"North Eastern Circle","region":"North East - II Region"},{"pincode":"795128","office":"Thinkew B.O","district":"CHURACHANDPUR","state":"MANIPUR","circle":"North Eastern Circle","region":"North East - II Region"},{"pincode":"795128","office":"Tulaphei B.O","district":"CHURACHANDPUR","state":"MANIPUR","circle":"North Eastern Circle","region":"North East - II Region"},{"pincode":"795128","office":"Kaprang","district":"CHURACHANDPUR","state":"MANIPUR","circle":"North Eastern Circle","region":"North East - II Region"},{"pincode":"795113","office":"Maklang Bazar B.O","district":"IMPHAL WEST","state":"MANIPUR","circle":"North Eastern Circle","region":"North East - II Region"},{"pincode":"795113","office":"Patsoi Part II B.O","district":"IMPHAL WEST","state":"MANIPUR","circle":"North Eastern Circle","region":"North East - II Region"},{"pincode":"795113","office":"Tharoijam B.O","district":"IMPHAL WEST","state":"MANIPUR","circle":"North Eastern Circle","region":"North East - II Region"},{"pincode":"795115","office":"Keimai B.O","district":"JIRIBAM","state":"MANIPUR","circle":"North Eastern Circle","region":"North East - II Region"},{"pincode":"795116","office":"Longpi B.O","district":"JIRIBAM","state":"MANIPUR","circle":"North Eastern Circle","region":"North East - II Region"},{"pincode":"795116","office":"Sonapur B.O","district":"JIRIBAM","state":"MANIPUR","circle":"North Eastern Circle","region":"North East - II Region"},{"pincode":"795116","office":"Tuitengmun B.O","district":"JIRIBAM","state":"MANIPUR","circle":"North Eastern Circle","region":"North East - II Region"},{"pincode":"795103","office":"Elangkhangpokpi B.O","district":"THOUBAL","state":"MANIPUR","circle":"North Eastern Circle","region":"North East - II Region"},{"pincode":"795103","office":"K M College B.O","district":"THOUBAL","state":"MANIPUR","circle":"North Eastern Circle","region":"North East - II Region"},{"pincode":"795103","office":"Sora B.O","district":"KAKCHING","state":"MANIPUR","circle":"North Eastern Circle","region":"North East - II Region"},{"pincode":"795122","office":"Chandraman B.O","district":"KANGPOKPI","state":"MANIPUR","circle":"North Eastern Circle","region":"North East - II Region"},{"pincode":"795122","office":"Thanamba B.O","district":"KANGPOKPI","state":"MANIPUR","circle":"North Eastern Circle","region":"North East - II Region"},{"pincode":"795129","office":"Hengbung B.O","district":"KANGPOKPI","state":"MANIPUR","circle":"North Eastern Circle","region":"North East - II Region"},{"pincode":"795129","office":"Taphou B.O","district":"KANGPOKPI","state":"MANIPUR","circle":"North Eastern Circle","region":"North East - II Region"},{"pincode":"795007","office":"Yangkhullen B.O","district":"SENAPATI","state":"MANIPUR","circle":"North Eastern Circle","region":"North East - II Region"},{"pincode":"795010","office":"Huidrom B.O","district":"IMPHAL EAST","state":"MANIPUR","circle":"North Eastern Circle","region":"North East - II Region"},{"pincode":"795010","office":"Kameng Kakching B.O","district":"IMPHAL EAST","state":"MANIPUR","circle":"North Eastern Circle","region":"North East - II Region"},{"pincode":"795010","office":"Nongada B.O","district":"IMPHAL EAST","state":"MANIPUR","circle":"North Eastern Circle","region":"North East - II Region"},{"pincode":"795004","office":"Iroisemaba B.O","district":"IMPHAL WEST","state":"MANIPUR","circle":"North Eastern Circle","region":"North East - II Region"},{"pincode":"795146","office":"Oktan B.O","district":"NONEY","state":"MANIPUR","circle":"North Eastern Circle","region":"North East - II Region"},{"pincode":"795130","office":"Thiyamkonjil B.O","district":"THOUBAL","state":"MANIPUR","circle":"North Eastern Circle","region":"North East - II Region"},{"pincode":"795145","office":"Leiting B.O","district":"KAMJONG","state":"MANIPUR","circle":"North Eastern Circle","region":"North East - II Region"},{"pincode":"795145","office":"Sanakeithel B.O","district":"UKHRUL","state":"MANIPUR","circle":"North Eastern Circle","region":"North East - II Region"},{"pincode":"795145","office":"Yangangpokpi B.O","district":"IMPHAL EAST","state":"MANIPUR","circle":"North Eastern Circle","region":"North East - II Region"},{"pincode":"795145","office":"Litan Sareikhong","district":"IMPHAL EAST","state":"MANIPUR","circle":"North Eastern Circle","region":"North East - II Region"},{"pincode":"795145","office":"Kongkan","district":"IMPHAL EAST","state":"MANIPUR","circle":"North Eastern Circle","region":"North East - II Region"},{"pincode":"795145","office":"Molvailup","district":"IMPHAL EAST","state":"MANIPUR","circle":"North Eastern Circle","region":"North East - II Region"},{"pincode":"795145","office":"Phaikok","district":"IMPHAL EAST","state":"MANIPUR","circle":"North Eastern Circle","region":"North East - II Region"},{"pincode":"795145","office":"Yentem","district":"IMPHAL EAST","state":"MANIPUR","circle":"North Eastern Circle","region":"North East - II Region"},{"pincode":"795145","office":"Phaimol","district":"IMPHAL EAST","state":"MANIPUR","circle":"North Eastern Circle","region":"North East - II Region"},{"pincode":"795145","office":"K. Ashang Khullen","district":"IMPHAL EAST","state":"MANIPUR","circle":"North Eastern Circle","region":"North East - II Region"},{"pincode":"795124","office":"Charoi Khullel B.O","district":"CHURACHANDPUR","state":"MANIPUR","circle":"North Eastern Circle","region":"North East - II Region"},{"pincode":"795124","office":"Jiban Nager B.O","district":"CHURACHANDPUR","state":"MANIPUR","circle":"North Eastern Circle","region":"North East - II Region"},{"pincode":"795003","office":"Canchipur (TCD) B.O","district":"IMPHAL WEST","state":"MANIPUR","circle":"North Eastern Circle","region":"North East - II Region"},{"pincode":"795003","office":"Langthabal B.O","district":"IMPHAL WEST","state":"MANIPUR","circle":"North Eastern Circle","region":"North East - II Region"},{"pincode":"795003","office":"Ningombam B.O","district":"IMPHAL WEST","state":"MANIPUR","circle":"North Eastern Circle","region":"North East - II Region"},{"pincode":"795002","office":"Konthakhabam B.O","district":"IMPHAL WEST","state":"MANIPUR","circle":"North Eastern Circle","region":"North East - II Region"},{"pincode":"795002","office":"Loitang Leikinthabi B.O","district":"IMPHAL WEST","state":"MANIPUR","circle":"North Eastern Circle","region":"North East - II Region"},{"pincode":"795150","office":"Pfukhro B.O","district":"SENAPATI","state":"MANIPUR","circle":"North Eastern Circle","region":"North East - II Region"},{"pincode":"795015","office":"Maiba B.O","district":"SENAPATI","state":"MANIPUR","circle":"North Eastern Circle","region":"North East - II Region"},{"pincode":"795132","office":"Khelakhong B.O","district":"KAKCHING","state":"MANIPUR","circle":"North Eastern Circle","region":"North East - II Region"},{"pincode":"795132","office":"Mutum Phibou B.O","district":"KAKCHING","state":"MANIPUR","circle":"North Eastern Circle","region":"North East - II Region"},{"pincode":"795132","office":"Santhel B.O","district":"KAKCHING","state":"MANIPUR","circle":"North Eastern Circle","region":"North East - II Region"},{"pincode":"795132","office":"Uchiwa Wangban B.O","district":"KAKCHING","state":"MANIPUR","circle":"North Eastern Circle","region":"North East - II Region"},{"pincode":"795132","office":"Hayel Hangoon BO","district":"KAKCHING","state":"MANIPUR","circle":"North Eastern Circle","region":"North East - II Region"},{"pincode":"795133","office":"Dopkon B.O","district":"CHURACHANDPUR","state":"MANIPUR","circle":"North Eastern Circle","region":"North East - II Region"},{"pincode":"795133","office":"Gelmol B.O","district":"CHURACHANDPUR","state":"MANIPUR","circle":"North Eastern Circle","region":"North East - II Region"},{"pincode":"795133","office":"Kangathei B.O","district":"CHURACHANDPUR","state":"MANIPUR","circle":"North Eastern Circle","region":"North East - II Region"},{"pincode":"795133","office":"Phousabung B.O","district":"CHURACHANDPUR","state":"MANIPUR","circle":"North Eastern Circle","region":"North East - II Region"},{"pincode":"795133","office":"Terakhongshangbi B.O","district":"BISHNUPUR","state":"MANIPUR","circle":"North Eastern Circle","region":"North East - II Region"},{"pincode":"795133","office":"Thanga(P) B.O","district":"BISHNUPUR","state":"MANIPUR","circle":"North Eastern Circle","region":"North East - II Region"},{"pincode":"795133","office":"Wangoo Tera B.O","district":"BISHNUPUR","state":"MANIPUR","circle":"North Eastern Circle","region":"North East - II Region"},{"pincode":"795131","office":"Changpol B.O","district":"TENGNOUPAL","state":"MANIPUR","circle":"North Eastern Circle","region":"North East - II Region"},{"pincode":"795131","office":"Gamphajal B.O","district":"TENGNOUPAL","state":"MANIPUR","circle":"North Eastern Circle","region":"North East - II Region"},{"pincode":"795131","office":"Molchamedbo B.O","district":"TENGNOUPAL","state":"MANIPUR","circle":"North Eastern Circle","region":"North East - II Region"},{"pincode":"795131","office":"T-minou B.O","district":"TENGNOUPAL","state":"MANIPUR","circle":"North Eastern Circle","region":"North East - II Region"},{"pincode":"795131","office":"Yangoulen B.O","district":"TENGNOUPAL","state":"MANIPUR","circle":"North Eastern Circle","region":"North East - II Region"},{"pincode":"795134","office":"Heikrujam B.O","district":"IMPHAL WEST","state":"MANIPUR","circle":"North Eastern Circle","region":"North East - II Region"},{"pincode":"795134","office":"Kangmong B.O","district":"IMPHAL WEST","state":"MANIPUR","circle":"North Eastern Circle","region":"North East - II Region"},{"pincode":"795134","office":"Langpok B.O","district":"BISHNUPUR","state":"MANIPUR","circle":"North Eastern Circle","region":"North East - II Region"},{"pincode":"795134","office":"Leimaram B.O","district":"BISHNUPUR","state":"MANIPUR","circle":"North Eastern Circle","region":"North East - II Region"},{"pincode":"795134","office":"Maibam B.O","district":"IMPHAL WEST","state":"MANIPUR","circle":"North Eastern Circle","region":"North East - II Region"},{"pincode":"795134","office":"Utlou B.O","district":"BISHNUPUR","state":"MANIPUR","circle":"North Eastern Circle","region":"North East - II Region"},{"pincode":"795159","office":"Charoi Tupul B.O","district":"NONEY","state":"MANIPUR","circle":"North Eastern Circle","region":"North East - II Region"},{"pincode":"795159","office":"Nungtek B.O","district":"NONEY","state":"MANIPUR","circle":"North Eastern Circle","region":"North East - II Region"},{"pincode":"795126","office":"Khoupum B.O","district":"KANGPOKPI","state":"MANIPUR","circle":"North Eastern Circle","region":"North East - II Region"},{"pincode":"795147","office":"Mukti Khullen B.O","district":"NONEY","state":"MANIPUR","circle":"North Eastern Circle","region":"North East - II Region"},{"pincode":"795147","office":"Nungnang B.O","district":"NONEY","state":"MANIPUR","circle":"North Eastern Circle","region":"North East - II Region"},{"pincode":"795147","office":"Maokot","district":"NONEY","state":"MANIPUR","circle":"North Eastern Circle","region":"North East - II Region"},{"pincode":"795135","office":"Kharou Khullen B.O","district":"CHANDEL","state":"MANIPUR","circle":"North Eastern Circle","region":"North East - II Region"},{"pincode":"795135","office":"Khudei Khullen B.O","district":"CHANDEL","state":"MANIPUR","circle":"North Eastern Circle","region":"North East - II Region"},{"pincode":"795135","office":"Khunbi B.O","district":"CHANDEL","state":"MANIPUR","circle":"North Eastern Circle","region":"North East - II Region"},{"pincode":"795135","office":"Laiching Khongsang B.O","district":"TENGNOUPAL","state":"MANIPUR","circle":"North Eastern Circle","region":"North East - II Region"},{"pincode":"795135","office":"Minou Khunjao B.O","district":"TENGNOUPAL","state":"MANIPUR","circle":"North Eastern Circle","region":"North East - II Region"},{"pincode":"795135","office":"Saivom B.O","district":"TENGNOUPAL","state":"MANIPUR","circle":"North Eastern Circle","region":"North East - II Region"},{"pincode":"795114","office":"Dolaithabi B.O","district":"KANGPOKPI","state":"MANIPUR","circle":"North Eastern Circle","region":"North East - II Region"},{"pincode":"795005","office":"Awang Kongpal B.O","district":"IMPHAL EAST","state":"MANIPUR","circle":"North Eastern Circle","region":"North East - II Region"},{"pincode":"795005","office":"Khurai Khongnang Makhong B.O","district":"IMPHAL EAST","state":"MANIPUR","circle":"North Eastern Circle","region":"North East - II Region"},{"pincode":"795117","office":"Tuining B.O","district":"CHURACHANDPUR","state":"MANIPUR","circle":"North Eastern Circle","region":"North East - II Region"},{"pincode":"795118","office":"Mutukhong B.O","district":"KANGPOKPI","state":"MANIPUR","circle":"North Eastern Circle","region":"North East - II Region"},{"pincode":"795118","office":"Pangjang B.O","district":"KANGPOKPI","state":"MANIPUR","circle":"North Eastern Circle","region":"North East - II Region"},{"pincode":"795118","office":"Zelengphai B.O","district":"KANGPOKPI","state":"MANIPUR","circle":"North Eastern Circle","region":"North East - II Region"},{"pincode":"795136","office":"Luwangsangol B.O","district":"KANGPOKPI","state":"MANIPUR","circle":"North Eastern Circle","region":"North East - II Region"},{"pincode":"795136","office":"Potsangbam Khoirou B.O","district":"IMPHAL WEST","state":"MANIPUR","circle":"North Eastern Circle","region":"North East - II Region"},{"pincode":"795139","office":"Lama Camp B.O","district":"CHURACHANDPUR","state":"MANIPUR","circle":"North Eastern Circle","region":"North East - II Region"},{"pincode":"795139","office":"Lungchin B.O","district":"CHURACHANDPUR","state":"MANIPUR","circle":"North Eastern Circle","region":"North East - II Region"},{"pincode":"795008","office":"Keirao Bitra Salam B.O","district":"IMPHAL EAST","state":"MANIPUR","circle":"North Eastern Circle","region":"North East - II Region"},{"pincode":"795008","office":"Laiphrok Maring B.O","district":"IMPHAL EAST","state":"MANIPUR","circle":"North Eastern Circle","region":"North East - II Region"},{"pincode":"795105","office":"Ngari Khullen B.O","district":"SENAPATI","state":"MANIPUR","circle":"North Eastern Circle","region":"North East - II Region"},{"pincode":"795101","office":"Longja B.O","district":"CHANDEL","state":"MANIPUR","circle":"North Eastern Circle","region":"North East - II Region"},{"pincode":"795112","office":"Gelnal B.O","district":"KANGPOKPI","state":"MANIPUR","circle":"North Eastern Circle","region":"North East - II Region"},{"pincode":"795104","office":"Laii B.O","district":"SENAPATI","state":"MANIPUR","circle":"North Eastern Circle","region":"North East - II Region"},{"pincode":"795104","office":"Phaibung Khullen B.O","district":"SENAPATI","state":"MANIPUR","circle":"North Eastern Circle","region":"North East - II Region"},{"pincode":"795141","office":"Atengba B.O","district":"TAMENGLONG","state":"MANIPUR","circle":"North Eastern Circle","region":"North East - II Region"},{"pincode":"795141","office":"Bhalok B.O","district":"TAMENGLONG","state":"MANIPUR","circle":"North Eastern Circle","region":"North East - II Region"},{"pincode":"795141","office":"Dailong B.O","district":"TAMENGLONG","state":"MANIPUR","circle":"North Eastern Circle","region":"North East - II Region"},{"pincode":"795141","office":"Khongjaron B.O","district":"TAMENGLONG","state":"MANIPUR","circle":"North Eastern Circle","region":"North East - II Region"},{"pincode":"795141","office":"Taningjam","district":"TAMENGLONG","state":"MANIPUR","circle":"North Eastern Circle","region":"North East - II Region"},{"pincode":"795141","office":"J. Pabram","district":"TAMENGLONG","state":"MANIPUR","circle":"North Eastern Circle","region":"North East - II Region"},{"pincode":"795141","office":"Thingou","district":"TAMENGLONG","state":"MANIPUR","circle":"North Eastern Circle","region":"North East - II Region"},{"pincode":"795006","office":"Bukpi B.O","district":"PHERZAWL","state":"MANIPUR","circle":"North Eastern Circle","region":"North East - II Region"},{"pincode":"795006","office":"Bungpilon B.O","district":"PHERZAWL","state":"MANIPUR","circle":"North Eastern Circle","region":"North East - II Region"},{"pincode":"795006","office":"Leijangphai B.O","district":"PHERZAWL","state":"MANIPUR","circle":"North Eastern Circle","region":"North East - II Region"},{"pincode":"795006","office":"Singjawl B.O","district":"PHERZAWL","state":"MANIPUR","circle":"North Eastern Circle","region":"North East - II Region"},{"pincode":"795006","office":"Taithu B.O","district":"PHERZAWL","state":"MANIPUR","circle":"North Eastern Circle","region":"North East - II Region"},{"pincode":"795006","office":"Tipaimukh (P) B.O","district":"PHERZAWL","state":"MANIPUR","circle":"North Eastern Circle","region":"North East - II Region"},{"pincode":"795138","office":"Kiyam Shiphai B.O","district":"THOUBAL","state":"MANIPUR","circle":"North Eastern Circle","region":"North East - II Region"},{"pincode":"795138","office":"Moijing B.O","district":"THOUBAL","state":"MANIPUR","circle":"North Eastern Circle","region":"North East - II Region"},{"pincode":"795138","office":"Thoubal Leisangthem B.O","district":"THOUBAL","state":"MANIPUR","circle":"North Eastern Circle","region":"North East - II Region"},{"pincode":"795138","office":"Wangbal B.O","district":"THOUBAL","state":"MANIPUR","circle":"North Eastern Circle","region":"North East - II Region"},{"pincode":"795142","office":"Chingjaroiedbo B.O","district":"UKHRUL","state":"MANIPUR","circle":"North Eastern Circle","region":"North East - II Region"},{"pincode":"795142","office":"Huining B.O","district":"UKHRUL","state":"MANIPUR","circle":"North Eastern Circle","region":"North East - II Region"},{"pincode":"795142","office":"Mapum B.O","district":"UKHRUL","state":"MANIPUR","circle":"North Eastern Circle","region":"North East - II Region"},{"pincode":"795142","office":"Paorei B.O","district":"UKHRUL","state":"MANIPUR","circle":"North Eastern Circle","region":"North East - II Region"},{"pincode":"795142","office":"Tushem B.O","district":"UKHRUL","state":"MANIPUR","circle":"North Eastern Circle","region":"North East - II Region"},{"pincode":"795142","office":"Wahong","district":"UKHRUL","state":"MANIPUR","circle":"North Eastern Circle","region":"North East - II Region"},{"pincode":"795142","office":"New Tusom","district":"UKHRUL","state":"MANIPUR","circle":"North Eastern Circle","region":"North East - II Region"},{"pincode":"795148","office":"Heirok Part 1 B.O","district":"THOUBAL","state":"MANIPUR","circle":"North Eastern Circle","region":"North East - II Region"},{"pincode":"795148","office":"Karongthel B.O","district":"THOUBAL","state":"MANIPUR","circle":"North Eastern Circle","region":"North East - II Region"},{"pincode":"795148","office":"Samaram B.O","district":"THOUBAL","state":"MANIPUR","circle":"North Eastern Circle","region":"North East - II Region"},{"pincode":"795009","office":"Langathel BO","district":"IMPHAL WEST","state":"MANIPUR","circle":"North Eastern Circle","region":"North East - II Region"},{"pincode":"795149","office":"Nambasi B.O","district":"KANGPOKPI","state":"MANIPUR","circle":"North Eastern Circle","region":"North East - II Region"},{"pincode":"795001","office":"Imphal Bazar S.O","district":"IMPHAL WEST","state":"MANIPUR","circle":"North Eastern Circle","region":"North East - II Region"},{"pincode":"795103","office":"Kakching S.O","district":"KAKCHING","state":"MANIPUR","circle":"North Eastern Circle","region":"North East - II Region"},{"pincode":"795007","office":"Karong S.O","district":"SENAPATI","state":"MANIPUR","circle":"North Eastern Circle","region":"North East - II Region"},{"pincode":"795004","office":"Lamphelpat S.O","district":"IMPHAL WEST","state":"MANIPUR","circle":"North Eastern Circle","region":"North East - II Region"},{"pincode":"795003","office":"Manipur University S.O","district":"IMPHAL WEST","state":"MANIPUR","circle":"North Eastern Circle","region":"North East - II Region"},{"pincode":"795002","office":"Mantripukhri S.O","district":"IMPHAL WEST","state":"MANIPUR","circle":"North Eastern Circle","region":"North East - II Region"},{"pincode":"795105","office":"Maram S.O","district":"SENAPATI","state":"MANIPUR","circle":"North Eastern Circle","region":"North East - II Region"},{"pincode":"795118","office":"Saikul S.O","district":"KANGPOKPI","state":"MANIPUR","circle":"North Eastern Circle","region":"North East - II Region"},{"pincode":"795136","office":"Sekmai S.O","district":"IMPHAL WEST","state":"MANIPUR","circle":"North Eastern Circle","region":"North East - II Region"},{"pincode":"795106","office":"Senapati S.O","district":"SENAPATI","state":"MANIPUR","circle":"North Eastern Circle","region":"North East - II Region"},{"pincode":"795144","office":"Somdal S.O","district":"UKHRUL","state":"MANIPUR","circle":"North Eastern Circle","region":"North East - II Region"},{"pincode":"795101","office":"Sugnu S.O","district":"KAKCHING","state":"MANIPUR","circle":"North Eastern Circle","region":"North East - II Region"},{"pincode":"795104","office":"Tadubi S.O","district":"SENAPATI","state":"MANIPUR","circle":"North Eastern Circle","region":"North East - II Region"},{"pincode":"795140","office":"Tulihal S.O","district":"IMPHAL WEST","state":"MANIPUR","circle":"North Eastern Circle","region":"North East - II Region"},{"pincode":"795142","office":"Ukhrul S.O","district":"UKHRUL","state":"MANIPUR","circle":"North Eastern Circle","region":"North East - II Region"},{"pincode":"795148","office":"Wangjing S.O","district":"THOUBAL","state":"MANIPUR","circle":"North Eastern Circle","region":"North East - II Region"},{"pincode":"795009","office":"Wangoi S.O","district":"IMPHAL WEST","state":"MANIPUR","circle":"North Eastern Circle","region":"North East - II Region"},{"pincode":"795126","office":"Lamdangmei B.O","district":"KANGPOKPI","state":"MANIPUR","circle":"North Eastern Circle","region":"North East - II Region"},{"pincode":"795126","office":"Nungsai Chiru B.O","district":"KANGPOKPI","state":"MANIPUR","circle":"North Eastern Circle","region":"North East - II Region"},{"pincode":"795102","office":"Gobok B.O","district":"CHANDEL","state":"MANIPUR","circle":"North Eastern Circle","region":"North East - II Region"},{"pincode":"795131","office":"Khengjoi B.O","district":"CHANDEL","state":"MANIPUR","circle":"North Eastern Circle","region":"North East - II Region"},{"pincode":"795102","office":"Toupokpi B.O","district":"CHANDEL","state":"MANIPUR","circle":"North Eastern Circle","region":"North East - II Region"},{"pincode":"795102","office":"Sarangtampak","district":"CHANDEL","state":"MANIPUR","circle":"North Eastern Circle","region":"North East - II Region"},{"pincode":"795102","office":"Gunjil","district":"CHANDEL","state":"MANIPUR","circle":"North Eastern Circle","region":"North East - II Region"},{"pincode":"795102","office":"Jangdung","district":"CHANDEL","state":"MANIPUR","circle":"North Eastern Circle","region":"North East - II Region"},{"pincode":"795102","office":"Khongtal","district":"CHANDEL","state":"MANIPUR","circle":"North Eastern Circle","region":"North East - II Region"},{"pincode":"795102","office":"Tuidam","district":"CHANDEL","state":"MANIPUR","circle":"North Eastern Circle","region":"North East - II Region"},{"pincode":"795102","office":"T.Nampao","district":"CHANDEL","state":"MANIPUR","circle":"North Eastern Circle","region":"North East - II Region"},{"pincode":"795127","office":"Lamphou Charu","district":"CHANDEL","state":"MANIPUR","circle":"North Eastern Circle","region":"North East - II Region"},{"pincode":"795128","office":"Kamkeilon B.O","district":"CHURACHANDPUR","state":"MANIPUR","circle":"North Eastern Circle","region":"North East - II Region"},{"pincode":"795128","office":"Kumbipukhri B.O","district":"CHURACHANDPUR","state":"MANIPUR","circle":"North Eastern Circle","region":"North East - II Region"},{"pincode":"795006","office":"Panglian B.O","district":"PHERZAWL","state":"MANIPUR","circle":"North Eastern Circle","region":"North East - II Region"},{"pincode":"795006","office":"Pearsonmun B.O","district":"PHERZAWL","state":"MANIPUR","circle":"North Eastern Circle","region":"North East - II Region"},{"pincode":"795128","office":"Phaipheng B.O","district":"CHURACHANDPUR","state":"MANIPUR","circle":"North Eastern Circle","region":"North East - II Region"},{"pincode":"795128","office":"Saiden B.O","district":"CHURACHANDPUR","state":"MANIPUR","circle":"North Eastern Circle","region":"North East - II Region"},{"pincode":"795128","office":"Santing B.O","district":"CHURACHANDPUR","state":"MANIPUR","circle":"North Eastern Circle","region":"North East - II Region"},{"pincode":"795128","office":"South Kotlein B.O","district":"CHURACHANDPUR","state":"MANIPUR","circle":"North Eastern Circle","region":"North East - II Region"},{"pincode":"795128","office":"Teiyong B.O","district":"CHURACHANDPUR","state":"MANIPUR","circle":"North Eastern Circle","region":"North East - II Region"},{"pincode":"795128","office":"M. Songgel B.O.","district":"CHURACHANDPUR","state":"MANIPUR","circle":"North Eastern Circle","region":"North East - II Region"},{"pincode":"795128","office":"Doltang","district":"CHURACHANDPUR","state":"MANIPUR","circle":"North Eastern Circle","region":"North East - II Region"},{"pincode":"795128","office":"Tonglon (P)","district":"CHURACHANDPUR","state":"MANIPUR","circle":"North Eastern Circle","region":"North East - II Region"},{"pincode":"795115","office":"Bidyanagar B.O","district":"JIRIBAM","state":"MANIPUR","circle":"North Eastern Circle","region":"North East - II Region"},{"pincode":"795115","office":"Kashimpur B.O","district":"JIRIBAM","state":"MANIPUR","circle":"North Eastern Circle","region":"North East - II Region"},{"pincode":"795115","office":"Nungkao B.O.","district":"JIRIBAM","state":"MANIPUR","circle":"North Eastern Circle","region":"North East - II Region"},{"pincode":"795116","office":"Kh Jaikhan B.O","district":"PHERZAWL","state":"MANIPUR","circle":"North Eastern Circle","region":"North East - II Region"},{"pincode":"795116","office":"Latingkhal B.O","district":"JIRIBAM","state":"MANIPUR","circle":"North Eastern Circle","region":"North East - II Region"},{"pincode":"795116","office":"Patpuimun B.O","district":"JIRIBAM","state":"MANIPUR","circle":"North Eastern Circle","region":"North East - II Region"},{"pincode":"795116","office":"Phailienthangpunji","district":"JIRIBAM","state":"MANIPUR","circle":"North Eastern Circle","region":"North East - II Region"},{"pincode":"795103","office":"Langmeidong B.O","district":"KAKCHING","state":"MANIPUR","circle":"North Eastern Circle","region":"North East - II Region"},{"pincode":"795103","office":"Leingangching B.O","district":"CHANDEL","state":"MANIPUR","circle":"North Eastern Circle","region":"North East - II Region"},{"pincode":"795103","office":"Pangaltabi B.O","district":"KAKCHING","state":"MANIPUR","circle":"North Eastern Circle","region":"North East - II Region"},{"pincode":"795122","office":"Haipi B.O","district":"KANGPOKPI","state":"MANIPUR","circle":"North Eastern Circle","region":"North East - II Region"},{"pincode":"795129","office":"Maohing B.O","district":"KANGPOKPI","state":"MANIPUR","circle":"North Eastern Circle","region":"North East - II Region"},{"pincode":"795129","office":"Thonglang B.O","district":"KANGPOKPI","state":"MANIPUR","circle":"North Eastern Circle","region":"North East - II Region"},{"pincode":"795007","office":"Oinam Hill B.O","district":"SENAPATI","state":"MANIPUR","circle":"North Eastern Circle","region":"North East - II Region"},{"pincode":"795007","office":"Rajamei B.O","district":"SENAPATI","state":"MANIPUR","circle":"North Eastern Circle","region":"North East - II Region"},{"pincode":"795010","office":"Lamlai B.O","district":"IMPHAL EAST","state":"MANIPUR","circle":"North Eastern Circle","region":"North East - II Region"},{"pincode":"795010","office":"Taretkhul B.O","district":"IMPHAL EAST","state":"MANIPUR","circle":"North Eastern Circle","region":"North East - II Region"},{"pincode":"795010","office":"Yourbung B.O","district":"IMPHAL EAST","state":"MANIPUR","circle":"North Eastern Circle","region":"North East - II Region"},{"pincode":"795004","office":"Langol Housing Complex B.O","district":"IMPHAL WEST","state":"MANIPUR","circle":"North Eastern Circle","region":"North East - II Region"},{"pincode":"795004","office":"Noremthong Bazar B.O","district":"IMPHAL WEST","state":"MANIPUR","circle":"North Eastern Circle","region":"North East - II Region"},{"pincode":"795004","office":"Sagolband Thingom Leikai B.O","district":"IMPHAL WEST","state":"MANIPUR","circle":"North Eastern Circle","region":"North East - II Region"},{"pincode":"795004","office":"Tera Bazar B.O","district":"IMPHAL WEST","state":"MANIPUR","circle":"North Eastern Circle","region":"North East - II Region"},{"pincode":"795146","office":"Christan Centre Haochong B.O","district":"NONEY","state":"MANIPUR","circle":"North Eastern Circle","region":"North East - II Region"},{"pincode":"795146","office":"Heibongpokpi B.O","district":"IMPHAL WEST","state":"MANIPUR","circle":"North Eastern Circle","region":"North East - II Region"},{"pincode":"795146","office":"Irengnaga B.O","district":"KANGPOKPI","state":"MANIPUR","circle":"North Eastern Circle","region":"North East - II Region"},{"pincode":"795146","office":"Phayeng B.O","district":"IMPHAL WEST","state":"MANIPUR","circle":"North Eastern Circle","region":"North East - II Region"},{"pincode":"795130","office":"Heinoumakhong B.O","district":"THOUBAL","state":"MANIPUR","circle":"North Eastern Circle","region":"North East - II Region"},{"pincode":"795130","office":"Nungei B.O","district":"THOUBAL","state":"MANIPUR","circle":"North Eastern Circle","region":"North East - II Region"},{"pincode":"795145","office":"Chadong B.O","district":"KAMJONG","state":"MANIPUR","circle":"North Eastern Circle","region":"North East - II Region"},{"pincode":"795145","office":"Kongpat Khunou B.O","district":"KAMJONG","state":"MANIPUR","circle":"North Eastern Circle","region":"North East - II Region"},{"pincode":"795145","office":"Lungphu B.O","district":"KAMJONG","state":"MANIPUR","circle":"North Eastern Circle","region":"North East - II Region"},{"pincode":"795145","office":"Phungyar B.O","district":"KAMJONG","state":"MANIPUR","circle":"North Eastern Circle","region":"North East - II Region"},{"pincode":"795145","office":"Shongshak B.O","district":"UKHRUL","state":"MANIPUR","circle":"North Eastern Circle","region":"North East - II Region"},{"pincode":"795145","office":"Thawai B.O","district":"KAMJONG","state":"MANIPUR","circle":"North Eastern Circle","region":"North East - II Region"},{"pincode":"795145","office":"Chahong Khunou","district":"IMPHAL EAST","state":"MANIPUR","circle":"North Eastern Circle","region":"North East - II Region"},{"pincode":"795145","office":"Chatric","district":"IMPHAL EAST","state":"MANIPUR","circle":"North Eastern Circle","region":"North East - II Region"},{"pincode":"795145","office":"Apong","district":"IMPHAL EAST","state":"MANIPUR","circle":"North Eastern Circle","region":"North East - II Region"},{"pincode":"795145","office":"Kangoi","district":"IMPHAL EAST","state":"MANIPUR","circle":"North Eastern Circle","region":"North East - II Region"},{"pincode":"795124","office":"Tokpalamdan B.O","district":"CHURACHANDPUR","state":"MANIPUR","circle":"North Eastern Circle","region":"North East - II Region"},{"pincode":"795002","office":"Awangpotshangbam B.O","district":"IMPHAL EAST","state":"MANIPUR","circle":"North Eastern Circle","region":"North East - II Region"},{"pincode":"795002","office":"Khonghampat B.O","district":"IMPHAL WEST","state":"MANIPUR","circle":"North Eastern Circle","region":"North East - II Region"},{"pincode":"795150","office":"Phunanamei B.O","district":"SENAPATI","state":"MANIPUR","circle":"North Eastern Circle","region":"North East - II Region"},{"pincode":"795015","office":"Makhan Bazar B.O","district":"SENAPATI","state":"MANIPUR","circle":"North Eastern Circle","region":"North East - II Region"},{"pincode":"795132","office":"Bengoon Maning Leikai B.O","district":"KAKCHING","state":"MANIPUR","circle":"North Eastern Circle","region":"North East - II Region"},{"pincode":"795132","office":"Chirai Muslim B.O","district":"KAKCHING","state":"MANIPUR","circle":"North Eastern Circle","region":"North East - II Region"},{"pincode":"795132","office":"Irong Umang Khunou B.O","district":"KAKCHING","state":"MANIPUR","circle":"North Eastern Circle","region":"North East - II Region"},{"pincode":"795132","office":"Maibam Konjil B.O","district":"KAKCHING","state":"MANIPUR","circle":"North Eastern Circle","region":"North East - II Region"},{"pincode":"795132","office":"Phoubakchao B.O","district":"KAKCHING","state":"MANIPUR","circle":"North Eastern Circle","region":"North East - II Region"},{"pincode":"795132","office":"Uchiwa B.O","district":"KAKCHING","state":"MANIPUR","circle":"North Eastern Circle","region":"North East - II Region"},{"pincode":"795133","office":"Haotakphailen B.O","district":"CHURACHANDPUR","state":"MANIPUR","circle":"North Eastern Circle","region":"North East - II Region"},{"pincode":"795133","office":"Khathinunggei B.O","district":"BISHNUPUR","state":"MANIPUR","circle":"North Eastern Circle","region":"North East - II Region"},{"pincode":"795133","office":"Khoirentak B.O","district":"CHURACHANDPUR","state":"MANIPUR","circle":"North Eastern Circle","region":"North East - II Region"},{"pincode":"795133","office":"Khousabung B.O","district":"CHURACHANDPUR","state":"MANIPUR","circle":"North Eastern Circle","region":"North East - II Region"},{"pincode":"795011","office":"Naransena B.O","district":"BISHNUPUR","state":"MANIPUR","circle":"North Eastern Circle","region":"North East - II Region"},{"pincode":"795133","office":"Ngangkha Lawai B.O","district":"BISHNUPUR","state":"MANIPUR","circle":"North Eastern Circle","region":"North East - II Region"},{"pincode":"795133","office":"Thumkhonglok B.O","district":"CHURACHANDPUR","state":"MANIPUR","circle":"North Eastern Circle","region":"North East - II Region"},{"pincode":"795133","office":"Torbung B.O","district":"BISHNUPUR","state":"MANIPUR","circle":"North Eastern Circle","region":"North East - II Region"},{"pincode":"795131","office":"Bongajang B.O","district":"TENGNOUPAL","state":"MANIPUR","circle":"North Eastern Circle","region":"North East - II Region"},{"pincode":"795131","office":"New Somtal B.O","district":"TENGNOUPAL","state":"MANIPUR","circle":"North Eastern Circle","region":"North East - II Region"},{"pincode":"795131","office":"Maipi Mangsom","district":"TENGNOUPAL","state":"MANIPUR","circle":"North Eastern Circle","region":"North East - II Region"},{"pincode":"795107","office":"J Phaijang B.O","district":"KANGPOKPI","state":"MANIPUR","circle":"North Eastern Circle","region":"North East - II Region"},{"pincode":"795107","office":"N. Khenjang B.O","district":"KANGPOKPI","state":"MANIPUR","circle":"North Eastern Circle","region":"North East - II Region"},{"pincode":"795107","office":"Saitu B.O","district":"KANGPOKPI","state":"MANIPUR","circle":"North Eastern Circle","region":"North East - II Region"},{"pincode":"795107","office":"Sapermeina B.O","district":"KANGPOKPI","state":"MANIPUR","circle":"North Eastern Circle","region":"North East - II Region"},{"pincode":"795134","office":"Isok B.O","district":"BISHNUPUR","state":"MANIPUR","circle":"North Eastern Circle","region":"North East - II Region"},{"pincode":"795134","office":"Keinou B.O","district":"BISHNUPUR","state":"MANIPUR","circle":"North Eastern Circle","region":"North East - II Region"},{"pincode":"795134","office":"Manamayang B.O","district":"IMPHAL WEST","state":"MANIPUR","circle":"North Eastern Circle","region":"North East - II Region"},{"pincode":"795134","office":"Yarou Bomdiar B.O","district":"IMPHAL WEST","state":"MANIPUR","circle":"North Eastern Circle","region":"North East - II Region"},{"pincode":"795159","office":"Haochong B.O","district":"NONEY","state":"MANIPUR","circle":"North Eastern Circle","region":"North East - II Region"},{"pincode":"795159","office":"Lukhambi B.O","district":"NONEY","state":"MANIPUR","circle":"North Eastern Circle","region":"North East - II Region"},{"pincode":"795159","office":"Thingra B.O","district":"NONEY","state":"MANIPUR","circle":"North Eastern Circle","region":"North East - II Region"},{"pincode":"795116","office":"Chongmun B.O","district":"JIRIBAM","state":"MANIPUR","circle":"North Eastern Circle","region":"North East - II Region"},{"pincode":"795147","office":"Sibilong B.O","district":"NONEY","state":"MANIPUR","circle":"North Eastern Circle","region":"North East - II Region"},{"pincode":"795147","office":"Thingchamphai","district":"NONEY","state":"MANIPUR","circle":"North Eastern Circle","region":"North East - II Region"},{"pincode":"795147","office":"Sempat Gangte","district":"NONEY","state":"MANIPUR","circle":"North Eastern Circle","region":"North East - II Region"},{"pincode":"795135","office":"Chelhep B.O","district":"CHANDEL","state":"MANIPUR","circle":"North Eastern Circle","region":"North East - II Region"},{"pincode":"795135","office":"Khangbarol B.O","district":"TENGNOUPAL","state":"MANIPUR","circle":"North Eastern Circle","region":"North East - II Region"},{"pincode":"795135","office":"Lamkang Khunou B.O","district":"TENGNOUPAL","state":"MANIPUR","circle":"North Eastern Circle","region":"North East - II Region"},{"pincode":"795135","office":"Lamlong Khullen B.O","district":"TENGNOUPAL","state":"MANIPUR","circle":"North Eastern Circle","region":"North East - II Region"},{"pincode":"795135","office":"Machi B.O","district":"TENGNOUPAL","state":"MANIPUR","circle":"North Eastern Circle","region":"North East - II Region"},{"pincode":"795135","office":"Moltek B.O","district":"CHANDEL","state":"MANIPUR","circle":"North Eastern Circle","region":"North East - II Region"},{"pincode":"795135","office":"Sita B.O","district":"CHANDEL","state":"MANIPUR","circle":"North Eastern Circle","region":"North East - II Region"},{"pincode":"795114","office":"Khongbal Tangkhul B.O","district":"IMPHAL EAST","state":"MANIPUR","circle":"North Eastern Circle","region":"North East - II Region"},{"pincode":"795114","office":"Khumidok (P) B.O","district":"IMPHAL EAST","state":"MANIPUR","circle":"North Eastern Circle","region":"North East - II Region"},{"pincode":"795114","office":"Sagolmang B.O","district":"IMPHAL EAST","state":"MANIPUR","circle":"North Eastern Circle","region":"North East - II Region"},{"pincode":"795114","office":"Thangal Surung B.O","district":"IMPHAL EAST","state":"MANIPUR","circle":"North Eastern Circle","region":"North East - II Region"},{"pincode":"795114","office":"Uyumpok B.O","district":"IMPHAL EAST","state":"MANIPUR","circle":"North Eastern Circle","region":"North East - II Region"},{"pincode":"795005","office":"Takhel B.O","district":"IMPHAL EAST","state":"MANIPUR","circle":"North Eastern Circle","region":"North East - II Region"},{"pincode":"795118","office":"Gangpijang B.O","district":"KANGPOKPI","state":"MANIPUR","circle":"North Eastern Circle","region":"North East - II Region"},{"pincode":"795118","office":"Makeng Ngarolu B.O","district":"KANGPOKPI","state":"MANIPUR","circle":"North Eastern Circle","region":"North East - II Region"},{"pincode":"795118","office":"Sangpei Khullen B.O","district":"KANGPOKPI","state":"MANIPUR","circle":"North Eastern Circle","region":"North East - II Region"},{"pincode":"795136","office":"Ch. Khongnangpokpi B.O","district":"KANGPOKPI","state":"MANIPUR","circle":"North Eastern Circle","region":"North East - II Region"},{"pincode":"795136","office":"Makhan B.O","district":"KANGPOKPI","state":"MANIPUR","circle":"North Eastern Circle","region":"North East - II Region"},{"pincode":"795106","office":"Oklong B.O","district":"SENAPATI","state":"MANIPUR","circle":"North Eastern Circle","region":"North East - II Region"},{"pincode":"795139","office":"Behiang B.O","district":"CHURACHANDPUR","state":"MANIPUR","circle":"North Eastern Circle","region":"North East - II Region"},{"pincode":"795139","office":"Hengtam B.O","district":"CHURACHANDPUR","state":"MANIPUR","circle":"North Eastern Circle","region":"North East - II Region"},{"pincode":"795008","office":"Keirao Wangkhem B.O","district":"IMPHAL EAST","state":"MANIPUR","circle":"North Eastern Circle","region":"North East - II Region"},{"pincode":"795008","office":"Kitnapanung B.O","district":"IMPHAL EAST","state":"MANIPUR","circle":"North Eastern Circle","region":"North East - II Region"},{"pincode":"795005","office":"Kshetrigao B.O","district":"IMPHAL EAST","state":"MANIPUR","circle":"North Eastern Circle","region":"North East - II Region"},{"pincode":"795144","office":"Huime B.O","district":"UKHRUL","state":"MANIPUR","circle":"North Eastern Circle","region":"North East - II Region"},{"pincode":"795144","office":"Thiwa B.O","district":"SENAPATI","state":"MANIPUR","circle":"North Eastern Circle","region":"North East - II Region"},{"pincode":"795101","office":"Serou B.O","district":"KAKCHING","state":"MANIPUR","circle":"North Eastern Circle","region":"North East - II Region"},{"pincode":"795112","office":"Thengjang B.O","district":"KANGPOKPI","state":"MANIPUR","circle":"North Eastern Circle","region":"North East - II Region"},{"pincode":"795104","office":"Kaibi B.O","district":"SENAPATI","state":"MANIPUR","circle":"North Eastern Circle","region":"North East - II Region"},{"pincode":"795104","office":"Liyai Khunou B.O","district":"SENAPATI","state":"MANIPUR","circle":"North Eastern Circle","region":"North East - II Region"},{"pincode":"795104","office":"Paomata Centre B.O","district":"SENAPATI","state":"MANIPUR","circle":"North Eastern Circle","region":"North East - II Region"},{"pincode":"795104","office":"Siraffi B.O","district":"SENAPATI","state":"MANIPUR","circle":"North Eastern Circle","region":"North East - II Region"},{"pincode":"795125","office":"Atang Khunou B.O","district":"TAMENGLONG","state":"MANIPUR","circle":"North Eastern Circle","region":"North East - II Region"},{"pincode":"795125","office":"Chaiton B.O","district":"TAMENGLONG","state":"MANIPUR","circle":"North Eastern Circle","region":"North East - II Region"},{"pincode":"795125","office":"Kadi B.O","district":"TAMENGLONG","state":"MANIPUR","circle":"North Eastern Circle","region":"North East - II Region"},{"pincode":"795125","office":"Kuilong B.O","district":"TAMENGLONG","state":"MANIPUR","circle":"North Eastern Circle","region":"North East - II Region"},{"pincode":"795125","office":"Takou B.O","district":"TAMENGLONG","state":"MANIPUR","circle":"North Eastern Circle","region":"North East - II Region"},{"pincode":"795141","office":"Akhui B.O","district":"TAMENGLONG","state":"MANIPUR","circle":"North Eastern Circle","region":"North East - II Region"},{"pincode":"795141","office":"Khongjaron Khunthak B.O","district":"TAMENGLONG","state":"MANIPUR","circle":"North Eastern Circle","region":"North East - II Region"},{"pincode":"795141","office":"New Pallong B.O","district":"TAMENGLONG","state":"MANIPUR","circle":"North Eastern Circle","region":"North East - II Region"},{"pincode":"795141","office":"Tousem B.O","district":"TAMENGLONG","state":"MANIPUR","circle":"North Eastern Circle","region":"North East - II Region"},{"pincode":"795006","office":"Khajang B.O","district":"PHERZAWL","state":"MANIPUR","circle":"North Eastern Circle","region":"North East - II Region"},{"pincode":"795006","office":"Millongmun B.O","district":"PHERZAWL","state":"MANIPUR","circle":"North Eastern Circle","region":"North East - II Region"},{"pincode":"795006","office":"Parbung B.O","district":"PHERZAWL","state":"MANIPUR","circle":"North Eastern Circle","region":"North East - II Region"},{"pincode":"795006","office":"Phaijang B.O","district":"PHERZAWL","state":"MANIPUR","circle":"North Eastern Circle","region":"North East - II Region"},{"pincode":"795006","office":"Tingsong B.O","district":"PHERZAWL","state":"MANIPUR","circle":"North Eastern Circle","region":"North East - II Region"},{"pincode":"795138","office":"Athokpam B.O","district":"THOUBAL","state":"MANIPUR","circle":"North Eastern Circle","region":"North East - II Region"},{"pincode":"795138","office":"Keibung Mamang B.O","district":"THOUBAL","state":"MANIPUR","circle":"North Eastern Circle","region":"North East - II Region"},{"pincode":"795138","office":"Khekmanedbo B.O","district":"THOUBAL","state":"MANIPUR","circle":"North Eastern Circle","region":"North East - II Region"},{"pincode":"795138","office":"Okram Wangmataba B.O","district":"THOUBAL","state":"MANIPUR","circle":"North Eastern Circle","region":"North East - II Region"},{"pincode":"795142","office":"Chingai (P) B.O","district":"UKHRUL","state":"MANIPUR","circle":"North Eastern Circle","region":"North East - II Region"},{"pincode":"795142","office":"Leisan B.O","district":"PHERZAWL","state":"MANIPUR","circle":"North Eastern Circle","region":"North East - II Region"},{"pincode":"795142","office":"Paoyii B.O","district":"UKHRUL","state":"MANIPUR","circle":"North Eastern Circle","region":"North East - II Region"},{"pincode":"795142","office":"Rajai Khunou B.O","district":"UKHRUL","state":"MANIPUR","circle":"North Eastern Circle","region":"North East - II Region"},{"pincode":"795142","office":"Sirarakhong B.O","district":"UKHRUL","state":"MANIPUR","circle":"North Eastern Circle","region":"North East - II Region"},{"pincode":"795142","office":"Soraphung B.O","district":"UKHRUL","state":"MANIPUR","circle":"North Eastern Circle","region":"North East - II Region"},{"pincode":"795142","office":"Tungou B.O","district":"UKHRUL","state":"MANIPUR","circle":"North Eastern Circle","region":"North East - II Region"},{"pincode":"795148","office":"Puleipokpi B.O","district":"THOUBAL","state":"MANIPUR","circle":"North Eastern Circle","region":"North East - II Region"},{"pincode":"795149","office":"Haokhongching B.O","district":"KANGPOKPI","state":"MANIPUR","circle":"North Eastern Circle","region":"North East - II Region"},{"pincode":"795149","office":"Huikap B.O","district":"KANGPOKPI","state":"MANIPUR","circle":"North Eastern Circle","region":"North East - II Region"},{"pincode":"795149","office":"Kamu Tampak B.O","district":"KANGPOKPI","state":"MANIPUR","circle":"North Eastern Circle","region":"North East - II Region"},{"pincode":"795149","office":"Khoirom B.O","district":"KANGPOKPI","state":"MANIPUR","circle":"North Eastern Circle","region":"North East - II Region"},{"pincode":"795149","office":"Lourembam B.O","district":"KANGPOKPI","state":"MANIPUR","circle":"North Eastern Circle","region":"North East - II Region"},{"pincode":"795149","office":"Lungthar B.O","district":"KANGPOKPI","state":"MANIPUR","circle":"North Eastern Circle","region":"North East - II Region"},{"pincode":"795149","office":"Nongpok Sekmai B.O","district":"KANGPOKPI","state":"MANIPUR","circle":"North Eastern Circle","region":"North East - II Region"},{"pincode":"795149","office":"Saram Panthong B.O","district":"KANGPOKPI","state":"MANIPUR","circle":"North Eastern Circle","region":"North East - II Region"},{"pincode":"795149","office":"Yairipok Tulihal B.O","district":"KANGPOKPI","state":"MANIPUR","circle":"North Eastern Circle","region":"North East - II Region"},{"pincode":"795149","office":"Yambem Laxmi Bazar B.O","district":"KANGPOKPI","state":"MANIPUR","circle":"North Eastern Circle","region":"North East - II Region"},{"pincode":"795149","office":"Theiyong B.O.","district":"KANGPOKPI","state":"MANIPUR","circle":"North Eastern Circle","region":"North East - II Region"},{"pincode":"795113","office":"CRPF Camp Langjing S.O","district":"IMPHAL WEST","state":"MANIPUR","circle":"North Eastern Circle","region":"North East - II Region"},{"pincode":"795122","office":"Kalapahar S.O","district":"KANGPOKPI","state":"MANIPUR","circle":"North Eastern Circle","region":"North East - II Region"},{"pincode":"795010","office":"Lamlong S.O","district":"IMPHAL EAST","state":"MANIPUR","circle":"North Eastern Circle","region":"North East - II Region"},{"pincode":"795147","office":"Nungba S.O","district":"NONEY","state":"MANIPUR","circle":"North Eastern Circle","region":"North East - II Region"},{"pincode":"795005","office":"Porompat S.O","district":"IMPHAL EAST","state":"MANIPUR","circle":"North Eastern Circle","region":"North East - II Region"},{"pincode":"795149","office":"Yairipok S.O","district":"KANGPOKPI","state":"MANIPUR","circle":"North Eastern Circle","region":"North East - II Region"},{"pincode":"795006","office":"New Lamka S.O","district":"PHERZAWL","state":"MANIPUR","circle":"North Eastern Circle","region":"North East - II Region"},{"pincode":"795001","office":"Manipur High Court S.O","district":"IMPHAL WEST","state":"MANIPUR","circle":"North Eastern Circle","region":"North East - II Region"}]