[{"pincode":"781131","office":"Warmawsaw B.O","district":"RI BHOI","state":"MEGHALAYA","circle":"Assam Circle","region":"DivReportingCircle"},{"pincode":"793106","office":"Dholai B.O","district":"EAST KHASI HILLS","state":"MEGHALAYA","circle":"North Eastern Circle","region":"Shillong HQ Region"},{"pincode":"793106","office":"Makali B.O","district":"EAST KHASI HILLS","state":"MEGHALAYA","circle":"North Eastern Circle","region":"Shillong HQ Region"},{"pincode":"793106","office":"Mawput B.O","district":"SOUTH WEST KHASI HILLS","state":"MEGHALAYA","circle":"North Eastern Circle","region":"Shillong HQ Region"},{"pincode":"793106","office":"Pyndeng Sohsaw B.O","district":"EAST KHASI HILLS","state":"MEGHALAYA","circle":"North Eastern Circle","region":"Shillong HQ Region"},{"pincode":"793106","office":"Rongdanggai","district":"EAST KHASI HILLS","state":"MEGHALAYA","circle":"North Eastern Circle","region":"Shillong HQ Region"},{"pincode":"793106","office":"Kampilgre","district":"EAST KHASI HILLS","state":"MEGHALAYA","circle":"North Eastern Circle","region":"Shillong HQ Region"},{"pincode":"793106","office":"Ganganagar B","district":"EAST KHASI HILLS","state":"MEGHALAYA","circle":"North Eastern Circle","region":"Shillong HQ Region"},{"pincode":"793101","office":"Killing Centre B.O","district":"RI BHOI","state":"MEGHALAYA","circle":"North Eastern Circle","region":"Shillong HQ Region"},{"pincode":"793108","office":"Laitryngew B.O","district":"EAST KHASI HILLS","state":"MEGHALAYA","circle":"North Eastern Circle","region":"Shillong HQ Region"},{"pincode":"793108","office":"Mawblang B.O","district":"EAST KHASI HILLS","state":"MEGHALAYA","circle":"North Eastern Circle","region":"Shillong HQ Region"},{"pincode":"793108","office":"Sohkmie B.O","district":"EAST KHASI HILLS","state":"MEGHALAYA","circle":"North Eastern Circle","region":"Shillong HQ Region"},{"pincode":"793109","office":"Naljuri B.O","district":"WEST JAINTIA HILLS","state":"MEGHALAYA","circle":"North Eastern Circle","region":"Shillong HQ Region"},{"pincode":"793109","office":"Padu B.O","district":"WEST JAINTIA HILLS","state":"MEGHALAYA","circle":"North Eastern Circle","region":"Shillong HQ Region"},{"pincode":"793110","office":"Pamshutia B.O","district":"EAST KHASI HILLS","state":"MEGHALAYA","circle":"North Eastern Circle","region":"Shillong HQ Region"},{"pincode":"793109","office":"Sohkha B.O","district":"WEST JAINTIA HILLS","state":"MEGHALAYA","circle":"North Eastern Circle","region":"Shillong HQ Region"},{"pincode":"793109","office":"Syndai B.O","district":"WEST JAINTIA HILLS","state":"MEGHALAYA","circle":"North Eastern Circle","region":"Shillong HQ Region"},{"pincode":"793109","office":"Umsyiem B.O","district":"WEST JAINTIA HILLS","state":"MEGHALAYA","circle":"North Eastern Circle","region":"Shillong HQ Region"},{"pincode":"793150","office":"Iawthymmai B.O","district":"WEST JAINTIA HILLS","state":"MEGHALAYA","circle":"North Eastern Circle","region":"Shillong HQ Region"},{"pincode":"793150","office":"Jarain B.O","district":"WEST JAINTIA HILLS","state":"MEGHALAYA","circle":"North Eastern Circle","region":"Shillong HQ Region"},{"pincode":"793150","office":"Kyndong Tuber B.O","district":"WEST JAINTIA HILLS","state":"MEGHALAYA","circle":"North Eastern Circle","region":"Shillong HQ Region"},{"pincode":"793150","office":"Iong-u-Lang","district":"WEST JAINTIA HILLS","state":"MEGHALAYA","circle":"North Eastern Circle","region":"Shillong HQ Region"},{"pincode":"793210","office":"Rata Cherra B.O","district":"EAST JAINTIA HILLS","state":"MEGHALAYA","circle":"North Eastern Circle","region":"Shillong HQ Region"},{"pincode":"793200","office":"Sutnga B.O","district":"EAST JAINTIA HILLS","state":"MEGHALAYA","circle":"North Eastern Circle","region":"Shillong HQ Region"},{"pincode":"793200","office":"Umkiang B.O","district":"EAST JAINTIA HILLS","state":"MEGHALAYA","circle":"North Eastern Circle","region":"Shillong HQ Region"},{"pincode":"793200","office":"Sakwa","district":"EAST JAINTIA HILLS","state":"MEGHALAYA","circle":"North Eastern Circle","region":"Shillong HQ Region"},{"pincode":"793200","office":"Salain","district":"EAST JAINTIA HILLS","state":"MEGHALAYA","circle":"North Eastern Circle","region":"Shillong HQ Region"},{"pincode":"793200","office":"Tlangmoi","district":"EAST JAINTIA HILLS","state":"MEGHALAYA","circle":"North Eastern Circle","region":"Shillong HQ Region"},{"pincode":"793200","office":"Mouldam","district":"EAST JAINTIA HILLS","state":"MEGHALAYA","circle":"North Eastern Circle","region":"Shillong HQ Region"},{"pincode":"793004","office":"Lawsohtun B.O","district":"EAST KHASI HILLS","state":"MEGHALAYA","circle":"North Eastern Circle","region":"Shillong HQ Region"},{"pincode":"793160","office":"Rymbai B.O","district":"EAST JAINTIA HILLS","state":"MEGHALAYA","circle":"North Eastern Circle","region":"Shillong HQ Region"},{"pincode":"793160","office":"Sham Sham B.O","district":"EAST JAINTIA HILLS","state":"MEGHALAYA","circle":"North Eastern Circle","region":"Shillong HQ Region"},{"pincode":"793160","office":"Tuber Kmaishnong B.O","district":"EAST JAINTIA HILLS","state":"MEGHALAYA","circle":"North Eastern Circle","region":"Shillong HQ Region"},{"pincode":"793210","office":"Sheruphie B.O","district":"EAST JAINTIA HILLS","state":"MEGHALAYA","circle":"North Eastern Circle","region":"Shillong HQ Region"},{"pincode":"793120","office":"Khlieh Lyngkhoi B.O","district":"EAST KHASI HILLS","state":"MEGHALAYA","circle":"North Eastern Circle","region":"Shillong HQ Region"},{"pincode":"793120","office":"Laitdombah B.O","district":"WEST KHASI HILLS","state":"MEGHALAYA","circle":"North Eastern Circle","region":"Shillong HQ Region"},{"pincode":"793120","office":"Manai B.O","district":"WEST KHASI HILLS","state":"MEGHALAYA","circle":"North Eastern Circle","region":"Shillong HQ Region"},{"pincode":"793120","office":"Pariong B.O","district":"WEST KHASI HILLS","state":"MEGHALAYA","circle":"North Eastern Circle","region":"Shillong HQ Region"},{"pincode":"793114","office":"Laitnongrim B.O","district":"SOUTH WEST KHASI HILLS","state":"MEGHALAYA","circle":"North Eastern Circle","region":"Shillong HQ Region"},{"pincode":"793114","office":"Mawlyngwir B.O","district":"SOUTH WEST KHASI HILLS","state":"MEGHALAYA","circle":"North Eastern Circle","region":"Shillong HQ Region"},{"pincode":"793114","office":"Phudjaud B.O","district":"SOUTH WEST KHASI HILLS","state":"MEGHALAYA","circle":"North Eastern Circle","region":"Shillong HQ Region"},{"pincode":"793114","office":"Rangthong B.O","district":"SOUTH WEST KHASI HILLS","state":"MEGHALAYA","circle":"North Eastern Circle","region":"Shillong HQ Region"},{"pincode":"793114","office":"Sngimawlein B.O","district":"SOUTH WEST KHASI HILLS","state":"MEGHALAYA","circle":"North Eastern Circle","region":"Shillong HQ Region"},{"pincode":"793119","office":"Kyrdum","district":"SOUTH WEST KHASI HILLS","state":"MEGHALAYA","circle":"North Eastern Circle","region":"Shillong HQ Region"},{"pincode":"793114","office":"Mawthong","district":"SOUTH WEST KHASI HILLS","state":"MEGHALAYA","circle":"North Eastern Circle","region":"Shillong HQ Region"},{"pincode":"793121","office":"Mawpun B.O","district":"EAST KHASI HILLS","state":"MEGHALAYA","circle":"North Eastern Circle","region":"Shillong HQ Region"},{"pincode":"793121","office":"Nongspung B.O","district":"EAST KHASI HILLS","state":"MEGHALAYA","circle":"North Eastern Circle","region":"Shillong HQ Region"},{"pincode":"793121","office":"Weiloi B.O","district":"EAST KHASI HILLS","state":"MEGHALAYA","circle":"North Eastern Circle","region":"Shillong HQ Region"},{"pincode":"793113","office":"Phlangwanbroi B.O","district":"EAST KHASI HILLS","state":"MEGHALAYA","circle":"North Eastern Circle","region":"Shillong HQ Region"},{"pincode":"793113","office":"Syntein B.O","district":"EAST KHASI HILLS","state":"MEGHALAYA","circle":"North Eastern Circle","region":"Shillong HQ Region"},{"pincode":"793113","office":"Tynger B.O","district":"EAST KHASI HILLS","state":"MEGHALAYA","circle":"North Eastern Circle","region":"Shillong HQ Region"},{"pincode":"793022","office":"Kynton Massar B.O","district":"EAST KHASI HILLS","state":"MEGHALAYA","circle":"North Eastern Circle","region":"Shillong HQ Region"},{"pincode":"793009","office":"Mawklot B.O","district":"EAST KHASI HILLS","state":"MEGHALAYA","circle":"North Eastern Circle","region":"Shillong HQ Region"},{"pincode":"793102","office":"Lailad B.O","district":"RI BHOI","state":"MEGHALAYA","circle":"North Eastern Circle","region":"Shillong HQ Region"},{"pincode":"793102","office":"Umshakhon Mathon B.O","district":"RI BHOI","state":"MEGHALAYA","circle":"North Eastern Circle","region":"Shillong HQ Region"},{"pincode":"793119","office":"Byrki B.O","district":"WEST KHASI HILLS","state":"MEGHALAYA","circle":"North Eastern Circle","region":"Shillong HQ Region"},{"pincode":"793119","office":"Langdongdai B.O","district":"WEST KHASI HILLS","state":"MEGHALAYA","circle":"North Eastern Circle","region":"Shillong HQ Region"},{"pincode":"793119","office":"Mawkohngei B.O","district":"WEST KHASI HILLS","state":"MEGHALAYA","circle":"North Eastern Circle","region":"Shillong HQ Region"},{"pincode":"793119","office":"Mawthungkper B.O","district":"WEST KHASI HILLS","state":"MEGHALAYA","circle":"North Eastern Circle","region":"Shillong HQ Region"},{"pincode":"793119","office":"Nongthynniew B.O","district":"WEST KHASI HILLS","state":"MEGHALAYA","circle":"North Eastern Circle","region":"Shillong HQ Region"},{"pincode":"793119","office":"Phlangdiloin B.O","district":"WEST KHASI HILLS","state":"MEGHALAYA","circle":"North Eastern Circle","region":"Shillong HQ Region"},{"pincode":"793119","office":"Rangblang B.O","district":"WEST KHASI HILLS","state":"MEGHALAYA","circle":"North Eastern Circle","region":"Shillong HQ Region"},{"pincode":"793119","office":"Jukisil","district":"WEST JAINTIA HILLS","state":"MEGHALAYA","circle":"North Eastern Circle","region":"Shillong HQ Region"},{"pincode":"793119","office":"Thiepkseh","district":"WEST JAINTIA HILLS","state":"MEGHALAYA","circle":"North Eastern Circle","region":"Shillong HQ Region"},{"pincode":"793119","office":"Sohmynthar","district":"WEST JAINTIA HILLS","state":"MEGHALAYA","circle":"North Eastern Circle","region":"Shillong HQ Region"},{"pincode":"793119","office":"Khynrin","district":"WEST JAINTIA HILLS","state":"MEGHALAYA","circle":"North Eastern Circle","region":"Shillong HQ Region"},{"pincode":"793119","office":"Mawdet","district":"WEST JAINTIA HILLS","state":"MEGHALAYA","circle":"North Eastern Circle","region":"Shillong HQ Region"},{"pincode":"793119","office":"Mawlangstieh","district":"WEST JAINTIA HILLS","state":"MEGHALAYA","circle":"North Eastern Circle","region":"Shillong HQ Region"},{"pincode":"793119","office":"Urkhli","district":"WEST JAINTIA HILLS","state":"MEGHALAYA","circle":"North Eastern Circle","region":"Shillong HQ Region"},{"pincode":"793119","office":"Mawmluh II","district":"WEST JAINTIA HILLS","state":"MEGHALAYA","circle":"North Eastern Circle","region":"Shillong HQ Region"},{"pincode":"793119","office":"Mawlangriang","district":"WEST JAINTIA HILLS","state":"MEGHALAYA","circle":"North Eastern Circle","region":"Shillong HQ Region"},{"pincode":"793119","office":"Porla","district":"WEST JAINTIA HILLS","state":"MEGHALAYA","circle":"North Eastern Circle","region":"Shillong HQ Region"},{"pincode":"793119","office":"Umwein","district":"WEST JAINTIA HILLS","state":"MEGHALAYA","circle":"North Eastern Circle","region":"Shillong HQ Region"},{"pincode":"793119","office":"Umjakoid","district":"WEST JAINTIA HILLS","state":"MEGHALAYA","circle":"North Eastern Circle","region":"Shillong HQ Region"},{"pincode":"793008","office":"Mawroh B.O","district":"EAST KHASI HILLS","state":"MEGHALAYA","circle":"North Eastern Circle","region":"Shillong HQ Region"},{"pincode":"793110","office":"Mawbeh B.O","district":"EAST KHASI HILLS","state":"MEGHALAYA","circle":"North Eastern Circle","region":"Shillong HQ Region"},{"pincode":"793110","office":"Wahshiarkhmut B.O","district":"EAST KHASI HILLS","state":"MEGHALAYA","circle":"North Eastern Circle","region":"Shillong HQ Region"},{"pincode":"793110","office":"Mawbawein","district":"EAST KHASI HILLS","state":"MEGHALAYA","circle":"North Eastern Circle","region":"Shillong HQ Region"},{"pincode":"793006","office":"Umkdait B.O","district":"EAST KHASI HILLS","state":"MEGHALAYA","circle":"North Eastern Circle","region":"Shillong HQ Region"},{"pincode":"793112","office":"Nongriat","district":"EAST KHASI HILLS","state":"MEGHALAYA","circle":"North Eastern Circle","region":"Shillong HQ Region"},{"pincode":"793015","office":"Lynshing B.O","district":"EAST KHASI HILLS","state":"MEGHALAYA","circle":"North Eastern Circle","region":"Shillong HQ Region"},{"pincode":"793015","office":"Umsawwar","district":"EAST KHASI HILLS","state":"MEGHALAYA","circle":"North Eastern Circle","region":"Shillong HQ Region"},{"pincode":"793015","office":"Mawlang","district":"EAST KHASI HILLS","state":"MEGHALAYA","circle":"North Eastern Circle","region":"Shillong HQ Region"},{"pincode":"793104","office":"Mawlein Mawkhan B.O","district":"RI BHOI","state":"MEGHALAYA","circle":"North Eastern Circle","region":"Shillong HQ Region"},{"pincode":"793151","office":"Nartiang B.O","district":"WEST JAINTIA HILLS","state":"MEGHALAYA","circle":"North Eastern Circle","region":"Shillong HQ Region"},{"pincode":"793151","office":"Laru","district":"WEST JAINTIA HILLS","state":"MEGHALAYA","circle":"North Eastern Circle","region":"Shillong HQ Region"},{"pincode":"793151","office":"Sanaroo","district":"WEST JAINTIA HILLS","state":"MEGHALAYA","circle":"North Eastern Circle","region":"Shillong HQ Region"},{"pincode":"793103","office":"Mawlasnai B.O","district":"RI BHOI","state":"MEGHALAYA","circle":"North Eastern Circle","region":"Shillong HQ Region"},{"pincode":"793105","office":"Mawrong B.O","district":"RI BHOI","state":"MEGHALAYA","circle":"North Eastern Circle","region":"Shillong HQ Region"},{"pincode":"793105","office":"Mawpyrhut","district":"RI BHOI","state":"MEGHALAYA","circle":"North Eastern Circle","region":"Shillong HQ Region"},{"pincode":"793126","office":"Nongma","district":"WEST KHASI HILLS","state":"MEGHALAYA","circle":"North Eastern Circle","region":"Shillong HQ Region"},{"pincode":"793126","office":"Nongpdeng","district":"WEST KHASI HILLS","state":"MEGHALAYA","circle":"North Eastern Circle","region":"Shillong HQ Region"},{"pincode":"793126","office":"Agreng","district":"WEST KHASI HILLS","state":"MEGHALAYA","circle":"North Eastern Circle","region":"Shillong HQ Region"},{"pincode":"793126","office":"Umdiangsiar","district":"WEST KHASI HILLS","state":"MEGHALAYA","circle":"North Eastern Circle","region":"Shillong HQ Region"},{"pincode":"793126","office":"Nongsynrang","district":"WEST KHASI HILLS","state":"MEGHALAYA","circle":"North Eastern Circle","region":"Shillong HQ Region"},{"pincode":"793126","office":"Pyndengkirit","district":"WEST KHASI HILLS","state":"MEGHALAYA","circle":"North Eastern Circle","region":"Shillong HQ Region"},{"pincode":"793126","office":"Swangre Waso","district":"WEST KHASI HILLS","state":"MEGHALAYA","circle":"North Eastern Circle","region":"Shillong HQ Region"},{"pincode":"793126","office":"Swangre Hamegoan","district":"WEST KHASI HILLS","state":"MEGHALAYA","circle":"North Eastern Circle","region":"Shillong HQ Region"},{"pincode":"793126","office":"Rongjambi","district":"WEST KHASI HILLS","state":"MEGHALAYA","circle":"North Eastern Circle","region":"Shillong HQ Region"},{"pincode":"793126","office":"Riangdim","district":"WEST KHASI HILLS","state":"MEGHALAYA","circle":"North Eastern Circle","region":"Shillong HQ Region"},{"pincode":"793126","office":"Langmar","district":"WEST KHASI HILLS","state":"MEGHALAYA","circle":"North Eastern Circle","region":"Shillong HQ Region"},{"pincode":"793106","office":"Nongjri","district":"WEST KHASI HILLS","state":"MEGHALAYA","circle":"North Eastern Circle","region":"Shillong HQ Region"},{"pincode":"794115","office":"Kalaichar B.O","district":"SOUTH WEST GARO HILLS","state":"MEGHALAYA","circle":"North Eastern Circle","region":"Shillong HQ Region"},{"pincode":"794115","office":"Salmanpara B.O","district":"SOUTH WEST GARO HILLS","state":"MEGHALAYA","circle":"North Eastern Circle","region":"Shillong HQ Region"},{"pincode":"794115","office":"Zigzak B.O","district":"SOUTH WEST GARO HILLS","state":"MEGHALAYA","circle":"North Eastern Circle","region":"Shillong HQ Region"},{"pincode":"794115","office":"Upper Kalaichar","district":"SOUTH WEST GARO HILLS","state":"MEGHALAYA","circle":"North Eastern Circle","region":"Shillong HQ Region"},{"pincode":"794102","office":"Balkhalbazar B.O","district":"SOUTH GARO HILLS","state":"MEGHALAYA","circle":"North Eastern Circle","region":"Shillong HQ Region"},{"pincode":"794102","office":"Mendikgiri B.O","district":"SOUTH GARO HILLS","state":"MEGHALAYA","circle":"North Eastern Circle","region":"Shillong HQ Region"},{"pincode":"794102","office":"Chibagre","district":"SOUTH GARO HILLS","state":"MEGHALAYA","circle":"North Eastern Circle","region":"Shillong HQ Region"},{"pincode":"794102","office":"Nengruth","district":"SOUTH GARO HILLS","state":"MEGHALAYA","circle":"North Eastern Circle","region":"Shillong HQ Region"},{"pincode":"794102","office":"Chramgre","district":"SOUTH GARO HILLS","state":"MEGHALAYA","circle":"North Eastern Circle","region":"Shillong HQ Region"},{"pincode":"794102","office":"Karukol Jalaigre","district":"SOUTH GARO HILLS","state":"MEGHALAYA","circle":"North Eastern Circle","region":"Shillong HQ Region"},{"pincode":"794102","office":"Bamon Wakchol","district":"SOUTH GARO HILLS","state":"MEGHALAYA","circle":"North Eastern Circle","region":"Shillong HQ Region"},{"pincode":"794102","office":"Dokgiri","district":"SOUTH GARO HILLS","state":"MEGHALAYA","circle":"North Eastern Circle","region":"Shillong HQ Region"},{"pincode":"794102","office":"Rongsu Rongrigittim","district":"SOUTH GARO HILLS","state":"MEGHALAYA","circle":"North Eastern Circle","region":"Shillong HQ Region"},{"pincode":"794102","office":"Siju Arteka","district":"SOUTH GARO HILLS","state":"MEGHALAYA","circle":"North Eastern Circle","region":"Shillong HQ Region"},{"pincode":"794102","office":"Chutmang Gonggrot","district":"SOUTH GARO HILLS","state":"MEGHALAYA","circle":"North Eastern Circle","region":"Shillong HQ Region"},{"pincode":"794102","office":"Rompa Ading","district":"SOUTH GARO HILLS","state":"MEGHALAYA","circle":"North Eastern Circle","region":"Shillong HQ Region"},{"pincode":"794102","office":"Hatibel","district":"SOUTH GARO HILLS","state":"MEGHALAYA","circle":"North Eastern Circle","region":"Shillong HQ Region"},{"pincode":"794102","office":"Dulbeta","district":"SOUTH GARO HILLS","state":"MEGHALAYA","circle":"North Eastern Circle","region":"Shillong HQ Region"},{"pincode":"794103","office":"Chandabhui B.O","district":"WEST GARO HILLS","state":"MEGHALAYA","circle":"North Eastern Circle","region":"Shillong HQ Region"},{"pincode":"794103","office":"Chengapara B.O","district":"WEST GARO HILLS","state":"MEGHALAYA","circle":"North Eastern Circle","region":"Shillong HQ Region"},{"pincode":"794103","office":"Dimapara B.O","district":"WEST GARO HILLS","state":"MEGHALAYA","circle":"North Eastern Circle","region":"Shillong HQ Region"},{"pincode":"794103","office":"Mangkeng Nokat","district":"WEST GARO HILLS","state":"MEGHALAYA","circle":"North Eastern Circle","region":"Shillong HQ Region"},{"pincode":"794005","office":"Jebalgiri","district":"WEST GARO HILLS","state":"MEGHALAYA","circle":"North Eastern Circle","region":"Shillong HQ Region"},{"pincode":"794005","office":"Naronggre","district":"WEST GARO HILLS","state":"MEGHALAYA","circle":"North Eastern Circle","region":"Shillong HQ Region"},{"pincode":"794104","office":"Mechanpani B.O","district":"WEST GARO HILLS","state":"MEGHALAYA","circle":"North Eastern Circle","region":"Shillong HQ Region"},{"pincode":"794104","office":"Bikonggre B.O","district":"WEST GARO HILLS","state":"MEGHALAYA","circle":"North Eastern Circle","region":"Shillong HQ Region"},{"pincode":"794104","office":"Cheran Songmagre","district":"WEST GARO HILLS","state":"MEGHALAYA","circle":"North Eastern Circle","region":"Shillong HQ Region"},{"pincode":"794105","office":"Okkapara B.O","district":"WEST GARO HILLS","state":"MEGHALAYA","circle":"North Eastern Circle","region":"Shillong HQ Region"},{"pincode":"794105","office":"Teporpara B.O","district":"WEST GARO HILLS","state":"MEGHALAYA","circle":"North Eastern Circle","region":"Shillong HQ Region"},{"pincode":"794105","office":"Zekabari B.O","district":"WEST GARO HILLS","state":"MEGHALAYA","circle":"North Eastern Circle","region":"Shillong HQ Region"},{"pincode":"794002","office":"Dajongpara B.O","district":"WEST GARO HILLS","state":"MEGHALAYA","circle":"North Eastern Circle","region":"Shillong HQ Region"},{"pincode":"794002","office":"Gabil B.O","district":"WEST GARO HILLS","state":"MEGHALAYA","circle":"North Eastern Circle","region":"Shillong HQ Region"},{"pincode":"794002","office":"Rongkhon B.O","district":"WEST GARO HILLS","state":"MEGHALAYA","circle":"North Eastern Circle","region":"Shillong HQ Region"},{"pincode":"794002","office":"Gindopara","district":"WEST GARO HILLS","state":"MEGHALAYA","circle":"North Eastern Circle","region":"Shillong HQ Region"},{"pincode":"794002","office":"Darechikgre","district":"WEST GARO HILLS","state":"MEGHALAYA","circle":"North Eastern Circle","region":"Shillong HQ Region"},{"pincode":"794002","office":"Nokatgre","district":"WEST GARO HILLS","state":"MEGHALAYA","circle":"North Eastern Circle","region":"Shillong HQ Region"},{"pincode":"794112","office":"Rangga","district":"WEST GARO HILLS","state":"MEGHALAYA","circle":"North Eastern Circle","region":"Shillong HQ Region"},{"pincode":"794112","office":"Dochisoram","district":"WEST GARO HILLS","state":"MEGHALAYA","circle":"North Eastern Circle","region":"Shillong HQ Region"},{"pincode":"794112","office":"Rangsa","district":"WEST GARO HILLS","state":"MEGHALAYA","circle":"North Eastern Circle","region":"Shillong HQ Region"},{"pincode":"794112","office":"Upper Jambal","district":"WEST GARO HILLS","state":"MEGHALAYA","circle":"North Eastern Circle","region":"Shillong HQ Region"},{"pincode":"794107","office":"Jadigitim B.O","district":"SOUTH GARO HILLS","state":"MEGHALAYA","circle":"North Eastern Circle","region":"Shillong HQ Region"},{"pincode":"794108","office":"Thapa B.O","district":"NORTH GARO HILLS","state":"MEGHALAYA","circle":"North Eastern Circle","region":"Shillong HQ Region"},{"pincode":"794108","office":"Eguagre","district":"NORTH GARO HILLS","state":"MEGHALAYA","circle":"North Eastern Circle","region":"Shillong HQ Region"},{"pincode":"794108","office":"Dilma Songgital","district":"NORTH GARO HILLS","state":"MEGHALAYA","circle":"North Eastern Circle","region":"Shillong HQ Region"},{"pincode":"794108","office":"Chisim Apal","district":"NORTH GARO HILLS","state":"MEGHALAYA","circle":"North Eastern Circle","region":"Shillong HQ Region"},{"pincode":"794108","office":"Bonggare Olbaknang","district":"NORTH GARO HILLS","state":"MEGHALAYA","circle":"North Eastern Circle","region":"Shillong HQ Region"},{"pincode":"794108","office":"Gambil Apal","district":"NORTH GARO HILLS","state":"MEGHALAYA","circle":"North Eastern Circle","region":"Shillong HQ Region"},{"pincode":"794108","office":"Dagal Aringa","district":"NORTH GARO HILLS","state":"MEGHALAYA","circle":"North Eastern Circle","region":"Shillong HQ Region"},{"pincode":"794110","office":"Dabu B.O","district":"EAST GARO HILLS","state":"MEGHALAYA","circle":"North Eastern Circle","region":"Shillong HQ Region"},{"pincode":"794110","office":"Dainadubi B.O","district":"EAST GARO HILLS","state":"MEGHALAYA","circle":"North Eastern Circle","region":"Shillong HQ Region"},{"pincode":"794113","office":"Gairong B.O","district":"EAST GARO HILLS","state":"MEGHALAYA","circle":"North Eastern Circle","region":"Shillong HQ Region"},{"pincode":"794113","office":"Gambil B.O","district":"EAST GARO HILLS","state":"MEGHALAYA","circle":"North Eastern Circle","region":"Shillong HQ Region"},{"pincode":"794110","office":"Ronga Agal B.O","district":"EAST GARO HILLS","state":"MEGHALAYA","circle":"North Eastern Circle","region":"Shillong HQ Region"},{"pincode":"794115","office":"Bengdapara","district":"EAST GARO HILLS","state":"MEGHALAYA","circle":"North Eastern Circle","region":"Shillong HQ Region"},{"pincode":"794110","office":"Mejolgiri Nokat","district":"EAST GARO HILLS","state":"MEGHALAYA","circle":"North Eastern Circle","region":"Shillong HQ Region"},{"pincode":"794110","office":"Koksi Nengsat","district":"EAST GARO HILLS","state":"MEGHALAYA","circle":"North Eastern Circle","region":"Shillong HQ Region"},{"pincode":"794110","office":"Nongthymmai","district":"EAST GARO HILLS","state":"MEGHALAYA","circle":"North Eastern Circle","region":"Shillong HQ Region"},{"pincode":"794114","office":"Mohadeo Warima","district":"SOUTH GARO HILLS","state":"MEGHALAYA","circle":"North Eastern Circle","region":"Shillong HQ Region"},{"pincode":"794109","office":"Kentapara","district":"WEST GARO HILLS","state":"MEGHALAYA","circle":"North Eastern Circle","region":"Shillong HQ Region"},{"pincode":"794109","office":"Dotronggre","district":"WEST GARO HILLS","state":"MEGHALAYA","circle":"North Eastern Circle","region":"Shillong HQ Region"},{"pincode":"794109","office":"Dabanggre","district":"WEST GARO HILLS","state":"MEGHALAYA","circle":"North Eastern Circle","region":"Shillong HQ Region"},{"pincode":"794109","office":"Jongchipara (Nokat)","district":"WEST GARO HILLS","state":"MEGHALAYA","circle":"North Eastern Circle","region":"Shillong HQ Region"},{"pincode":"794111","office":"Samanda B.O","district":"EAST GARO HILLS","state":"MEGHALAYA","circle":"North Eastern Circle","region":"Shillong HQ Region"},{"pincode":"794111","office":"Songsak B.O","district":"EAST GARO HILLS","state":"MEGHALAYA","circle":"North Eastern Circle","region":"Shillong HQ Region"},{"pincode":"794111","office":"Rongap Mikilsim","district":"EAST GARO HILLS","state":"MEGHALAYA","circle":"North Eastern Circle","region":"Shillong HQ Region"},{"pincode":"794111","office":"Bolmoram Adinggre","district":"EAST GARO HILLS","state":"MEGHALAYA","circle":"North Eastern Circle","region":"Shillong HQ Region"},{"pincode":"794111","office":"Bandigre","district":"EAST GARO HILLS","state":"MEGHALAYA","circle":"North Eastern Circle","region":"Shillong HQ Region"},{"pincode":"794111","office":"Nengkra Bolsalgre","district":"EAST GARO HILLS","state":"MEGHALAYA","circle":"North Eastern Circle","region":"Shillong HQ Region"},{"pincode":"794111","office":"Adugre (Nengsrang Adugre)","district":"EAST GARO HILLS","state":"MEGHALAYA","circle":"North Eastern Circle","region":"Shillong HQ Region"},{"pincode":"794005","office":"Dana Adugiri","district":"EAST GARO HILLS","state":"MEGHALAYA","circle":"North Eastern Circle","region":"Shillong HQ Region"},{"pincode":"794005","office":"Mikadogre","district":"EAST GARO HILLS","state":"MEGHALAYA","circle":"North Eastern Circle","region":"Shillong HQ Region"},{"pincode":"794111","office":"Dabolgre","district":"EAST GARO HILLS","state":"MEGHALAYA","circle":"North Eastern Circle","region":"Shillong HQ Region"},{"pincode":"794107","office":"Shinianggri","district":"EAST GARO HILLS","state":"MEGHALAYA","circle":"North Eastern Circle","region":"Shillong HQ Region"},{"pincode":"794003","office":"Durigre","district":"WEST GARO HILLS","state":"MEGHALAYA","circle":"North Eastern Circle","region":"Shillong HQ Region"},{"pincode":"794003","office":"Dabigre","district":"WEST GARO HILLS","state":"MEGHALAYA","circle":"North Eastern Circle","region":"Shillong HQ Region"},{"pincode":"794003","office":"Amingokgre","district":"WEST GARO HILLS","state":"MEGHALAYA","circle":"North Eastern Circle","region":"Shillong HQ Region"},{"pincode":"794004","office":"Rimrang Bonegre","district":"WEST GARO HILLS","state":"MEGHALAYA","circle":"North Eastern Circle","region":"Shillong HQ Region"},{"pincode":"793107","office":"Bholaganj Bazar S.O","district":"EAST KHASI HILLS","state":"MEGHALAYA","circle":"North Eastern Circle","region":"Shillong HQ Region"},{"pincode":"793002","office":"Iewduh S.O","district":"EAST KHASI HILLS","state":"MEGHALAYA","circle":"North Eastern Circle","region":"Shillong HQ Region"},{"pincode":"793150","office":"Jowai MDG","district":"WEST JAINTIA HILLS","state":"MEGHALAYA","circle":"North Eastern Circle","region":"Shillong HQ Region"},{"pincode":"793200","office":"Khliehriat S.O","district":"EAST JAINTIA HILLS","state":"MEGHALAYA","circle":"North Eastern Circle","region":"Shillong HQ Region"},{"pincode":"793012","office":"Mawpat S.O","district":"EAST KHASI HILLS","state":"MEGHALAYA","circle":"North Eastern Circle","region":"Shillong HQ Region"},{"pincode":"793022","office":"Nehu S.O","district":"EAST KHASI HILLS","state":"MEGHALAYA","circle":"North Eastern Circle","region":"Shillong HQ Region"},{"pincode":"793115","office":"Sohiong S.O","district":"EAST KHASI HILLS","state":"MEGHALAYA","circle":"North Eastern Circle","region":"Shillong HQ Region"},{"pincode":"793151","office":"Thadlaskein S.O","district":"WEST JAINTIA HILLS","state":"MEGHALAYA","circle":"North Eastern Circle","region":"Shillong HQ Region"},{"pincode":"793161","office":"Amlarem S.O","district":"WEST JAINTIA HILLS","state":"MEGHALAYA","circle":"North Eastern Circle","region":"Shillong HQ Region"},{"pincode":"794102","office":"Baghmara S.O","district":"SOUTH GARO HILLS","state":"MEGHALAYA","circle":"North Eastern Circle","region":"Shillong HQ Region"},{"pincode":"794104","office":"Fulbari S.O (West Garo Hills)","district":"WEST GARO HILLS","state":"MEGHALAYA","circle":"North Eastern Circle","region":"Shillong HQ Region"},{"pincode":"794112","office":"Mendipathar S.O","district":"WEST GARO HILLS","state":"MEGHALAYA","circle":"North Eastern Circle","region":"Shillong HQ Region"},{"pincode":"794108","office":"Resubelpara S.O","district":"NORTH GARO HILLS","state":"MEGHALAYA","circle":"North Eastern Circle","region":"Shillong HQ Region"},{"pincode":"794110","office":"Rongjeng S.O","district":"EAST GARO HILLS","state":"MEGHALAYA","circle":"North Eastern Circle","region":"Shillong HQ Region"},{"pincode":"781029","office":"Pillangkata B.O","district":"RI BHOI","state":"MEGHALAYA","circle":"Assam Circle","region":"DivReportingCircle"},{"pincode":"782410","office":"Umlapher B.O","district":"RI BHOI","state":"MEGHALAYA","circle":"Assam Circle","region":"Dibrugarh Region"},{"pincode":"793114","office":"Nongnah B.O","district":"SOUTH WEST KHASI HILLS","state":"MEGHALAYA","circle":"North Eastern Circle","region":"Shillong HQ Region"},{"pincode":"793106","office":"Trongpleng B.O","district":"SOUTH WEST KHASI HILLS","state":"MEGHALAYA","circle":"North Eastern Circle","region":"Shillong HQ Region"},{"pincode":"793106","office":"Umpung B.O","district":"SOUTH WEST KHASI HILLS","state":"MEGHALAYA","circle":"North Eastern Circle","region":"Shillong HQ Region"},{"pincode":"793106","office":"Ganganagar A","district":"EAST KHASI HILLS","state":"MEGHALAYA","circle":"North Eastern Circle","region":"Shillong HQ Region"},{"pincode":"793114","office":"Pyndenkseh","district":"EAST KHASI HILLS","state":"MEGHALAYA","circle":"North Eastern Circle","region":"Shillong HQ Region"},{"pincode":"793101","office":"Nongrim Hills","district":"RI BHOI","state":"MEGHALAYA","circle":"North Eastern Circle","region":"Shillong HQ Region"},{"pincode":"793101","office":"Amjong","district":"RI BHOI","state":"MEGHALAYA","circle":"North Eastern Circle","region":"Shillong HQ Region"},{"pincode":"793101","office":"Amphreng","district":"RI BHOI","state":"MEGHALAYA","circle":"North Eastern Circle","region":"Shillong HQ Region"},{"pincode":"793101","office":"Amkhang","district":"RI BHOI","state":"MEGHALAYA","circle":"North Eastern Circle","region":"Shillong HQ Region"},{"pincode":"793108","office":"Laitduh B.O","district":"EAST KHASI HILLS","state":"MEGHALAYA","circle":"North Eastern Circle","region":"Shillong HQ Region"},{"pincode":"793108","office":"Sohbarpunjee B.O","district":"EAST KHASI HILLS","state":"MEGHALAYA","circle":"North Eastern Circle","region":"Shillong HQ Region"},{"pincode":"793161","office":"Amlari B.O","district":"WEST JAINTIA HILLS","state":"MEGHALAYA","circle":"North Eastern Circle","region":"Shillong HQ Region"},{"pincode":"793110","office":"Lyngkhat B.O","district":"EAST KHASI HILLS","state":"MEGHALAYA","circle":"North Eastern Circle","region":"Shillong HQ Region"},{"pincode":"793110","office":"Nongtyngur B.O","district":"EAST KHASI HILLS","state":"MEGHALAYA","circle":"North Eastern Circle","region":"Shillong HQ Region"},{"pincode":"793150","office":"Mawkaiaw B.O","district":"WEST JAINTIA HILLS","state":"MEGHALAYA","circle":"North Eastern Circle","region":"Shillong HQ Region"},{"pincode":"793150","office":"Mawkyndeng B.O","district":"WEST JAINTIA HILLS","state":"MEGHALAYA","circle":"North Eastern Circle","region":"Shillong HQ Region"},{"pincode":"793150","office":"Nongbah B.O","district":"WEST JAINTIA HILLS","state":"MEGHALAYA","circle":"North Eastern Circle","region":"Shillong HQ Region"},{"pincode":"793150","office":"Sohmynting B.O","district":"WEST JAINTIA HILLS","state":"MEGHALAYA","circle":"North Eastern Circle","region":"Shillong HQ Region"},{"pincode":"793200","office":"Saipung B.O","district":"EAST JAINTIA HILLS","state":"MEGHALAYA","circle":"North Eastern Circle","region":"Shillong HQ Region"},{"pincode":"793200","office":"Pyrtakuna","district":"EAST JAINTIA HILLS","state":"MEGHALAYA","circle":"North Eastern Circle","region":"Shillong HQ Region"},{"pincode":"793200","office":"Mynthning","district":"EAST JAINTIA HILLS","state":"MEGHALAYA","circle":"North Eastern Circle","region":"Shillong HQ Region"},{"pincode":"793200","office":"Khoingoi","district":"EAST JAINTIA HILLS","state":"MEGHALAYA","circle":"North Eastern Circle","region":"Shillong HQ Region"},{"pincode":"793160","office":"Mukhialong B.O","district":"EAST JAINTIA HILLS","state":"MEGHALAYA","circle":"North Eastern Circle","region":"Shillong HQ Region"},{"pincode":"793210","office":"Hingaria","district":"EAST JAINTIA HILLS","state":"MEGHALAYA","circle":"North Eastern Circle","region":"Shillong HQ Region"},{"pincode":"793021","office":"Mawryngkneng B.O","district":"EAST KHASI HILLS","state":"MEGHALAYA","circle":"North Eastern Circle","region":"Shillong HQ Region"},{"pincode":"793120","office":"Kynshi B.O","district":"WEST KHASI HILLS","state":"MEGHALAYA","circle":"North Eastern Circle","region":"Shillong HQ Region"},{"pincode":"793120","office":"Langtor B.O","district":"WEST KHASI HILLS","state":"MEGHALAYA","circle":"North Eastern Circle","region":"Shillong HQ Region"},{"pincode":"793120","office":"Mawkarah B.O","district":"WEST KHASI HILLS","state":"MEGHALAYA","circle":"North Eastern Circle","region":"Shillong HQ Region"},{"pincode":"793120","office":"Myriaw B.O","district":"WEST KHASI HILLS","state":"MEGHALAYA","circle":"North Eastern Circle","region":"Shillong HQ Region"},{"pincode":"793120","office":"Mawpat","district":"EAST KHASI HILLS","state":"MEGHALAYA","circle":"North Eastern Circle","region":"Shillong HQ Region"},{"pincode":"793120","office":"Sohjarang","district":"EAST KHASI HILLS","state":"MEGHALAYA","circle":"North Eastern Circle","region":"Shillong HQ Region"},{"pincode":"793120","office":"Nongsohma","district":"EAST KHASI HILLS","state":"MEGHALAYA","circle":"North Eastern Circle","region":"Shillong HQ Region"},{"pincode":"793114","office":"Jakrem B.O","district":"SOUTH WEST KHASI HILLS","state":"MEGHALAYA","circle":"North Eastern Circle","region":"Shillong HQ Region"},{"pincode":"793114","office":"Mawsaw B.O","district":"SOUTH WEST KHASI HILLS","state":"MEGHALAYA","circle":"North Eastern Circle","region":"Shillong HQ Region"},{"pincode":"793114","office":"Pyndemsakwang B.O","district":"SOUTH WEST KHASI HILLS","state":"MEGHALAYA","circle":"North Eastern Circle","region":"Shillong HQ Region"},{"pincode":"793114","office":"Rangmaw B.O","district":"SOUTH WEST KHASI HILLS","state":"MEGHALAYA","circle":"North Eastern Circle","region":"Shillong HQ Region"},{"pincode":"793114","office":"Mawksiar Pondi","district":"SOUTH WEST KHASI HILLS","state":"MEGHALAYA","circle":"North Eastern Circle","region":"Shillong HQ Region"},{"pincode":"793121","office":"Mawkriah B.O","district":"EAST KHASI HILLS","state":"MEGHALAYA","circle":"North Eastern Circle","region":"Shillong HQ Region"},{"pincode":"793121","office":"Mawtiehbah B.O","district":"EAST KHASI HILLS","state":"MEGHALAYA","circle":"North Eastern Circle","region":"Shillong HQ Region"},{"pincode":"793121","office":"Tyrsad B.O","district":"EAST KHASI HILLS","state":"MEGHALAYA","circle":"North Eastern Circle","region":"Shillong HQ Region"},{"pincode":"793113","office":"Mawdongbazar B.O","district":"EAST KHASI HILLS","state":"MEGHALAYA","circle":"North Eastern Circle","region":"Shillong HQ Region"},{"pincode":"793009","office":"Mylliem Syllai U Lar B.O","district":"EAST KHASI HILLS","state":"MEGHALAYA","circle":"North Eastern Circle","region":"Shillong HQ Region"},{"pincode":"793102","office":"Hatumling B.O","district":"RI BHOI","state":"MEGHALAYA","circle":"North Eastern Circle","region":"Shillong HQ Region"},{"pincode":"793102","office":"Kynjoin Umran B.O","district":"RI BHOI","state":"MEGHALAYA","circle":"North Eastern Circle","region":"Shillong HQ Region"},{"pincode":"793102","office":"Marmain B.O","district":"RI BHOI","state":"MEGHALAYA","circle":"North Eastern Circle","region":"Shillong HQ Region"},{"pincode":"793102","office":"Marngar B.O","district":"RI BHOI","state":"MEGHALAYA","circle":"North Eastern Circle","region":"Shillong HQ Region"},{"pincode":"793102","office":"Niangbari B.O","district":"RI BHOI","state":"MEGHALAYA","circle":"North Eastern Circle","region":"Shillong HQ Region"},{"pincode":"793102","office":"Umrang Nongbah B.O","district":"RI BHOI","state":"MEGHALAYA","circle":"North Eastern Circle","region":"Shillong HQ Region"},{"pincode":"793102","office":"Borgang","district":"RI BHOI","state":"MEGHALAYA","circle":"North Eastern Circle","region":"Shillong HQ Region"},{"pincode":"793102","office":"Mawryngkang","district":"RI BHOI","state":"MEGHALAYA","circle":"North Eastern Circle","region":"Shillong HQ Region"},{"pincode":"793119","office":"Jaidoh B.O","district":"WEST KHASI HILLS","state":"MEGHALAYA","circle":"North Eastern Circle","region":"Shillong HQ Region"},{"pincode":"793119","office":"Khliehmawlieh B.O","district":"WEST KHASI HILLS","state":"MEGHALAYA","circle":"North Eastern Circle","region":"Shillong HQ Region"},{"pincode":"793119","office":"Mawlieh B.O","district":"WEST KHASI HILLS","state":"MEGHALAYA","circle":"North Eastern Circle","region":"Shillong HQ Region"},{"pincode":"793119","office":"Pam Briew B.O","district":"WEST KHASI HILLS","state":"MEGHALAYA","circle":"North Eastern Circle","region":"Shillong HQ Region"},{"pincode":"793119","office":"Thangpylleng Pyndemkseh B.O","district":"WEST KHASI HILLS","state":"MEGHALAYA","circle":"North Eastern Circle","region":"Shillong HQ Region"},{"pincode":"793119","office":"Nongrathaw","district":"WEST JAINTIA HILLS","state":"MEGHALAYA","circle":"North Eastern Circle","region":"Shillong HQ Region"},{"pincode":"793119","office":"Jiriangsin","district":"WEST JAINTIA HILLS","state":"MEGHALAYA","circle":"North Eastern Circle","region":"Shillong HQ Region"},{"pincode":"793119","office":"Photjalei","district":"WEST JAINTIA HILLS","state":"MEGHALAYA","circle":"North Eastern Circle","region":"Shillong HQ Region"},{"pincode":"793119","office":"Mawrok","district":"WEST JAINTIA HILLS","state":"MEGHALAYA","circle":"North Eastern Circle","region":"Shillong HQ Region"},{"pincode":"793119","office":"Mawkhait Mihngi","district":"WEST JAINTIA HILLS","state":"MEGHALAYA","circle":"North Eastern Circle","region":"Shillong HQ Region"},{"pincode":"793119","office":"Umsaw","district":"WEST JAINTIA HILLS","state":"MEGHALAYA","circle":"North Eastern Circle","region":"Shillong HQ Region"},{"pincode":"793110","office":"Myllat B.O","district":"EAST KHASI HILLS","state":"MEGHALAYA","circle":"North Eastern Circle","region":"Shillong HQ Region"},{"pincode":"793110","office":"Nongjri B.O","district":"EAST KHASI HILLS","state":"MEGHALAYA","circle":"North Eastern Circle","region":"Shillong HQ Region"},{"pincode":"793110","office":"Nongshken","district":"EAST KHASI HILLS","state":"MEGHALAYA","circle":"North Eastern Circle","region":"Shillong HQ Region"},{"pincode":"793015","office":"Kharang B.O","district":"EAST KHASI HILLS","state":"MEGHALAYA","circle":"North Eastern Circle","region":"Shillong HQ Region"},{"pincode":"793021","office":"Sohryngkham B.O","district":"EAST KHASI HILLS","state":"MEGHALAYA","circle":"North Eastern Circle","region":"Shillong HQ Region"},{"pincode":"793015","office":"Umphyrnai B.O","district":"EAST KHASI HILLS","state":"MEGHALAYA","circle":"North Eastern Circle","region":"Shillong HQ Region"},{"pincode":"793015","office":"Umsning B.O","district":"EAST KHASI HILLS","state":"MEGHALAYA","circle":"North Eastern Circle","region":"Shillong HQ Region"},{"pincode":"793151","office":"Mawbakhon B.O","district":"WEST JAINTIA HILLS","state":"MEGHALAYA","circle":"North Eastern Circle","region":"Shillong HQ Region"},{"pincode":"793151","office":"Mookynniang B.O","district":"WEST JAINTIA HILLS","state":"MEGHALAYA","circle":"North Eastern Circle","region":"Shillong HQ Region"},{"pincode":"793151","office":"Nongjngi B.O","district":"WEST JAINTIA HILLS","state":"MEGHALAYA","circle":"North Eastern Circle","region":"Shillong HQ Region"},{"pincode":"793105","office":"Umran B.O","district":"RI BHOI","state":"MEGHALAYA","circle":"North Eastern Circle","region":"Shillong HQ Region"},{"pincode":"793105","office":"Umsohlait B.O","district":"RI BHOI","state":"MEGHALAYA","circle":"North Eastern Circle","region":"Shillong HQ Region"},{"pincode":"793105","office":"Korhadem","district":"RI BHOI","state":"MEGHALAYA","circle":"North Eastern Circle","region":"Shillong HQ Region"},{"pincode":"793105","office":"Jokiang","district":"RI BHOI","state":"MEGHALAYA","circle":"North Eastern Circle","region":"Shillong HQ Region"},{"pincode":"793105","office":"Mawlyngkhung","district":"RI BHOI","state":"MEGHALAYA","circle":"North Eastern Circle","region":"Shillong HQ Region"},{"pincode":"793116","office":"Sohliya Iapngar","district":"RI BHOI","state":"MEGHALAYA","circle":"North Eastern Circle","region":"Shillong HQ Region"},{"pincode":"793116","office":"Raitong","district":"RI BHOI","state":"MEGHALAYA","circle":"North Eastern Circle","region":"Shillong HQ Region"},{"pincode":"793126","office":"SENDULI B.O","district":"WEST KHASI HILLS","state":"MEGHALAYA","circle":"North Eastern Circle","region":"Shillong HQ Region"},{"pincode":"793126","office":"Ktiehthawiar","district":"WEST KHASI HILLS","state":"MEGHALAYA","circle":"North Eastern Circle","region":"Shillong HQ Region"},{"pincode":"793126","office":"Riwiang","district":"WEST KHASI HILLS","state":"MEGHALAYA","circle":"North Eastern Circle","region":"Shillong HQ Region"},{"pincode":"793126","office":"Mawlai","district":"WEST KHASI HILLS","state":"MEGHALAYA","circle":"North Eastern Circle","region":"Shillong HQ Region"},{"pincode":"793126","office":"Umdang","district":"WEST KHASI HILLS","state":"MEGHALAYA","circle":"North Eastern Circle","region":"Shillong HQ Region"},{"pincode":"793126","office":"Swangre Daat","district":"WEST KHASI HILLS","state":"MEGHALAYA","circle":"North Eastern Circle","region":"Shillong HQ Region"},{"pincode":"793126","office":"Mawbon Agar","district":"WEST KHASI HILLS","state":"MEGHALAYA","circle":"North Eastern Circle","region":"Shillong HQ Region"},{"pincode":"793126","office":"Rongthok","district":"WEST KHASI HILLS","state":"MEGHALAYA","circle":"North Eastern Circle","region":"Shillong HQ Region"},{"pincode":"793126","office":"Wakpangram A","district":"WEST KHASI HILLS","state":"MEGHALAYA","circle":"North Eastern Circle","region":"Shillong HQ Region"},{"pincode":"794115","office":"Rongkaigre","district":"SOUTH WEST GARO HILLS","state":"MEGHALAYA","circle":"North Eastern Circle","region":"Shillong HQ Region"},{"pincode":"794102","office":"Panda B.O","district":"SOUTH GARO HILLS","state":"MEGHALAYA","circle":"North Eastern Circle","region":"Shillong HQ Region"},{"pincode":"794102","office":"Dumnikura","district":"SOUTH GARO HILLS","state":"MEGHALAYA","circle":"North Eastern Circle","region":"Shillong HQ Region"},{"pincode":"794102","office":"Nengkong Mandagre","district":"SOUTH GARO HILLS","state":"MEGHALAYA","circle":"North Eastern Circle","region":"Shillong HQ Region"},{"pincode":"794102","office":"Nengkong Songmong","district":"SOUTH GARO HILLS","state":"MEGHALAYA","circle":"North Eastern Circle","region":"Shillong HQ Region"},{"pincode":"794102","office":"Chibe Janthagre","district":"SOUTH GARO HILLS","state":"MEGHALAYA","circle":"North Eastern Circle","region":"Shillong HQ Region"},{"pincode":"794102","office":"Chigitchakgre","district":"SOUTH GARO HILLS","state":"MEGHALAYA","circle":"North Eastern Circle","region":"Shillong HQ Region"},{"pincode":"794102","office":"Bedolboi","district":"SOUTH GARO HILLS","state":"MEGHALAYA","circle":"North Eastern Circle","region":"Shillong HQ Region"},{"pincode":"794102","office":"Rewak Songmong","district":"SOUTH GARO HILLS","state":"MEGHALAYA","circle":"North Eastern Circle","region":"Shillong HQ Region"},{"pincode":"794102","office":"Rongsu Mongbitgittim","district":"SOUTH GARO HILLS","state":"MEGHALAYA","circle":"North Eastern Circle","region":"Shillong HQ Region"},{"pincode":"794102","office":"Hangshapal","district":"SOUTH GARO HILLS","state":"MEGHALAYA","circle":"North Eastern Circle","region":"Shillong HQ Region"},{"pincode":"794102","office":"Gaobari","district":"SOUTH GARO HILLS","state":"MEGHALAYA","circle":"North Eastern Circle","region":"Shillong HQ Region"},{"pincode":"794102","office":"Sanbana","district":"SOUTH GARO HILLS","state":"MEGHALAYA","circle":"North Eastern Circle","region":"Shillong HQ Region"},{"pincode":"794102","office":"Chenggni Songmong","district":"SOUTH GARO HILLS","state":"MEGHALAYA","circle":"North Eastern Circle","region":"Shillong HQ Region"},{"pincode":"794103","office":"Halchati B.O","district":"WEST GARO HILLS","state":"MEGHALAYA","circle":"North Eastern Circle","region":"Shillong HQ Region"},{"pincode":"794005","office":"Chisakgre","district":"WEST GARO HILLS","state":"MEGHALAYA","circle":"North Eastern Circle","region":"Shillong HQ Region"},{"pincode":"794005","office":"Molmegre Nokat (Thallanggre","district":"WEST GARO HILLS","state":"MEGHALAYA","circle":"North Eastern Circle","region":"Shillong HQ Region"},{"pincode":"794005","office":"Barongpara","district":"WEST GARO HILLS","state":"MEGHALAYA","circle":"North Eastern Circle","region":"Shillong HQ Region"},{"pincode":"794005","office":"Karijhoragre","district":"WEST GARO HILLS","state":"MEGHALAYA","circle":"North Eastern Circle","region":"Shillong HQ Region"},{"pincode":"794005","office":"Jetragiri","district":"WEST GARO HILLS","state":"MEGHALAYA","circle":"North Eastern Circle","region":"Shillong HQ Region"},{"pincode":"794005","office":"Darengiri","district":"WEST GARO HILLS","state":"MEGHALAYA","circle":"North Eastern Circle","region":"Shillong HQ Region"},{"pincode":"794005","office":"Dorangre A","district":"WEST GARO HILLS","state":"MEGHALAYA","circle":"North Eastern Circle","region":"Shillong HQ Region"},{"pincode":"794104","office":"Batabari B.O","district":"WEST GARO HILLS","state":"MEGHALAYA","circle":"North Eastern Circle","region":"Shillong HQ Region"},{"pincode":"794104","office":"Gatsingbazar B.O","district":"WEST GARO HILLS","state":"MEGHALAYA","circle":"North Eastern Circle","region":"Shillong HQ Region"},{"pincode":"794104","office":"Manlakandi B.O","district":"WEST GARO HILLS","state":"MEGHALAYA","circle":"North Eastern Circle","region":"Shillong HQ Region"},{"pincode":"794104","office":"Shyamnagar B.O","district":"WEST GARO HILLS","state":"MEGHALAYA","circle":"North Eastern Circle","region":"Shillong HQ Region"},{"pincode":"794105","office":"Garodoba B.O","district":"WEST GARO HILLS","state":"MEGHALAYA","circle":"North Eastern Circle","region":"Shillong HQ Region"},{"pincode":"794105","office":"Haldibari B.O","district":"WEST GARO HILLS","state":"MEGHALAYA","circle":"North Eastern Circle","region":"Shillong HQ Region"},{"pincode":"794105","office":"Mukhdangra B.O","district":"WEST GARO HILLS","state":"MEGHALAYA","circle":"North Eastern Circle","region":"Shillong HQ Region"},{"pincode":"794105","office":"Rongsakhona B.O","district":"WEST GARO HILLS","state":"MEGHALAYA","circle":"North Eastern Circle","region":"Shillong HQ Region"},{"pincode":"794002","office":"Edenbari Rongkhon B.O","district":"WEST GARO HILLS","state":"MEGHALAYA","circle":"North Eastern Circle","region":"Shillong HQ Region"},{"pincode":"794002","office":"Jingjal B.O","district":"WEST GARO HILLS","state":"MEGHALAYA","circle":"North Eastern Circle","region":"Shillong HQ Region"},{"pincode":"794002","office":"Raja Apal B.O","district":"WEST GARO HILLS","state":"MEGHALAYA","circle":"North Eastern Circle","region":"Shillong HQ Region"},{"pincode":"794002","office":"Raribazar B.O","district":"WEST GARO HILLS","state":"MEGHALAYA","circle":"North Eastern Circle","region":"Shillong HQ Region"},{"pincode":"794002","office":"Lower Baljek Aduma","district":"WEST GARO HILLS","state":"MEGHALAYA","circle":"North Eastern Circle","region":"Shillong HQ Region"},{"pincode":"794002","office":"Teksragre","district":"WEST GARO HILLS","state":"MEGHALAYA","circle":"North Eastern Circle","region":"Shillong HQ Region"},{"pincode":"794002","office":"Ampanggre","district":"WEST GARO HILLS","state":"MEGHALAYA","circle":"North Eastern Circle","region":"Shillong HQ Region"},{"pincode":"794002","office":"Chokagre","district":"WEST GARO HILLS","state":"MEGHALAYA","circle":"North Eastern Circle","region":"Shillong HQ Region"},{"pincode":"794002","office":"Ading Nokatgre","district":"WEST GARO HILLS","state":"MEGHALAYA","circle":"North Eastern Circle","region":"Shillong HQ Region"},{"pincode":"794106","office":"Chapahati B.O","district":"SOUTH WEST GARO HILLS","state":"MEGHALAYA","circle":"North Eastern Circle","region":"Shillong HQ Region"},{"pincode":"794106","office":"Majerchar B.O","district":"SOUTH WEST GARO HILLS","state":"MEGHALAYA","circle":"North Eastern Circle","region":"Shillong HQ Region"},{"pincode":"794112","office":"Mingkrak","district":"WEST GARO HILLS","state":"MEGHALAYA","circle":"North Eastern Circle","region":"Shillong HQ Region"},{"pincode":"794112","office":"Dilma Ading","district":"WEST GARO HILLS","state":"MEGHALAYA","circle":"North Eastern Circle","region":"Shillong HQ Region"},{"pincode":"794112","office":"Chiwaki","district":"WEST GARO HILLS","state":"MEGHALAYA","circle":"North Eastern Circle","region":"Shillong HQ Region"},{"pincode":"794112","office":"Amerim","district":"WEST GARO HILLS","state":"MEGHALAYA","circle":"North Eastern Circle","region":"Shillong HQ Region"},{"pincode":"794112","office":"Rongit Rengngittim","district":"WEST GARO HILLS","state":"MEGHALAYA","circle":"North Eastern Circle","region":"Shillong HQ Region"},{"pincode":"794112","office":"Agropatal","district":"WEST GARO HILLS","state":"MEGHALAYA","circle":"North Eastern Circle","region":"Shillong HQ Region"},{"pincode":"794107","office":"Riangshi A","district":"SOUTH GARO HILLS","state":"MEGHALAYA","circle":"North Eastern Circle","region":"Shillong HQ Region"},{"pincode":"794108","office":"Dagal B.O","district":"NORTH GARO HILLS","state":"MEGHALAYA","circle":"North Eastern Circle","region":"Shillong HQ Region"},{"pincode":"794108","office":"Daram B.O","district":"NORTH GARO HILLS","state":"MEGHALAYA","circle":"North Eastern Circle","region":"Shillong HQ Region"},{"pincode":"794108","office":"Mandalanggre","district":"NORTH GARO HILLS","state":"MEGHALAYA","circle":"North Eastern Circle","region":"Shillong HQ Region"},{"pincode":"794108","office":"Bonggare Chimitcheng","district":"NORTH GARO HILLS","state":"MEGHALAYA","circle":"North Eastern Circle","region":"Shillong HQ Region"},{"pincode":"794108","office":"Bolgrimgittim (Baksalpara)","district":"NORTH GARO HILLS","state":"MEGHALAYA","circle":"North Eastern Circle","region":"Shillong HQ Region"},{"pincode":"794108","office":"Dalbot Chiwate","district":"NORTH GARO HILLS","state":"MEGHALAYA","circle":"North Eastern Circle","region":"Shillong HQ Region"},{"pincode":"794114","office":"Warimagiri B.O","district":"SOUTH GARO HILLS","state":"MEGHALAYA","circle":"North Eastern Circle","region":"Shillong HQ Region"},{"pincode":"794114","office":"Teptepa","district":"SOUTH GARO HILLS","state":"MEGHALAYA","circle":"North Eastern Circle","region":"Shillong HQ Region"},{"pincode":"794114","office":"New Rompa","district":"SOUTH GARO HILLS","state":"MEGHALAYA","circle":"North Eastern Circle","region":"Shillong HQ Region"},{"pincode":"794109","office":"Hatugaon B.O","district":"WEST GARO HILLS","state":"MEGHALAYA","circle":"North Eastern Circle","region":"Shillong HQ Region"},{"pincode":"794109","office":"Raksamgiri B.O","district":"WEST GARO HILLS","state":"MEGHALAYA","circle":"North Eastern Circle","region":"Shillong HQ Region"},{"pincode":"794109","office":"Lower Chisikgre","district":"WEST GARO HILLS","state":"MEGHALAYA","circle":"North Eastern Circle","region":"Shillong HQ Region"},{"pincode":"794109","office":"Doabokgre","district":"WEST GARO HILLS","state":"MEGHALAYA","circle":"North Eastern Circle","region":"Shillong HQ Region"},{"pincode":"794109","office":"Jengritgre","district":"WEST GARO HILLS","state":"MEGHALAYA","circle":"North Eastern Circle","region":"Shillong HQ Region"},{"pincode":"794111","office":"Rombagiri B.O","district":"EAST GARO HILLS","state":"MEGHALAYA","circle":"North Eastern Circle","region":"Shillong HQ Region"},{"pincode":"794111","office":"Sokadam Balading","district":"EAST GARO HILLS","state":"MEGHALAYA","circle":"North Eastern Circle","region":"Shillong HQ Region"},{"pincode":"794111","office":"Dobu Rongmu","district":"EAST GARO HILLS","state":"MEGHALAYA","circle":"North Eastern Circle","region":"Shillong HQ Region"},{"pincode":"794111","office":"Tongbolgre Kamagre (Songgit","district":"EAST GARO HILLS","state":"MEGHALAYA","circle":"North Eastern Circle","region":"Shillong HQ Region"},{"pincode":"794111","office":"Rongribo Gongmagre","district":"EAST GARO HILLS","state":"MEGHALAYA","circle":"North Eastern Circle","region":"Shillong HQ Region"},{"pincode":"794111","office":"Kalak Dorek","district":"EAST GARO HILLS","state":"MEGHALAYA","circle":"North Eastern Circle","region":"Shillong HQ Region"},{"pincode":"794111","office":"Rongkinggre","district":"EAST GARO HILLS","state":"MEGHALAYA","circle":"North Eastern Circle","region":"Shillong HQ Region"},{"pincode":"794111","office":"Kakwa Duragre","district":"EAST GARO HILLS","state":"MEGHALAYA","circle":"North Eastern Circle","region":"Shillong HQ Region"},{"pincode":"794111","office":"Sobokgre","district":"EAST GARO HILLS","state":"MEGHALAYA","circle":"North Eastern Circle","region":"Shillong HQ Region"},{"pincode":"794111","office":"Rongbing Boldak (B)","district":"EAST GARO HILLS","state":"MEGHALAYA","circle":"North Eastern Circle","region":"Shillong HQ Region"},{"pincode":"794003","office":"Dipogre","district":"WEST GARO HILLS","state":"MEGHALAYA","circle":"North Eastern Circle","region":"Shillong HQ Region"},{"pincode":"793011","office":"Assam Rifles S.O","district":"EAST KHASI HILLS","state":"MEGHALAYA","circle":"North Eastern Circle","region":"Shillong HQ Region"},{"pincode":"793101","office":"Byrnihat S.O","district":"RI BHOI","state":"MEGHALAYA","circle":"North Eastern Circle","region":"Shillong HQ Region"},{"pincode":"793004","office":"Laban S.O","district":"EAST KHASI HILLS","state":"MEGHALAYA","circle":"North Eastern Circle","region":"Shillong HQ Region"},{"pincode":"793210","office":"Lumshnong S.O","district":"EAST JAINTIA HILLS","state":"MEGHALAYA","circle":"North Eastern Circle","region":"Shillong HQ Region"},{"pincode":"793114","office":"Mawkyrwat S.O","district":"SOUTH WEST KHASI HILLS","state":"MEGHALAYA","circle":"North Eastern Circle","region":"Shillong HQ Region"},{"pincode":"793121","office":"Mawphlang S.O","district":"EAST KHASI HILLS","state":"MEGHALAYA","circle":"North Eastern Circle","region":"Shillong HQ Region"},{"pincode":"793019","office":"Nongmynsong S.O","district":"EAST KHASI HILLS","state":"MEGHALAYA","circle":"North Eastern Circle","region":"Shillong HQ Region"},{"pincode":"793102","office":"Nongpoh S.O","district":"RI BHOI","state":"MEGHALAYA","circle":"North Eastern Circle","region":"Shillong HQ Region"},{"pincode":"793014","office":"Nongthymmai S.O","district":"EAST KHASI HILLS","state":"MEGHALAYA","circle":"North Eastern Circle","region":"Shillong HQ Region"},{"pincode":"793008","office":"Phudmawri S.O","district":"EAST KHASI HILLS","state":"MEGHALAYA","circle":"North Eastern Circle","region":"Shillong HQ Region"},{"pincode":"793110","office":"Pynursla S.O","district":"EAST KHASI HILLS","state":"MEGHALAYA","circle":"North Eastern Circle","region":"Shillong HQ Region"},{"pincode":"793006","office":"Rynjah S.O","district":"EAST KHASI HILLS","state":"MEGHALAYA","circle":"North Eastern Circle","region":"Shillong HQ Region"},{"pincode":"793112","office":"Shella S.O","district":"EAST KHASI HILLS","state":"MEGHALAYA","circle":"North Eastern Circle","region":"Shillong HQ Region"},{"pincode":"793104","office":"Sumer S.O","district":"RI BHOI","state":"MEGHALAYA","circle":"North Eastern Circle","region":"Shillong HQ Region"},{"pincode":"793005","office":"Upper Shillong S.O","district":"EAST KHASI HILLS","state":"MEGHALAYA","circle":"North Eastern Circle","region":"Shillong HQ Region"},{"pincode":"793126","office":"Riangdo Bazar S.O","district":"WEST KHASI HILLS","state":"MEGHALAYA","circle":"North Eastern Circle","region":"Shillong HQ Region"},{"pincode":"794115","office":"Ampati S.O","district":"SOUTH WEST GARO HILLS","state":"MEGHALAYA","circle":"North Eastern Circle","region":"Shillong HQ Region"},{"pincode":"794101","office":"Araimile S.O","district":"WEST GARO HILLS","state":"MEGHALAYA","circle":"North Eastern Circle","region":"Shillong HQ Region"},{"pincode":"794002","office":"Lower Chandmari S.O","district":"WEST GARO HILLS","state":"MEGHALAYA","circle":"North Eastern Circle","region":"Shillong HQ Region"},{"pincode":"781131","office":"Patharkhmah B.O","district":"RI BHOI","state":"MEGHALAYA","circle":"Assam Circle","region":"DivReportingCircle"},{"pincode":"793106","office":"Puksora B.O","district":"SOUTH WEST KHASI HILLS","state":"MEGHALAYA","circle":"North Eastern Circle","region":"Shillong HQ Region"},{"pincode":"793106","office":"Rajapara B.O","district":"SOUTH WEST KHASI HILLS","state":"MEGHALAYA","circle":"North Eastern Circle","region":"Shillong HQ Region"},{"pincode":"793106","office":"Amarsang","district":"EAST KHASI HILLS","state":"MEGHALAYA","circle":"North Eastern Circle","region":"Shillong HQ Region"},{"pincode":"793106","office":"Pormadar","district":"EAST KHASI HILLS","state":"MEGHALAYA","circle":"North Eastern Circle","region":"Shillong HQ Region"},{"pincode":"793101","office":"Jorabat B.O","district":"RI BHOI","state":"MEGHALAYA","circle":"North Eastern Circle","region":"Shillong HQ Region"},{"pincode":"793101","office":"Mawden Domphlang","district":"RI BHOI","state":"MEGHALAYA","circle":"North Eastern Circle","region":"Shillong HQ Region"},{"pincode":"793101","office":"Jalilum","district":"RI BHOI","state":"MEGHALAYA","circle":"North Eastern Circle","region":"Shillong HQ Region"},{"pincode":"793111","office":"Ladmawphlang B.O","district":"EAST KHASI HILLS","state":"MEGHALAYA","circle":"North Eastern Circle","region":"Shillong HQ Region"},{"pincode":"793112","office":"Mawlong B.O","district":"EAST KHASI HILLS","state":"MEGHALAYA","circle":"North Eastern Circle","region":"Shillong HQ Region"},{"pincode":"793108","office":"Mawmluh B.O","district":"EAST KHASI HILLS","state":"MEGHALAYA","circle":"North Eastern Circle","region":"Shillong HQ Region"},{"pincode":"793109","office":"Darrang B.O","district":"WEST JAINTIA HILLS","state":"MEGHALAYA","circle":"North Eastern Circle","region":"Shillong HQ Region"},{"pincode":"793109","office":"Muktapur B.O","district":"WEST JAINTIA HILLS","state":"MEGHALAYA","circle":"North Eastern Circle","region":"Shillong HQ Region"},{"pincode":"793109","office":"Nongtalang B.O","district":"WEST JAINTIA HILLS","state":"MEGHALAYA","circle":"North Eastern Circle","region":"Shillong HQ Region"},{"pincode":"793109","office":"Passadwar B.O","district":"WEST JAINTIA HILLS","state":"MEGHALAYA","circle":"North Eastern Circle","region":"Shillong HQ Region"},{"pincode":"793109","office":"Rongkhum B.O","district":"WEST JAINTIA HILLS","state":"MEGHALAYA","circle":"North Eastern Circle","region":"Shillong HQ Region"},{"pincode":"793150","office":"Laskein B.O","district":"WEST JAINTIA HILLS","state":"MEGHALAYA","circle":"North Eastern Circle","region":"Shillong HQ Region"},{"pincode":"793150","office":"Mihmyntdu B.O","district":"WEST JAINTIA HILLS","state":"MEGHALAYA","circle":"North Eastern Circle","region":"Shillong HQ Region"},{"pincode":"793150","office":"Sahsniang B.O","district":"WEST JAINTIA HILLS","state":"MEGHALAYA","circle":"North Eastern Circle","region":"Shillong HQ Region"},{"pincode":"793150","office":"Shangpung B.O","district":"WEST JAINTIA HILLS","state":"MEGHALAYA","circle":"North Eastern Circle","region":"Shillong HQ Region"},{"pincode":"793150","office":"Trangblang B.O","district":"WEST JAINTIA HILLS","state":"MEGHALAYA","circle":"North Eastern Circle","region":"Shillong HQ Region"},{"pincode":"793150","office":"Yalang B.O","district":"WEST JAINTIA HILLS","state":"MEGHALAYA","circle":"North Eastern Circle","region":"Shillong HQ Region"},{"pincode":"793150","office":"Shilliang Myntang","district":"WEST JAINTIA HILLS","state":"MEGHALAYA","circle":"North Eastern Circle","region":"Shillong HQ Region"},{"pincode":"793150","office":"Madanrwai","district":"WEST JAINTIA HILLS","state":"MEGHALAYA","circle":"North Eastern Circle","region":"Shillong HQ Region"},{"pincode":"793200","office":"Pala B.O","district":"EAST JAINTIA HILLS","state":"MEGHALAYA","circle":"North Eastern Circle","region":"Shillong HQ Region"},{"pincode":"793200","office":"Shnongrim B.O","district":"EAST JAINTIA HILLS","state":"MEGHALAYA","circle":"North Eastern Circle","region":"Shillong HQ Region"},{"pincode":"793210","office":"Sonapur B.O","district":"EAST JAINTIA HILLS","state":"MEGHALAYA","circle":"North Eastern Circle","region":"Shillong HQ Region"},{"pincode":"793200","office":"Khlieh Myntriang","district":"EAST JAINTIA HILLS","state":"MEGHALAYA","circle":"North Eastern Circle","region":"Shillong HQ Region"},{"pincode":"793200","office":"Um Satai","district":"EAST JAINTIA HILLS","state":"MEGHALAYA","circle":"North Eastern Circle","region":"Shillong HQ Region"},{"pincode":"793200","office":"Pynurkba","district":"EAST JAINTIA HILLS","state":"MEGHALAYA","circle":"North Eastern Circle","region":"Shillong HQ Region"},{"pincode":"793200","office":"Borghat","district":"EAST JAINTIA HILLS","state":"MEGHALAYA","circle":"North Eastern Circle","region":"Shillong HQ Region"},{"pincode":"793200","office":"Thuruk","district":"EAST JAINTIA HILLS","state":"MEGHALAYA","circle":"North Eastern Circle","region":"Shillong HQ Region"},{"pincode":"793200","office":"Tangnub","district":"EAST JAINTIA HILLS","state":"MEGHALAYA","circle":"North Eastern Circle","region":"Shillong HQ Region"},{"pincode":"793200","office":"Moullian","district":"EAST JAINTIA HILLS","state":"MEGHALAYA","circle":"North Eastern Circle","region":"Shillong HQ Region"},{"pincode":"793160","office":"Bataw B.O","district":"EAST JAINTIA HILLS","state":"MEGHALAYA","circle":"North Eastern Circle","region":"Shillong HQ Region"},{"pincode":"793160","office":"Musniang B.O","district":"EAST JAINTIA HILLS","state":"MEGHALAYA","circle":"North Eastern Circle","region":"Shillong HQ Region"},{"pincode":"793160","office":"Wapung B.O","district":"EAST JAINTIA HILLS","state":"MEGHALAYA","circle":"North Eastern Circle","region":"Shillong HQ Region"},{"pincode":"793160","office":"Lad Wahwapung","district":"EAST JAINTIA HILLS","state":"MEGHALAYA","circle":"North Eastern Circle","region":"Shillong HQ Region"},{"pincode":"793010","office":"Laitkor B.O","district":"EAST KHASI HILLS","state":"MEGHALAYA","circle":"North Eastern Circle","region":"Shillong HQ Region"},{"pincode":"793210","office":"Kuliang","district":"EAST JAINTIA HILLS","state":"MEGHALAYA","circle":"North Eastern Circle","region":"Shillong HQ Region"},{"pincode":"793021","office":"Pamora B.O","district":"EAST KHASI HILLS","state":"MEGHALAYA","circle":"North Eastern Circle","region":"Shillong HQ Region"},{"pincode":"793120","office":"Dungki   Ingdong B.O","district":"WEST KHASI HILLS","state":"MEGHALAYA","circle":"North Eastern Circle","region":"Shillong HQ Region"},{"pincode":"793120","office":"Iewmaroid B.O","district":"WEST KHASI HILLS","state":"MEGHALAYA","circle":"North Eastern Circle","region":"Shillong HQ Region"},{"pincode":"793120","office":"Lawbyrtun B.O","district":"WEST KHASI HILLS","state":"MEGHALAYA","circle":"North Eastern Circle","region":"Shillong HQ Region"},{"pincode":"793120","office":"Lyngkhoi B.O","district":"EAST KHASI HILLS","state":"MEGHALAYA","circle":"North Eastern Circle","region":"Shillong HQ Region"},{"pincode":"793120","office":"Madanbynther B.O","district":"WEST KHASI HILLS","state":"MEGHALAYA","circle":"North Eastern Circle","region":"Shillong HQ Region"},{"pincode":"793120","office":"Madanmaroid","district":"EAST KHASI HILLS","state":"MEGHALAYA","circle":"North Eastern Circle","region":"Shillong HQ Region"},{"pincode":"793114","office":"Jashier B.O","district":"SOUTH WEST KHASI HILLS","state":"MEGHALAYA","circle":"North Eastern Circle","region":"Shillong HQ Region"},{"pincode":"793114","office":"Mawten B.O","district":"SOUTH WEST KHASI HILLS","state":"MEGHALAYA","circle":"North Eastern Circle","region":"Shillong HQ Region"},{"pincode":"793114","office":"Nonglang B.O","district":"SOUTH WEST KHASI HILLS","state":"MEGHALAYA","circle":"North Eastern Circle","region":"Shillong HQ Region"},{"pincode":"793114","office":"Umjarain B.O","district":"SOUTH WEST KHASI HILLS","state":"MEGHALAYA","circle":"North Eastern Circle","region":"Shillong HQ Region"},{"pincode":"793120","office":"Pyndengdombah","district":"EAST KHASI HILLS","state":"MEGHALAYA","circle":"North Eastern Circle","region":"Shillong HQ Region"},{"pincode":"793121","office":"Madan Bitaw B.O","district":"EAST KHASI HILLS","state":"MEGHALAYA","circle":"North Eastern Circle","region":"Shillong HQ Region"},{"pincode":"793121","office":"Marbisu B.O","district":"EAST KHASI HILLS","state":"MEGHALAYA","circle":"North Eastern Circle","region":"Shillong HQ Region"},{"pincode":"793121","office":"Mawngap B.O","district":"EAST KHASI HILLS","state":"MEGHALAYA","circle":"North Eastern Circle","region":"Shillong HQ Region"},{"pincode":"793113","office":"Mawhiang B.O","district":"EAST KHASI HILLS","state":"MEGHALAYA","circle":"North Eastern Circle","region":"Shillong HQ Region"},{"pincode":"793113","office":"Kyrdoh","district":"EAST KHASI HILLS","state":"MEGHALAYA","circle":"North Eastern Circle","region":"Shillong HQ Region"},{"pincode":"793102","office":"Mawlong B.O","district":"RI BHOI","state":"MEGHALAYA","circle":"North Eastern Circle","region":"Shillong HQ Region"},{"pincode":"793102","office":"Umsawnongbri B.O","district":"RI BHOI","state":"MEGHALAYA","circle":"North Eastern Circle","region":"Shillong HQ Region"},{"pincode":"793119","office":"Nonglang B.O","district":"WEST KHASI HILLS","state":"MEGHALAYA","circle":"North Eastern Circle","region":"Shillong HQ Region"},{"pincode":"793119","office":"Umdohlun B.O","district":"WEST KHASI HILLS","state":"MEGHALAYA","circle":"North Eastern Circle","region":"Shillong HQ Region"},{"pincode":"793119","office":"Umsohpieng B.O","district":"WEST KHASI HILLS","state":"MEGHALAYA","circle":"North Eastern Circle","region":"Shillong HQ Region"},{"pincode":"793119","office":"Wahkaji B.O","district":"WEST KHASI HILLS","state":"MEGHALAYA","circle":"North Eastern Circle","region":"Shillong HQ Region"},{"pincode":"793119","office":"Myriem BO","district":"WEST KHASI HILLS","state":"MEGHALAYA","circle":"North Eastern Circle","region":"Shillong HQ Region"},{"pincode":"793119","office":"Langja","district":"WEST JAINTIA HILLS","state":"MEGHALAYA","circle":"North Eastern Circle","region":"Shillong HQ Region"},{"pincode":"793119","office":"Kyllon Mathei","district":"WEST JAINTIA HILLS","state":"MEGHALAYA","circle":"North Eastern Circle","region":"Shillong HQ Region"},{"pincode":"793119","office":"Mawpon","district":"WEST JAINTIA HILLS","state":"MEGHALAYA","circle":"North Eastern Circle","region":"Shillong HQ Region"},{"pincode":"793119","office":"Mawthir","district":"WEST JAINTIA HILLS","state":"MEGHALAYA","circle":"North Eastern Circle","region":"Shillong HQ Region"},{"pincode":"793119","office":"Pungphreit","district":"WEST JAINTIA HILLS","state":"MEGHALAYA","circle":"North Eastern Circle","region":"Shillong HQ Region"},{"pincode":"793119","office":"Umiong","district":"WEST JAINTIA HILLS","state":"MEGHALAYA","circle":"North Eastern Circle","region":"Shillong HQ Region"},{"pincode":"793119","office":"Mawrang","district":"WEST JAINTIA HILLS","state":"MEGHALAYA","circle":"North Eastern Circle","region":"Shillong HQ Region"},{"pincode":"793119","office":"Iew Rambrai","district":"WEST JAINTIA HILLS","state":"MEGHALAYA","circle":"North Eastern Circle","region":"Shillong HQ Region"},{"pincode":"793119","office":"Mawsiangbah","district":"WEST JAINTIA HILLS","state":"MEGHALAYA","circle":"North Eastern Circle","region":"Shillong HQ Region"},{"pincode":"793119","office":"Mawlangdep","district":"WEST JAINTIA HILLS","state":"MEGHALAYA","circle":"North Eastern Circle","region":"Shillong HQ Region"},{"pincode":"793119","office":"Laitphlang","district":"WEST JAINTIA HILLS","state":"MEGHALAYA","circle":"North Eastern Circle","region":"Shillong HQ Region"},{"pincode":"793119","office":"Umiang","district":"WEST JAINTIA HILLS","state":"MEGHALAYA","circle":"North Eastern Circle","region":"Shillong HQ Region"},{"pincode":"793119","office":"Nongkhusba","district":"WEST JAINTIA HILLS","state":"MEGHALAYA","circle":"North Eastern Circle","region":"Shillong HQ Region"},{"pincode":"793119","office":"Nongmalang","district":"WEST JAINTIA HILLS","state":"MEGHALAYA","circle":"North Eastern Circle","region":"Shillong HQ Region"},{"pincode":"793110","office":"Nongjri Tluh","district":"EAST KHASI HILLS","state":"MEGHALAYA","circle":"North Eastern Circle","region":"Shillong HQ Region"},{"pincode":"793110","office":"Nongkyndah","district":"EAST KHASI HILLS","state":"MEGHALAYA","circle":"North Eastern Circle","region":"Shillong HQ Region"},{"pincode":"793112","office":"Ichamati B.O","district":"EAST KHASI HILLS","state":"MEGHALAYA","circle":"North Eastern Circle","region":"Shillong HQ Region"},{"pincode":"793015","office":"Mawkynrew B.O","district":"EAST KHASI HILLS","state":"MEGHALAYA","circle":"North Eastern Circle","region":"Shillong HQ Region"},{"pincode":"793015","office":"Mawlat B.O","district":"EAST KHASI HILLS","state":"MEGHALAYA","circle":"North Eastern Circle","region":"Shillong HQ Region"},{"pincode":"793015","office":"Mawlong B.O","district":"EAST KHASI HILLS","state":"MEGHALAYA","circle":"North Eastern Circle","region":"Shillong HQ Region"},{"pincode":"793015","office":"Thangsning B.O","district":"EAST KHASI HILLS","state":"MEGHALAYA","circle":"North Eastern Circle","region":"Shillong HQ Region"},{"pincode":"793015","office":"Mynsang","district":"EAST KHASI HILLS","state":"MEGHALAYA","circle":"North Eastern Circle","region":"Shillong HQ Region"},{"pincode":"793015","office":"Siangkhnai","district":"EAST KHASI HILLS","state":"MEGHALAYA","circle":"North Eastern Circle","region":"Shillong HQ Region"},{"pincode":"793151","office":"Khanduli B.O","district":"WEST JAINTIA HILLS","state":"MEGHALAYA","circle":"North Eastern Circle","region":"Shillong HQ Region"},{"pincode":"793151","office":"Mawdymmai B.O","district":"WEST JAINTIA HILLS","state":"MEGHALAYA","circle":"North Eastern Circle","region":"Shillong HQ Region"},{"pincode":"793151","office":"Umladang B.O","district":"WEST JAINTIA HILLS","state":"MEGHALAYA","circle":"North Eastern Circle","region":"Shillong HQ Region"},{"pincode":"793151","office":"Ummulong B.O","district":"WEST JAINTIA HILLS","state":"MEGHALAYA","circle":"North Eastern Circle","region":"Shillong HQ Region"},{"pincode":"793151","office":"Mynsngad B.O","district":"WEST JAINTIA HILLS","state":"MEGHALAYA","circle":"North Eastern Circle","region":"Shillong HQ Region"},{"pincode":"793151","office":"Lapangap","district":"WEST JAINTIA HILLS","state":"MEGHALAYA","circle":"North Eastern Circle","region":"Shillong HQ Region"},{"pincode":"793105","office":"Mawker","district":"RI BHOI","state":"MEGHALAYA","circle":"North Eastern Circle","region":"Shillong HQ Region"},{"pincode":"793105","office":"Jatah","district":"RI BHOI","state":"MEGHALAYA","circle":"North Eastern Circle","region":"Shillong HQ Region"},{"pincode":"793105","office":"Ingsaw","district":"RI BHOI","state":"MEGHALAYA","circle":"North Eastern Circle","region":"Shillong HQ Region"},{"pincode":"793005","office":"Diengiei B.O","district":"EAST KHASI HILLS","state":"MEGHALAYA","circle":"North Eastern Circle","region":"Shillong HQ Region"},{"pincode":"793126","office":"Mawsmai","district":"WEST KHASI HILLS","state":"MEGHALAYA","circle":"North Eastern Circle","region":"Shillong HQ Region"},{"pincode":"793126","office":"Malang Khasi","district":"WEST KHASI HILLS","state":"MEGHALAYA","circle":"North Eastern Circle","region":"Shillong HQ Region"},{"pincode":"793126","office":"Mawngap","district":"WEST KHASI HILLS","state":"MEGHALAYA","circle":"North Eastern Circle","region":"Shillong HQ Region"},{"pincode":"793126","office":"Mawkohram","district":"WEST KHASI HILLS","state":"MEGHALAYA","circle":"North Eastern Circle","region":"Shillong HQ Region"},{"pincode":"793126","office":"Nongkrong","district":"WEST KHASI HILLS","state":"MEGHALAYA","circle":"North Eastern Circle","region":"Shillong HQ Region"},{"pincode":"793126","office":"Nongdaju","district":"WEST KHASI HILLS","state":"MEGHALAYA","circle":"North Eastern Circle","region":"Shillong HQ Region"},{"pincode":"793126","office":"Niangju","district":"WEST KHASI HILLS","state":"MEGHALAYA","circle":"North Eastern Circle","region":"Shillong HQ Region"},{"pincode":"794115","office":"Bandelkona B.O","district":"SOUTH WEST GARO HILLS","state":"MEGHALAYA","circle":"North Eastern Circle","region":"Shillong HQ Region"},{"pincode":"794115","office":"Betsing B.O","district":"SOUTH WEST GARO HILLS","state":"MEGHALAYA","circle":"North Eastern Circle","region":"Shillong HQ Region"},{"pincode":"794115","office":"Katuli B.O","district":"SOUTH WEST GARO HILLS","state":"MEGHALAYA","circle":"North Eastern Circle","region":"Shillong HQ Region"},{"pincode":"794115","office":"Sulguri B.O","district":"SOUTH WEST GARO HILLS","state":"MEGHALAYA","circle":"North Eastern Circle","region":"Shillong HQ Region"},{"pincode":"794115","office":"Agalgre","district":"SOUTH WEST GARO HILLS","state":"MEGHALAYA","circle":"North Eastern Circle","region":"Shillong HQ Region"},{"pincode":"794115","office":"Rongsepgre","district":"SOUTH WEST GARO HILLS","state":"MEGHALAYA","circle":"North Eastern Circle","region":"Shillong HQ Region"},{"pincode":"794115","office":"Kasigiri","district":"SOUTH WEST GARO HILLS","state":"MEGHALAYA","circle":"North Eastern Circle","region":"Shillong HQ Region"},{"pincode":"794102","office":"Emangiri B.O","district":"SOUTH GARO HILLS","state":"MEGHALAYA","circle":"North Eastern Circle","region":"Shillong HQ Region"},{"pincode":"794102","office":"Jadugiri","district":"SOUTH GARO HILLS","state":"MEGHALAYA","circle":"North Eastern Circle","region":"Shillong HQ Region"},{"pincode":"794102","office":"Ringramgre","district":"SOUTH GARO HILLS","state":"MEGHALAYA","circle":"North Eastern Circle","region":"Shillong HQ Region"},{"pincode":"794102","office":"Matmagitak","district":"SOUTH GARO HILLS","state":"MEGHALAYA","circle":"North Eastern Circle","region":"Shillong HQ Region"},{"pincode":"794102","office":"Choklokgittim","district":"SOUTH GARO HILLS","state":"MEGHALAYA","circle":"North Eastern Circle","region":"Shillong HQ Region"},{"pincode":"794102","office":"Rompa Asim","district":"SOUTH GARO HILLS","state":"MEGHALAYA","circle":"North Eastern Circle","region":"Shillong HQ Region"},{"pincode":"794102","office":"Dabram","district":"SOUTH GARO HILLS","state":"MEGHALAYA","circle":"North Eastern Circle","region":"Shillong HQ Region"},{"pincode":"794102","office":"Adinggre","district":"SOUTH GARO HILLS","state":"MEGHALAYA","circle":"North Eastern Circle","region":"Shillong HQ Region"},{"pincode":"794102","office":"Rewak Kambepal","district":"SOUTH GARO HILLS","state":"MEGHALAYA","circle":"North Eastern Circle","region":"Shillong HQ Region"},{"pincode":"794102","office":"Rongchenggiri","district":"SOUTH GARO HILLS","state":"MEGHALAYA","circle":"North Eastern Circle","region":"Shillong HQ Region"},{"pincode":"794102","office":"Chimitap","district":"SOUTH GARO HILLS","state":"MEGHALAYA","circle":"North Eastern Circle","region":"Shillong HQ Region"},{"pincode":"794102","office":"Halwa Atong","district":"SOUTH GARO HILLS","state":"MEGHALAYA","circle":"North Eastern Circle","region":"Shillong HQ Region"},{"pincode":"794102","office":"Taidang","district":"SOUTH GARO HILLS","state":"MEGHALAYA","circle":"North Eastern Circle","region":"Shillong HQ Region"},{"pincode":"794102","office":"Nadangkol","district":"SOUTH GARO HILLS","state":"MEGHALAYA","circle":"North Eastern Circle","region":"Shillong HQ Region"},{"pincode":"794103","office":"Joshipara B.O","district":"WEST GARO HILLS","state":"MEGHALAYA","circle":"North Eastern Circle","region":"Shillong HQ Region"},{"pincode":"794103","office":"Kapasipara B.O","district":"WEST GARO HILLS","state":"MEGHALAYA","circle":"North Eastern Circle","region":"Shillong HQ Region"},{"pincode":"794103","office":"Killapara B.O","district":"WEST GARO HILLS","state":"MEGHALAYA","circle":"North Eastern Circle","region":"Shillong HQ Region"},{"pincode":"794103","office":"Mihanpara B.O","district":"WEST GARO HILLS","state":"MEGHALAYA","circle":"North Eastern Circle","region":"Shillong HQ Region"},{"pincode":"794103","office":"Sibbari B.O","district":"WEST GARO HILLS","state":"MEGHALAYA","circle":"North Eastern Circle","region":"Shillong HQ Region"},{"pincode":"794103","office":"Dindinnigri","district":"WEST GARO HILLS","state":"MEGHALAYA","circle":"North Eastern Circle","region":"Shillong HQ Region"},{"pincode":"794005","office":"Bolchugre B.O","district":"WEST GARO HILLS","state":"MEGHALAYA","circle":"North Eastern Circle","region":"Shillong HQ Region"},{"pincode":"794005","office":"Dekubazar B.O","district":"WEST GARO HILLS","state":"MEGHALAYA","circle":"North Eastern Circle","region":"Shillong HQ Region"},{"pincode":"794005","office":"Gongrengiri B.O","district":"WEST GARO HILLS","state":"MEGHALAYA","circle":"North Eastern Circle","region":"Shillong HQ Region"},{"pincode":"794005","office":"Dolbapara","district":"WEST GARO HILLS","state":"MEGHALAYA","circle":"North Eastern Circle","region":"Shillong HQ Region"},{"pincode":"794005","office":"Dewaliggre","district":"WEST GARO HILLS","state":"MEGHALAYA","circle":"North Eastern Circle","region":"Shillong HQ Region"},{"pincode":"794005","office":"Possenggagre","district":"WEST GARO HILLS","state":"MEGHALAYA","circle":"North Eastern Circle","region":"Shillong HQ Region"},{"pincode":"794005","office":"Bramagiri","district":"WEST GARO HILLS","state":"MEGHALAYA","circle":"North Eastern Circle","region":"Shillong HQ Region"},{"pincode":"794104","office":"Bhajamara B.O","district":"WEST GARO HILLS","state":"MEGHALAYA","circle":"North Eastern Circle","region":"Shillong HQ Region"},{"pincode":"794104","office":"Haripur B.O","district":"WEST GARO HILLS","state":"MEGHALAYA","circle":"North Eastern Circle","region":"Shillong HQ Region"},{"pincode":"794104","office":"Magalpara","district":"WEST GARO HILLS","state":"MEGHALAYA","circle":"North Eastern Circle","region":"Shillong HQ Region"},{"pincode":"794105","office":"Monabari B.O","district":"WEST GARO HILLS","state":"MEGHALAYA","circle":"North Eastern Circle","region":"Shillong HQ Region"},{"pincode":"794105","office":"Selsella B.O","district":"WEST GARO HILLS","state":"MEGHALAYA","circle":"North Eastern Circle","region":"Shillong HQ Region"},{"pincode":"794105","office":"Mandagre","district":"WEST GARO HILLS","state":"MEGHALAYA","circle":"North Eastern Circle","region":"Shillong HQ Region"},{"pincode":"794105","office":"Babadam","district":"WEST GARO HILLS","state":"MEGHALAYA","circle":"North Eastern Circle","region":"Shillong HQ Region"},{"pincode":"794105","office":"Songkonggre","district":"WEST GARO HILLS","state":"MEGHALAYA","circle":"North Eastern Circle","region":"Shillong HQ Region"},{"pincode":"794002","office":"Bolsong B.O","district":"WEST GARO HILLS","state":"MEGHALAYA","circle":"North Eastern Circle","region":"Shillong HQ Region"},{"pincode":"794002","office":"Chikasingre","district":"WEST GARO HILLS","state":"MEGHALAYA","circle":"North Eastern Circle","region":"Shillong HQ Region"},{"pincode":"794002","office":"Marak Dilwanggre","district":"WEST GARO HILLS","state":"MEGHALAYA","circle":"North Eastern Circle","region":"Shillong HQ Region"},{"pincode":"794002","office":"Rongbakgre","district":"WEST GARO HILLS","state":"MEGHALAYA","circle":"North Eastern Circle","region":"Shillong HQ Region"},{"pincode":"794106","office":"Kalaipara B.O","district":"SOUTH WEST GARO HILLS","state":"MEGHALAYA","circle":"North Eastern Circle","region":"Shillong HQ Region"},{"pincode":"794106","office":"Kawahagra B.O","district":"SOUTH WEST GARO HILLS","state":"MEGHALAYA","circle":"North Eastern Circle","region":"Shillong HQ Region"},{"pincode":"794108","office":"Rongrong B.O","district":"NORTH GARO HILLS","state":"MEGHALAYA","circle":"North Eastern Circle","region":"Shillong HQ Region"},{"pincode":"794108","office":"Raksinggre","district":"NORTH GARO HILLS","state":"MEGHALAYA","circle":"North Eastern Circle","region":"Shillong HQ Region"},{"pincode":"794110","office":"Darugiri B.O","district":"EAST GARO HILLS","state":"MEGHALAYA","circle":"North Eastern Circle","region":"Shillong HQ Region"},{"pincode":"794110","office":"Dokangsi B.O","district":"EAST GARO HILLS","state":"MEGHALAYA","circle":"North Eastern Circle","region":"Shillong HQ Region"},{"pincode":"794110","office":"Nongcharan B.O","district":"EAST GARO HILLS","state":"MEGHALAYA","circle":"North Eastern Circle","region":"Shillong HQ Region"},{"pincode":"794110","office":"Rongchek Akhong B.O","district":"EAST GARO HILLS","state":"MEGHALAYA","circle":"North Eastern Circle","region":"Shillong HQ Region"},{"pincode":"794110","office":"Rongmil B.O","district":"EAST GARO HILLS","state":"MEGHALAYA","circle":"North Eastern Circle","region":"Shillong HQ Region"},{"pincode":"794113","office":"Chikal Dawa","district":"EAST GARO HILLS","state":"MEGHALAYA","circle":"North Eastern Circle","region":"Shillong HQ Region"},{"pincode":"794113","office":"Simseng Rongal","district":"EAST GARO HILLS","state":"MEGHALAYA","circle":"North Eastern Circle","region":"Shillong HQ Region"},{"pincode":"794110","office":"Bone Megapgre","district":"EAST GARO HILLS","state":"MEGHALAYA","circle":"North Eastern Circle","region":"Shillong HQ Region"},{"pincode":"794110","office":"Samin Silkigre","district":"EAST GARO HILLS","state":"MEGHALAYA","circle":"North Eastern Circle","region":"Shillong HQ Region"},{"pincode":"794110","office":"Sokadam Rongkabok","district":"EAST GARO HILLS","state":"MEGHALAYA","circle":"North Eastern Circle","region":"Shillong HQ Region"},{"pincode":"794114","office":"Dambuk Agal B.O","district":"SOUTH GARO HILLS","state":"MEGHALAYA","circle":"North Eastern Circle","region":"Shillong HQ Region"},{"pincode":"794109","office":"Belguri B.O","district":"WEST GARO HILLS","state":"MEGHALAYA","circle":"North Eastern Circle","region":"Shillong HQ Region"},{"pincode":"794109","office":"Bolangitak B.O","district":"WEST GARO HILLS","state":"MEGHALAYA","circle":"North Eastern Circle","region":"Shillong HQ Region"},{"pincode":"794109","office":"Pedaldoba B.O","district":"WEST GARO HILLS","state":"MEGHALAYA","circle":"North Eastern Circle","region":"Shillong HQ Region"},{"pincode":"794109","office":"Photamati B.O","district":"WEST GARO HILLS","state":"MEGHALAYA","circle":"North Eastern Circle","region":"Shillong HQ Region"},{"pincode":"794109","office":"Jamdamgre","district":"WEST GARO HILLS","state":"MEGHALAYA","circle":"North Eastern Circle","region":"Shillong HQ Region"},{"pincode":"794109","office":"Dirikgre","district":"WEST GARO HILLS","state":"MEGHALAYA","circle":"North Eastern Circle","region":"Shillong HQ Region"},{"pincode":"794111","office":"Balkinigiri B.O","district":"EAST GARO HILLS","state":"MEGHALAYA","circle":"North Eastern Circle","region":"Shillong HQ Region"},{"pincode":"794111","office":"Rongrengiri B.O","district":"EAST GARO HILLS","state":"MEGHALAYA","circle":"North Eastern Circle","region":"Shillong HQ Region"},{"pincode":"794109","office":"Deosali","district":"EAST GARO HILLS","state":"MEGHALAYA","circle":"North Eastern Circle","region":"Shillong HQ Region"},{"pincode":"794111","office":"Rongribo Watregre","district":"EAST GARO HILLS","state":"MEGHALAYA","circle":"North Eastern Circle","region":"Shillong HQ Region"},{"pincode":"794111","office":"Rongsak Songma (Rongsakgre","district":"EAST GARO HILLS","state":"MEGHALAYA","circle":"North Eastern Circle","region":"Shillong HQ Region"},{"pincode":"794111","office":"Nabokgre","district":"EAST GARO HILLS","state":"MEGHALAYA","circle":"North Eastern Circle","region":"Shillong HQ Region"},{"pincode":"794003","office":"Rongchugri","district":"WEST GARO HILLS","state":"MEGHALAYA","circle":"North Eastern Circle","region":"Shillong HQ Region"},{"pincode":"794003","office":"Megonggre","district":"WEST GARO HILLS","state":"MEGHALAYA","circle":"North Eastern Circle","region":"Shillong HQ Region"},{"pincode":"794003","office":"Dichinggre","district":"WEST GARO HILLS","state":"MEGHALAYA","circle":"North Eastern Circle","region":"Shillong HQ Region"},{"pincode":"794004","office":"Chinabat","district":"WEST GARO HILLS","state":"MEGHALAYA","circle":"North Eastern Circle","region":"Shillong HQ Region"},{"pincode":"793106","office":"Balat S.O","district":"SOUTH WEST KHASI HILLS","state":"MEGHALAYA","circle":"North Eastern Circle","region":"Shillong HQ Region"},{"pincode":"793109","office":"Dawki S.O","district":"WEST JAINTIA HILLS","state":"MEGHALAYA","circle":"North Eastern Circle","region":"Shillong HQ Region"},{"pincode":"793007","office":"Happy Valley S.O","district":"EAST KHASI HILLS","state":"MEGHALAYA","circle":"North Eastern Circle","region":"Shillong HQ Region"},{"pincode":"793160","office":"Ladrymbai S.O","district":"EAST JAINTIA HILLS","state":"MEGHALAYA","circle":"North Eastern Circle","region":"Shillong HQ Region"},{"pincode":"793120","office":"Mairang S.O","district":"WEST KHASI HILLS","state":"MEGHALAYA","circle":"North Eastern Circle","region":"Shillong HQ Region"},{"pincode":"793016","office":"Mawiong S.O","district":"EAST KHASI HILLS","state":"MEGHALAYA","circle":"North Eastern Circle","region":"Shillong HQ Region"},{"pincode":"793017","office":"Mawlai S.O","district":"EAST KHASI HILLS","state":"MEGHALAYA","circle":"North Eastern Circle","region":"Shillong HQ Region"},{"pincode":"793113","office":"Mawsynram S.O","district":"EAST KHASI HILLS","state":"MEGHALAYA","circle":"North Eastern Circle","region":"Shillong HQ Region"},{"pincode":"793018","office":"Neigrihms S.O","district":"EAST KHASI HILLS","state":"MEGHALAYA","circle":"North Eastern Circle","region":"Shillong HQ Region"},{"pincode":"793009","office":"Nonglyer S.O","district":"EAST KHASI HILLS","state":"MEGHALAYA","circle":"North Eastern Circle","region":"Shillong HQ Region"},{"pincode":"793119","office":"Nongstoin S.O","district":"WEST KHASI HILLS","state":"MEGHALAYA","circle":"North Eastern Circle","region":"Shillong HQ Region"},{"pincode":"793004","office":"Rilbong S.O","district":"EAST KHASI HILLS","state":"MEGHALAYA","circle":"North Eastern Circle","region":"Shillong HQ Region"},{"pincode":"793105","office":"Umsning S.O","district":"RI BHOI","state":"MEGHALAYA","circle":"North Eastern Circle","region":"Shillong HQ Region"},{"pincode":"793116","office":"Bhoilymbong S.O","district":"RI BHOI","state":"MEGHALAYA","circle":"North Eastern Circle","region":"Shillong HQ Region"},{"pincode":"794103","office":"Barengapara S.O","district":"WEST GARO HILLS","state":"MEGHALAYA","circle":"North Eastern Circle","region":"Shillong HQ Region"},{"pincode":"794109","office":"Tikrikilla S.O","district":"WEST GARO HILLS","state":"MEGHALAYA","circle":"North Eastern Circle","region":"Shillong HQ Region"},{"pincode":"794113","office":"DAINADUBI SO","district":"WEST GARO HILLS","state":"MEGHALAYA","circle":"North Eastern Circle","region":"Shillong HQ Region"},{"pincode":"793001","office":"Shillong G.P.O.","district":"EAST KHASI HILLS","state":"MEGHALAYA","circle":"North Eastern Circle","region":"Shillong HQ Region"},{"pincode":"794001","office":"Tura H.O","district":"WEST GARO HILLS","state":"MEGHALAYA","circle":"North Eastern Circle","region":"Shillong HQ Region"},{"pincode":"781131","office":"Jirang B.O","district":"RI BHOI","state":"MEGHALAYA","circle":"Assam Circle","region":"DivReportingCircle"},{"pincode":"793106","office":"Borsora B.O","district":"EAST KHASI HILLS","state":"MEGHALAYA","circle":"North Eastern Circle","region":"Shillong HQ Region"},{"pincode":"793106","office":"Munai B.O","district":"SOUTH WEST KHASI HILLS","state":"MEGHALAYA","circle":"North Eastern Circle","region":"Shillong HQ Region"},{"pincode":"793106","office":"Rongasora B.O","district":"SOUTH WEST KHASI HILLS","state":"MEGHALAYA","circle":"North Eastern Circle","region":"Shillong HQ Region"},{"pincode":"793114","office":"Sarin B.O","district":"SOUTH WEST KHASI HILLS","state":"MEGHALAYA","circle":"North Eastern Circle","region":"Shillong HQ Region"},{"pincode":"793106","office":"Sonatola B.O","district":"EAST KHASI HILLS","state":"MEGHALAYA","circle":"North Eastern Circle","region":"Shillong HQ Region"},{"pincode":"793106","office":"Telsora B.O","district":"EAST KHASI HILLS","state":"MEGHALAYA","circle":"North Eastern Circle","region":"Shillong HQ Region"},{"pincode":"793101","office":"Umshru","district":"RI BHOI","state":"MEGHALAYA","circle":"North Eastern Circle","region":"Shillong HQ Region"},{"pincode":"793101","office":"Belahari","district":"RI BHOI","state":"MEGHALAYA","circle":"North Eastern Circle","region":"Shillong HQ Region"},{"pincode":"793101","office":"Sohkyrbam Rim","district":"RI BHOI","state":"MEGHALAYA","circle":"North Eastern Circle","region":"Shillong HQ Region"},{"pincode":"793101","office":"Nongwah Mawlein","district":"RI BHOI","state":"MEGHALAYA","circle":"North Eastern Circle","region":"Shillong HQ Region"},{"pincode":"793101","office":"Umtngar","district":"RI BHOI","state":"MEGHALAYA","circle":"North Eastern Circle","region":"Shillong HQ Region"},{"pincode":"793108","office":"Mawkdok B.O","district":"EAST KHASI HILLS","state":"MEGHALAYA","circle":"North Eastern Circle","region":"Shillong HQ Region"},{"pincode":"793108","office":"Wahlong B.O","district":"EAST KHASI HILLS","state":"MEGHALAYA","circle":"North Eastern Circle","region":"Shillong HQ Region"},{"pincode":"793109","office":"Lamin B.O","district":"WEST JAINTIA HILLS","state":"MEGHALAYA","circle":"North Eastern Circle","region":"Shillong HQ Region"},{"pincode":"793110","office":"Pongtung B.O","district":"EAST KHASI HILLS","state":"MEGHALAYA","circle":"North Eastern Circle","region":"Shillong HQ Region"},{"pincode":"793110","office":"Wahkdait B.O","district":"EAST KHASI HILLS","state":"MEGHALAYA","circle":"North Eastern Circle","region":"Shillong HQ Region"},{"pincode":"793150","office":"Barato B.O","district":"WEST JAINTIA HILLS","state":"MEGHALAYA","circle":"North Eastern Circle","region":"Shillong HQ Region"},{"pincode":"793150","office":"Nongryngkoh B.O","district":"WEST JAINTIA HILLS","state":"MEGHALAYA","circle":"North Eastern Circle","region":"Shillong HQ Region"},{"pincode":"793150","office":"Thadmuthlong B.O","district":"WEST JAINTIA HILLS","state":"MEGHALAYA","circle":"North Eastern Circle","region":"Shillong HQ Region"},{"pincode":"793150","office":"Yooksi B.O","district":"WEST JAINTIA HILLS","state":"MEGHALAYA","circle":"North Eastern Circle","region":"Shillong HQ Region"},{"pincode":"793150","office":"Mynska","district":"WEST JAINTIA HILLS","state":"MEGHALAYA","circle":"North Eastern Circle","region":"Shillong HQ Region"},{"pincode":"793200","office":"Huroi B.O","district":"EAST JAINTIA HILLS","state":"MEGHALAYA","circle":"North Eastern Circle","region":"Shillong HQ Region"},{"pincode":"793210","office":"Khatdum B.O","district":"EAST JAINTIA HILLS","state":"MEGHALAYA","circle":"North Eastern Circle","region":"Shillong HQ Region"},{"pincode":"793200","office":"Dein Satlang","district":"EAST JAINTIA HILLS","state":"MEGHALAYA","circle":"North Eastern Circle","region":"Shillong HQ Region"},{"pincode":"793200","office":"Saphak","district":"EAST JAINTIA HILLS","state":"MEGHALAYA","circle":"North Eastern Circle","region":"Shillong HQ Region"},{"pincode":"793010","office":"Pomlakrai B.O","district":"EAST KHASI HILLS","state":"MEGHALAYA","circle":"North Eastern Circle","region":"Shillong HQ Region"},{"pincode":"793021","office":"Kynton   U   Mon B.O","district":"EAST KHASI HILLS","state":"MEGHALAYA","circle":"North Eastern Circle","region":"Shillong HQ Region"},{"pincode":"793120","office":"Mawshut B.O","district":"WEST KHASI HILLS","state":"MEGHALAYA","circle":"North Eastern Circle","region":"Shillong HQ Region"},{"pincode":"793120","office":"Nongum B.O","district":"WEST KHASI HILLS","state":"MEGHALAYA","circle":"North Eastern Circle","region":"Shillong HQ Region"},{"pincode":"793120","office":"Umkrem B.O","district":"WEST KHASI HILLS","state":"MEGHALAYA","circle":"North Eastern Circle","region":"Shillong HQ Region"},{"pincode":"793120","office":"Umthlong B.O","district":"WEST KHASI HILLS","state":"MEGHALAYA","circle":"North Eastern Circle","region":"Shillong HQ Region"},{"pincode":"793120","office":"Marshiang","district":"EAST KHASI HILLS","state":"MEGHALAYA","circle":"North Eastern Circle","region":"Shillong HQ Region"},{"pincode":"793120","office":"Mawsnar","district":"EAST KHASI HILLS","state":"MEGHALAYA","circle":"North Eastern Circle","region":"Shillong HQ Region"},{"pincode":"793114","office":"Mawthapdoh B.O","district":"SOUTH WEST KHASI HILLS","state":"MEGHALAYA","circle":"North Eastern Circle","region":"Shillong HQ Region"},{"pincode":"793114","office":"Phlang Kynshi B.O","district":"SOUTH WEST KHASI HILLS","state":"MEGHALAYA","circle":"North Eastern Circle","region":"Shillong HQ Region"},{"pincode":"793012","office":"Diengpasoh B.O","district":"EAST KHASI HILLS","state":"MEGHALAYA","circle":"North Eastern Circle","region":"Shillong HQ Region"},{"pincode":"793121","office":"Mawreng B.O","district":"EAST KHASI HILLS","state":"MEGHALAYA","circle":"North Eastern Circle","region":"Shillong HQ Region"},{"pincode":"793121","office":"Pongkung B.O","district":"EAST KHASI HILLS","state":"MEGHALAYA","circle":"North Eastern Circle","region":"Shillong HQ Region"},{"pincode":"793121","office":"Rangshken B.O","district":"EAST KHASI HILLS","state":"MEGHALAYA","circle":"North Eastern Circle","region":"Shillong HQ Region"},{"pincode":"793102","office":"Nongladew B.O","district":"RI BHOI","state":"MEGHALAYA","circle":"North Eastern Circle","region":"Shillong HQ Region"},{"pincode":"793102","office":"Umdihar B.O","district":"RI BHOI","state":"MEGHALAYA","circle":"North Eastern Circle","region":"Shillong HQ Region"},{"pincode":"793102","office":"Shakoi Kuna","district":"RI BHOI","state":"MEGHALAYA","circle":"North Eastern Circle","region":"Shillong HQ Region"},{"pincode":"793119","office":"Maweitlyngngam B.O","district":"WEST KHASI HILLS","state":"MEGHALAYA","circle":"North Eastern Circle","region":"Shillong HQ Region"},{"pincode":"793119","office":"Mawthengkut B.O","district":"WEST KHASI HILLS","state":"MEGHALAYA","circle":"North Eastern Circle","region":"Shillong HQ Region"},{"pincode":"793119","office":"Nongkasen B.O","district":"WEST KHASI HILLS","state":"MEGHALAYA","circle":"North Eastern Circle","region":"Shillong HQ Region"},{"pincode":"793119","office":"Rambrai B.O","district":"WEST KHASI HILLS","state":"MEGHALAYA","circle":"North Eastern Circle","region":"Shillong HQ Region"},{"pincode":"793119","office":"Shallang B.O","district":"WEST KHASI HILLS","state":"MEGHALAYA","circle":"North Eastern Circle","region":"Shillong HQ Region"},{"pincode":"793119","office":"Umyap B.O","district":"WEST KHASI HILLS","state":"MEGHALAYA","circle":"North Eastern Circle","region":"Shillong HQ Region"},{"pincode":"793119","office":"Langshonthiang","district":"WEST JAINTIA HILLS","state":"MEGHALAYA","circle":"North Eastern Circle","region":"Shillong HQ Region"},{"pincode":"793119","office":"Mawdong","district":"WEST JAINTIA HILLS","state":"MEGHALAYA","circle":"North Eastern Circle","region":"Shillong HQ Region"},{"pincode":"793119","office":"Umsiej","district":"WEST JAINTIA HILLS","state":"MEGHALAYA","circle":"North Eastern Circle","region":"Shillong HQ Region"},{"pincode":"793110","office":"Iewmawiong B.O","district":"EAST KHASI HILLS","state":"MEGHALAYA","circle":"North Eastern Circle","region":"Shillong HQ Region"},{"pincode":"793110","office":"Langkyrdem B.O","district":"EAST KHASI HILLS","state":"MEGHALAYA","circle":"North Eastern Circle","region":"Shillong HQ Region"},{"pincode":"793110","office":"Umniuh   Tmar B.O","district":"EAST KHASI HILLS","state":"MEGHALAYA","circle":"North Eastern Circle","region":"Shillong HQ Region"},{"pincode":"793110","office":"Mawlynnong B.O","district":"EAST KHASI HILLS","state":"MEGHALAYA","circle":"North Eastern Circle","region":"Shillong HQ Region"},{"pincode":"793112","office":"Disong B.O","district":"EAST KHASI HILLS","state":"MEGHALAYA","circle":"North Eastern Circle","region":"Shillong HQ Region"},{"pincode":"793112","office":"Kalatak B.O","district":"EAST KHASI HILLS","state":"MEGHALAYA","circle":"North Eastern Circle","region":"Shillong HQ Region"},{"pincode":"793015","office":"Nongkrem B.O","district":"EAST KHASI HILLS","state":"MEGHALAYA","circle":"North Eastern Circle","region":"Shillong HQ Region"},{"pincode":"793015","office":"Ryngibah B.O","district":"EAST KHASI HILLS","state":"MEGHALAYA","circle":"North Eastern Circle","region":"Shillong HQ Region"},{"pincode":"793015","office":"Kharang","district":"EAST KHASI HILLS","state":"MEGHALAYA","circle":"North Eastern Circle","region":"Shillong HQ Region"},{"pincode":"793115","office":"Krang B.O","district":"EAST KHASI HILLS","state":"MEGHALAYA","circle":"North Eastern Circle","region":"Shillong HQ Region"},{"pincode":"793151","office":"Namdong B.O","district":"WEST JAINTIA HILLS","state":"MEGHALAYA","circle":"North Eastern Circle","region":"Shillong HQ Region"},{"pincode":"793151","office":"Bamkamar","district":"WEST JAINTIA HILLS","state":"MEGHALAYA","circle":"North Eastern Circle","region":"Shillong HQ Region"},{"pincode":"793151","office":"Nongkhroh","district":"WEST JAINTIA HILLS","state":"MEGHALAYA","circle":"North Eastern Circle","region":"Shillong HQ Region"},{"pincode":"793151","office":"Madanpohkseh","district":"WEST JAINTIA HILLS","state":"MEGHALAYA","circle":"North Eastern Circle","region":"Shillong HQ Region"},{"pincode":"793103","office":"Umktieh B.O","district":"RI BHOI","state":"MEGHALAYA","circle":"North Eastern Circle","region":"Shillong HQ Region"},{"pincode":"793105","office":"Kyrdem Kulai B.O","district":"RI BHOI","state":"MEGHALAYA","circle":"North Eastern Circle","region":"Shillong HQ Region"},{"pincode":"793105","office":"Mawhati B.O","district":"RI BHOI","state":"MEGHALAYA","circle":"North Eastern Circle","region":"Shillong HQ Region"},{"pincode":"793105","office":"Sanidon B.O","district":"RI BHOI","state":"MEGHALAYA","circle":"North Eastern Circle","region":"Shillong HQ Region"},{"pincode":"793105","office":"Nongrim Umksih","district":"RI BHOI","state":"MEGHALAYA","circle":"North Eastern Circle","region":"Shillong HQ Region"},{"pincode":"793005","office":"Nongumlong B.O","district":"EAST KHASI HILLS","state":"MEGHALAYA","circle":"North Eastern Circle","region":"Shillong HQ Region"},{"pincode":"793116","office":"Umtngam","district":"RI BHOI","state":"MEGHALAYA","circle":"North Eastern Circle","region":"Shillong HQ Region"},{"pincode":"793126","office":"Nongdubir","district":"WEST KHASI HILLS","state":"MEGHALAYA","circle":"North Eastern Circle","region":"Shillong HQ Region"},{"pincode":"793126","office":"Nonghawei","district":"WEST KHASI HILLS","state":"MEGHALAYA","circle":"North Eastern Circle","region":"Shillong HQ Region"},{"pincode":"793126","office":"Dilbot","district":"WEST KHASI HILLS","state":"MEGHALAYA","circle":"North Eastern Circle","region":"Shillong HQ Region"},{"pincode":"793126","office":"Nongjri","district":"WEST KHASI HILLS","state":"MEGHALAYA","circle":"North Eastern Circle","region":"Shillong HQ Region"},{"pincode":"793126","office":"Domsynrang","district":"WEST KHASI HILLS","state":"MEGHALAYA","circle":"North Eastern Circle","region":"Shillong HQ Region"},{"pincode":"793126","office":"Borkhe","district":"WEST KHASI HILLS","state":"MEGHALAYA","circle":"North Eastern Circle","region":"Shillong HQ Region"},{"pincode":"793126","office":"Thawkhong","district":"WEST KHASI HILLS","state":"MEGHALAYA","circle":"North Eastern Circle","region":"Shillong HQ Region"},{"pincode":"793126","office":"Wahthre","district":"WEST KHASI HILLS","state":"MEGHALAYA","circle":"North Eastern Circle","region":"Shillong HQ Region"},{"pincode":"793126","office":"Bokchung","district":"WEST KHASI HILLS","state":"MEGHALAYA","circle":"North Eastern Circle","region":"Shillong HQ Region"},{"pincode":"794115","office":"Nagolpara","district":"SOUTH WEST GARO HILLS","state":"MEGHALAYA","circle":"North Eastern Circle","region":"Shillong HQ Region"},{"pincode":"794101","office":"Gambarigre","district":"WEST GARO HILLS","state":"MEGHALAYA","circle":"North Eastern Circle","region":"Shillong HQ Region"},{"pincode":"794102","office":"Balsalgiri B.O","district":"SOUTH GARO HILLS","state":"MEGHALAYA","circle":"North Eastern Circle","region":"Shillong HQ Region"},{"pincode":"794102","office":"Nilwalgiri B.O","district":"SOUTH GARO HILLS","state":"MEGHALAYA","circle":"North Eastern Circle","region":"Shillong HQ Region"},{"pincode":"794102","office":"Nolbari","district":"SOUTH GARO HILLS","state":"MEGHALAYA","circle":"North Eastern Circle","region":"Shillong HQ Region"},{"pincode":"794102","office":"Bandarigre","district":"SOUTH GARO HILLS","state":"MEGHALAYA","circle":"North Eastern Circle","region":"Shillong HQ Region"},{"pincode":"794102","office":"Dengkandi Bolsalgittim","district":"SOUTH GARO HILLS","state":"MEGHALAYA","circle":"North Eastern Circle","region":"Shillong HQ Region"},{"pincode":"794102","office":"Siju Ganga Awe","district":"SOUTH GARO HILLS","state":"MEGHALAYA","circle":"North Eastern Circle","region":"Shillong HQ Region"},{"pincode":"794102","office":"Emangre","district":"SOUTH GARO HILLS","state":"MEGHALAYA","circle":"North Eastern Circle","region":"Shillong HQ Region"},{"pincode":"794102","office":"Gara Songgital","district":"SOUTH GARO HILLS","state":"MEGHALAYA","circle":"North Eastern Circle","region":"Shillong HQ Region"},{"pincode":"794102","office":"Balkal Asim","district":"SOUTH GARO HILLS","state":"MEGHALAYA","circle":"North Eastern Circle","region":"Shillong HQ Region"},{"pincode":"794102","office":"Darit Asim","district":"SOUTH GARO HILLS","state":"MEGHALAYA","circle":"North Eastern Circle","region":"Shillong HQ Region"},{"pincode":"794102","office":"Karukol Adinggre","district":"SOUTH GARO HILLS","state":"MEGHALAYA","circle":"North Eastern Circle","region":"Shillong HQ Region"},{"pincode":"794102","office":"Upper Dosogre","district":"SOUTH GARO HILLS","state":"MEGHALAYA","circle":"North Eastern Circle","region":"Shillong HQ Region"},{"pincode":"794102","office":"Malengma","district":"SOUTH GARO HILLS","state":"MEGHALAYA","circle":"North Eastern Circle","region":"Shillong HQ Region"},{"pincode":"794102","office":"Rangtangsora","district":"SOUTH GARO HILLS","state":"MEGHALAYA","circle":"North Eastern Circle","region":"Shillong HQ Region"},{"pincode":"794102","office":"Wachal Chiring","district":"SOUTH GARO HILLS","state":"MEGHALAYA","circle":"North Eastern Circle","region":"Shillong HQ Region"},{"pincode":"794102","office":"Kanai","district":"SOUTH GARO HILLS","state":"MEGHALAYA","circle":"North Eastern Circle","region":"Shillong HQ Region"},{"pincode":"794103","office":"Gachuapara B.O","district":"WEST GARO HILLS","state":"MEGHALAYA","circle":"North Eastern Circle","region":"Shillong HQ Region"},{"pincode":"794103","office":"Ganchudari B.O","district":"WEST GARO HILLS","state":"MEGHALAYA","circle":"North Eastern Circle","region":"Shillong HQ Region"},{"pincode":"794103","office":"Purakhasia B.O","district":"WEST GARO HILLS","state":"MEGHALAYA","circle":"North Eastern Circle","region":"Shillong HQ Region"},{"pincode":"794103","office":"Sasengpara B.O","district":"WEST GARO HILLS","state":"MEGHALAYA","circle":"North Eastern Circle","region":"Shillong HQ Region"},{"pincode":"794103","office":"Silkhigiri B.O","district":"WEST GARO HILLS","state":"MEGHALAYA","circle":"North Eastern Circle","region":"Shillong HQ Region"},{"pincode":"794005","office":"Dhopgiri B.O","district":"WEST GARO HILLS","state":"MEGHALAYA","circle":"North Eastern Circle","region":"Shillong HQ Region"},{"pincode":"794005","office":"Gambigre B.O","district":"WEST GARO HILLS","state":"MEGHALAYA","circle":"North Eastern Circle","region":"Shillong HQ Region"},{"pincode":"794005","office":"Sanjeng Nokat","district":"WEST GARO HILLS","state":"MEGHALAYA","circle":"North Eastern Circle","region":"Shillong HQ Region"},{"pincode":"794104","office":"Bholarbhita B.O","district":"WEST GARO HILLS","state":"MEGHALAYA","circle":"North Eastern Circle","region":"Shillong HQ Region"},{"pincode":"794104","office":"Gumaijhora B.O","district":"WEST GARO HILLS","state":"MEGHALAYA","circle":"North Eastern Circle","region":"Shillong HQ Region"},{"pincode":"794104","office":"New Bhaitbari B.O","district":"WEST GARO HILLS","state":"MEGHALAYA","circle":"North Eastern Circle","region":"Shillong HQ Region"},{"pincode":"794104","office":"Paham B.O","district":"WEST GARO HILLS","state":"MEGHALAYA","circle":"North Eastern Circle","region":"Shillong HQ Region"},{"pincode":"794104","office":"Rombazar B.O","district":"WEST GARO HILLS","state":"MEGHALAYA","circle":"North Eastern Circle","region":"Shillong HQ Region"},{"pincode":"794104","office":"Doldenggre","district":"WEST GARO HILLS","state":"MEGHALAYA","circle":"North Eastern Circle","region":"Shillong HQ Region"},{"pincode":"794105","office":"Melliam B.O","district":"WEST GARO HILLS","state":"MEGHALAYA","circle":"North Eastern Circle","region":"Shillong HQ Region"},{"pincode":"794002","office":"Achitchonggiri B.O","district":"WEST GARO HILLS","state":"MEGHALAYA","circle":"North Eastern Circle","region":"Shillong HQ Region"},{"pincode":"794002","office":"Matchakgiri B.O","district":"WEST GARO HILLS","state":"MEGHALAYA","circle":"North Eastern Circle","region":"Shillong HQ Region"},{"pincode":"794002","office":"Dabakgre","district":"WEST GARO HILLS","state":"MEGHALAYA","circle":"North Eastern Circle","region":"Shillong HQ Region"},{"pincode":"794002","office":"Danang Bisa","district":"WEST GARO HILLS","state":"MEGHALAYA","circle":"North Eastern Circle","region":"Shillong HQ Region"},{"pincode":"794002","office":"Rengsangre","district":"WEST GARO HILLS","state":"MEGHALAYA","circle":"North Eastern Circle","region":"Shillong HQ Region"},{"pincode":"794106","office":"Balurghat B.O","district":"SOUTH WEST GARO HILLS","state":"MEGHALAYA","circle":"North Eastern Circle","region":"Shillong HQ Region"},{"pincode":"794106","office":"Gopinath Killa B.O","district":"SOUTH WEST GARO HILLS","state":"MEGHALAYA","circle":"North Eastern Circle","region":"Shillong HQ Region"},{"pincode":"794106","office":"Nogorpara B.O","district":"SOUTH WEST GARO HILLS","state":"MEGHALAYA","circle":"North Eastern Circle","region":"Shillong HQ Region"},{"pincode":"794112","office":"Chotcholja","district":"WEST GARO HILLS","state":"MEGHALAYA","circle":"North Eastern Circle","region":"Shillong HQ Region"},{"pincode":"794108","office":"Haluapara B.O","district":"NORTH GARO HILLS","state":"MEGHALAYA","circle":"North Eastern Circle","region":"Shillong HQ Region"},{"pincode":"794108","office":"Kakkunanggre","district":"NORTH GARO HILLS","state":"MEGHALAYA","circle":"North Eastern Circle","region":"Shillong HQ Region"},{"pincode":"794108","office":"Chidoreng","district":"NORTH GARO HILLS","state":"MEGHALAYA","circle":"North Eastern Circle","region":"Shillong HQ Region"},{"pincode":"794108","office":"Chidimit Nengsat","district":"NORTH GARO HILLS","state":"MEGHALAYA","circle":"North Eastern Circle","region":"Shillong HQ Region"},{"pincode":"794108","office":"Dalbot Kongkil","district":"NORTH GARO HILLS","state":"MEGHALAYA","circle":"North Eastern Circle","region":"Shillong HQ Region"},{"pincode":"794108","office":"Chidimit Namesa","district":"NORTH GARO HILLS","state":"MEGHALAYA","circle":"North Eastern Circle","region":"Shillong HQ Region"},{"pincode":"794110","office":"Mangsang B.O","district":"EAST GARO HILLS","state":"MEGHALAYA","circle":"North Eastern Circle","region":"Shillong HQ Region"},{"pincode":"794113","office":"Wagachi B.O","district":"EAST GARO HILLS","state":"MEGHALAYA","circle":"North Eastern Circle","region":"Shillong HQ Region"},{"pincode":"794113","office":"Gulutgittim","district":"EAST GARO HILLS","state":"MEGHALAYA","circle":"North Eastern Circle","region":"Shillong HQ Region"},{"pincode":"794110","office":"Jalwagiri Songgitcham","district":"EAST GARO HILLS","state":"MEGHALAYA","circle":"North Eastern Circle","region":"Shillong HQ Region"},{"pincode":"794110","office":"Bolkret","district":"EAST GARO HILLS","state":"MEGHALAYA","circle":"North Eastern Circle","region":"Shillong HQ Region"},{"pincode":"794110","office":"Nongbak Chichra","district":"EAST GARO HILLS","state":"MEGHALAYA","circle":"North Eastern Circle","region":"Shillong HQ Region"},{"pincode":"794113","office":"Mandadrop","district":"EAST GARO HILLS","state":"MEGHALAYA","circle":"North Eastern Circle","region":"Shillong HQ Region"},{"pincode":"794110","office":"Geru Apal","district":"EAST GARO HILLS","state":"MEGHALAYA","circle":"North Eastern Circle","region":"Shillong HQ Region"},{"pincode":"794110","office":"Sokdam Banggna","district":"EAST GARO HILLS","state":"MEGHALAYA","circle":"North Eastern Circle","region":"Shillong HQ Region"},{"pincode":"794110","office":"Samin Sembukol","district":"EAST GARO HILLS","state":"MEGHALAYA","circle":"North Eastern Circle","region":"Shillong HQ Region"},{"pincode":"794110","office":"Bolmoram Agalgre","district":"EAST GARO HILLS","state":"MEGHALAYA","circle":"North Eastern Circle","region":"Shillong HQ Region"},{"pincode":"794114","office":"Mahesh Khola B.O","district":"SOUTH GARO HILLS","state":"MEGHALAYA","circle":"North Eastern Circle","region":"Shillong HQ Region"},{"pincode":"794114","office":"Batlaban","district":"SOUTH GARO HILLS","state":"MEGHALAYA","circle":"North Eastern Circle","region":"Shillong HQ Region"},{"pincode":"794114","office":"Rambil Gittim","district":"SOUTH GARO HILLS","state":"MEGHALAYA","circle":"North Eastern Circle","region":"Shillong HQ Region"},{"pincode":"794109","office":"Borjhora B.O","district":"WEST GARO HILLS","state":"MEGHALAYA","circle":"North Eastern Circle","region":"Shillong HQ Region"},{"pincode":"794109","office":"Halloidanga B.O","district":"WEST GARO HILLS","state":"MEGHALAYA","circle":"North Eastern Circle","region":"Shillong HQ Region"},{"pincode":"794109","office":"Jengrapara B.O","district":"WEST GARO HILLS","state":"MEGHALAYA","circle":"North Eastern Circle","region":"Shillong HQ Region"},{"pincode":"794111","office":"Rongsakgiri B.O","district":"EAST GARO HILLS","state":"MEGHALAYA","circle":"North Eastern Circle","region":"Shillong HQ Region"},{"pincode":"794111","office":"Sakhadongiri B.O","district":"EAST GARO HILLS","state":"MEGHALAYA","circle":"North Eastern Circle","region":"Shillong HQ Region"},{"pincode":"794111","office":"Dawagre B.O","district":"EAST GARO HILLS","state":"MEGHALAYA","circle":"North Eastern Circle","region":"Shillong HQ Region"},{"pincode":"794111","office":"Danal Apal","district":"EAST GARO HILLS","state":"MEGHALAYA","circle":"North Eastern Circle","region":"Shillong HQ Region"},{"pincode":"794111","office":"Dorakgre","district":"EAST GARO HILLS","state":"MEGHALAYA","circle":"North Eastern Circle","region":"Shillong HQ Region"},{"pincode":"794111","office":"Daribokgre","district":"EAST GARO HILLS","state":"MEGHALAYA","circle":"North Eastern Circle","region":"Shillong HQ Region"},{"pincode":"794111","office":"Rongchek Manda","district":"EAST GARO HILLS","state":"MEGHALAYA","circle":"North Eastern Circle","region":"Shillong HQ Region"},{"pincode":"794111","office":"Nengkra Awe","district":"EAST GARO HILLS","state":"MEGHALAYA","circle":"North Eastern Circle","region":"Shillong HQ Region"},{"pincode":"794111","office":"Rongbinggre (A)","district":"EAST GARO HILLS","state":"MEGHALAYA","circle":"North Eastern Circle","region":"Shillong HQ Region"},{"pincode":"794005","office":"Paromgre","district":"EAST GARO HILLS","state":"MEGHALAYA","circle":"North Eastern Circle","region":"Shillong HQ Region"},{"pincode":"794004","office":"Mandagre","district":"WEST GARO HILLS","state":"MEGHALAYA","circle":"North Eastern Circle","region":"Shillong HQ Region"},{"pincode":"793010","office":"Laitkor Peak S.O","district":"EAST KHASI HILLS","state":"MEGHALAYA","circle":"North Eastern Circle","region":"Shillong HQ Region"},{"pincode":"793001","office":"Oakland S.O","district":"EAST KHASI HILLS","state":"MEGHALAYA","circle":"North Eastern Circle","region":"Shillong HQ Region"},{"pincode":"793015","office":"Smit S.O","district":"EAST KHASI HILLS","state":"MEGHALAYA","circle":"North Eastern Circle","region":"Shillong HQ Region"},{"pincode":"794005","office":"Dobasipara S.O","district":"WEST GARO HILLS","state":"MEGHALAYA","circle":"North Eastern Circle","region":"Shillong HQ Region"},{"pincode":"794105","office":"Garobadha S.O","district":"WEST GARO HILLS","state":"MEGHALAYA","circle":"North Eastern Circle","region":"Shillong HQ Region"},{"pincode":"794106","office":"Mahendraganj S.O (West Garo Hills)","district":"SOUTH WEST GARO HILLS","state":"MEGHALAYA","circle":"North Eastern Circle","region":"Shillong HQ Region"},{"pincode":"794111","office":"Williamnagar S.O","district":"EAST GARO HILLS","state":"MEGHALAYA","circle":"North Eastern Circle","region":"Shillong HQ Region"},{"pincode":"794003","office":"Dadenggre S.O","district":"WEST GARO HILLS","state":"MEGHALAYA","circle":"North Eastern Circle","region":"Shillong HQ Region"},{"pincode":"794004","office":"BAJENGDOBA S.O","district":"WEST GARO HILLS","state":"MEGHALAYA","circle":"North Eastern Circle","region":"Shillong HQ Region"},{"pincode":"793106","office":"Gumaghat B.O","district":"SOUTH WEST KHASI HILLS","state":"MEGHALAYA","circle":"North Eastern Circle","region":"Shillong HQ Region"},{"pincode":"793106","office":"Khonjoy B.O","district":"SOUTH WEST KHASI HILLS","state":"MEGHALAYA","circle":"North Eastern Circle","region":"Shillong HQ Region"},{"pincode":"793106","office":"Ranikor B.O","district":"SOUTH WEST KHASI HILLS","state":"MEGHALAYA","circle":"North Eastern Circle","region":"Shillong HQ Region"},{"pincode":"793106","office":"Weikut","district":"EAST KHASI HILLS","state":"MEGHALAYA","circle":"North Eastern Circle","region":"Shillong HQ Region"},{"pincode":"793106","office":"Rongdusora","district":"EAST KHASI HILLS","state":"MEGHALAYA","circle":"North Eastern Circle","region":"Shillong HQ Region"},{"pincode":"793101","office":"Tamul Kuchi Gaon B.O","district":"RI BHOI","state":"MEGHALAYA","circle":"North Eastern Circle","region":"Shillong HQ Region"},{"pincode":"793101","office":"Mynnar Jirang","district":"RI BHOI","state":"MEGHALAYA","circle":"North Eastern Circle","region":"Shillong HQ Region"},{"pincode":"793101","office":"Mawskeithem","district":"RI BHOI","state":"MEGHALAYA","circle":"North Eastern Circle","region":"Shillong HQ Region"},{"pincode":"793101","office":"Lymphuid","district":"RI BHOI","state":"MEGHALAYA","circle":"North Eastern Circle","region":"Shillong HQ Region"},{"pincode":"793101","office":"Raja Para","district":"RI BHOI","state":"MEGHALAYA","circle":"North Eastern Circle","region":"Shillong HQ Region"},{"pincode":"793101","office":"Batabari Gaon","district":"RI BHOI","state":"MEGHALAYA","circle":"North Eastern Circle","region":"Shillong HQ Region"},{"pincode":"793101","office":"Pat Gaon","district":"RI BHOI","state":"MEGHALAYA","circle":"North Eastern Circle","region":"Shillong HQ Region"},{"pincode":"793108","office":"Ramdait B.O","district":"EAST KHASI HILLS","state":"MEGHALAYA","circle":"North Eastern Circle","region":"Shillong HQ Region"},{"pincode":"793108","office":"Tynrong B.O","district":"EAST KHASI HILLS","state":"MEGHALAYA","circle":"North Eastern Circle","region":"Shillong HQ Region"},{"pincode":"793108","office":"Laitkynsew B.O","district":"EAST KHASI HILLS","state":"MEGHALAYA","circle":"North Eastern Circle","region":"Shillong HQ Region"},{"pincode":"793108","office":"Mahadeo B.O","district":"EAST KHASI HILLS","state":"MEGHALAYA","circle":"North Eastern Circle","region":"Shillong HQ Region"},{"pincode":"793108","office":"Tyrna B.O","district":"EAST KHASI HILLS","state":"MEGHALAYA","circle":"North Eastern Circle","region":"Shillong HQ Region"},{"pincode":"793109","office":"Nongbareh B.O","district":"WEST JAINTIA HILLS","state":"MEGHALAYA","circle":"North Eastern Circle","region":"Shillong HQ Region"},{"pincode":"793150","office":"Mupyut B.O","district":"WEST JAINTIA HILLS","state":"MEGHALAYA","circle":"North Eastern Circle","region":"Shillong HQ Region"},{"pincode":"793150","office":"Mustem B.O","district":"WEST JAINTIA HILLS","state":"MEGHALAYA","circle":"North Eastern Circle","region":"Shillong HQ Region"},{"pincode":"793150","office":"Mynso B.O","district":"WEST JAINTIA HILLS","state":"MEGHALAYA","circle":"North Eastern Circle","region":"Shillong HQ Region"},{"pincode":"793150","office":"Pdengshakap B.O","district":"WEST JAINTIA HILLS","state":"MEGHALAYA","circle":"North Eastern Circle","region":"Shillong HQ Region"},{"pincode":"793150","office":"Raliang B.O","district":"WEST JAINTIA HILLS","state":"MEGHALAYA","circle":"North Eastern Circle","region":"Shillong HQ Region"},{"pincode":"793150","office":"Thangbuli B.O","district":"WEST JAINTIA HILLS","state":"MEGHALAYA","circle":"North Eastern Circle","region":"Shillong HQ Region"},{"pincode":"793150","office":"Thangrain B.O","district":"WEST JAINTIA HILLS","state":"MEGHALAYA","circle":"North Eastern Circle","region":"Shillong HQ Region"},{"pincode":"793150","office":"Thadsning","district":"WEST JAINTIA HILLS","state":"MEGHALAYA","circle":"North Eastern Circle","region":"Shillong HQ Region"},{"pincode":"793150","office":"Samatan","district":"WEST JAINTIA HILLS","state":"MEGHALAYA","circle":"North Eastern Circle","region":"Shillong HQ Region"},{"pincode":"793200","office":"Mualsei B.O","district":"EAST JAINTIA HILLS","state":"MEGHALAYA","circle":"North Eastern Circle","region":"Shillong HQ Region"},{"pincode":"793200","office":"Myndihati B.O","district":"EAST JAINTIA HILLS","state":"MEGHALAYA","circle":"North Eastern Circle","region":"Shillong HQ Region"},{"pincode":"793200","office":"Musniang Rim","district":"EAST JAINTIA HILLS","state":"MEGHALAYA","circle":"North Eastern Circle","region":"Shillong HQ Region"},{"pincode":"793200","office":"Nongsning","district":"EAST JAINTIA HILLS","state":"MEGHALAYA","circle":"North Eastern Circle","region":"Shillong HQ Region"},{"pincode":"793200","office":"Mynthlu","district":"EAST JAINTIA HILLS","state":"MEGHALAYA","circle":"North Eastern Circle","region":"Shillong HQ Region"},{"pincode":"793200","office":"Kyrluh","district":"EAST JAINTIA HILLS","state":"MEGHALAYA","circle":"North Eastern Circle","region":"Shillong HQ Region"},{"pincode":"793200","office":"Kayengpur","district":"EAST JAINTIA HILLS","state":"MEGHALAYA","circle":"North Eastern Circle","region":"Shillong HQ Region"},{"pincode":"793200","office":"Nachangzol","district":"EAST JAINTIA HILLS","state":"MEGHALAYA","circle":"North Eastern Circle","region":"Shillong HQ Region"},{"pincode":"793004","office":"Bishnupur B.O","district":"EAST KHASI HILLS","state":"MEGHALAYA","circle":"North Eastern Circle","region":"Shillong HQ Region"},{"pincode":"793160","office":"Sohkymphor B.O","district":"EAST JAINTIA HILLS","state":"MEGHALAYA","circle":"North Eastern Circle","region":"Shillong HQ Region"},{"pincode":"793160","office":"Um Latdoh","district":"EAST JAINTIA HILLS","state":"MEGHALAYA","circle":"North Eastern Circle","region":"Shillong HQ Region"},{"pincode":"793021","office":"Puriang B.O","district":"EAST KHASI HILLS","state":"MEGHALAYA","circle":"North Eastern Circle","region":"Shillong HQ Region"},{"pincode":"793120","office":"Kynrut B.O","district":"WEST KHASI HILLS","state":"MEGHALAYA","circle":"North Eastern Circle","region":"Shillong HQ Region"},{"pincode":"793120","office":"Nongkhlaw B.O","district":"WEST KHASI HILLS","state":"MEGHALAYA","circle":"North Eastern Circle","region":"Shillong HQ Region"},{"pincode":"793120","office":"Nongthliew B.O","district":"WEST KHASI HILLS","state":"MEGHALAYA","circle":"North Eastern Circle","region":"Shillong HQ Region"},{"pincode":"793120","office":"Tiehnongbah B.O","district":"WEST KHASI HILLS","state":"MEGHALAYA","circle":"North Eastern Circle","region":"Shillong HQ Region"},{"pincode":"793120","office":"Ksehmawnai","district":"EAST KHASI HILLS","state":"MEGHALAYA","circle":"North Eastern Circle","region":"Shillong HQ Region"},{"pincode":"793120","office":"Nongrilong","district":"EAST KHASI HILLS","state":"MEGHALAYA","circle":"North Eastern Circle","region":"Shillong HQ Region"},{"pincode":"793120","office":"Jakhong","district":"EAST KHASI HILLS","state":"MEGHALAYA","circle":"North Eastern Circle","region":"Shillong HQ Region"},{"pincode":"793120","office":"Kynrud incl laitbyrsu","district":"EAST KHASI HILLS","state":"MEGHALAYA","circle":"North Eastern Circle","region":"Shillong HQ Region"},{"pincode":"793120","office":"Sohtyngkhur","district":"EAST KHASI HILLS","state":"MEGHALAYA","circle":"North Eastern Circle","region":"Shillong HQ Region"},{"pincode":"793114","office":"Ngunraw B.O","district":"SOUTH WEST KHASI HILLS","state":"MEGHALAYA","circle":"North Eastern Circle","region":"Shillong HQ Region"},{"pincode":"793114","office":"Nongsynrih B.O","district":"SOUTH WEST KHASI HILLS","state":"MEGHALAYA","circle":"North Eastern Circle","region":"Shillong HQ Region"},{"pincode":"793114","office":"Demnar","district":"SOUTH WEST KHASI HILLS","state":"MEGHALAYA","circle":"North Eastern Circle","region":"Shillong HQ Region"},{"pincode":"793114","office":"Tiehtaliar","district":"SOUTH WEST KHASI HILLS","state":"MEGHALAYA","circle":"North Eastern Circle","region":"Shillong HQ Region"},{"pincode":"793012","office":"Mawkhanu B.O","district":"EAST KHASI HILLS","state":"MEGHALAYA","circle":"North Eastern Circle","region":"Shillong HQ Region"},{"pincode":"793012","office":"Tynring B.O","district":"EAST KHASI HILLS","state":"MEGHALAYA","circle":"North Eastern Circle","region":"Shillong HQ Region"},{"pincode":"793121","office":"Lyngiong B.O","district":"EAST KHASI HILLS","state":"MEGHALAYA","circle":"North Eastern Circle","region":"Shillong HQ Region"},{"pincode":"793121","office":"Sohpian B.O","district":"EAST KHASI HILLS","state":"MEGHALAYA","circle":"North Eastern Circle","region":"Shillong HQ Region"},{"pincode":"793113","office":"Lawbah B.O","district":"EAST KHASI HILLS","state":"MEGHALAYA","circle":"North Eastern Circle","region":"Shillong HQ Region"},{"pincode":"793113","office":"Phlang Mawsyrpat B.O","district":"EAST KHASI HILLS","state":"MEGHALAYA","circle":"North Eastern Circle","region":"Shillong HQ Region"},{"pincode":"793113","office":"Rynkubazar B.O","district":"EAST KHASI HILLS","state":"MEGHALAYA","circle":"North Eastern Circle","region":"Shillong HQ Region"},{"pincode":"793113","office":"Thyllaw B.O","district":"EAST KHASI HILLS","state":"MEGHALAYA","circle":"North Eastern Circle","region":"Shillong HQ Region"},{"pincode":"793022","office":"Mawtawar B.O","district":"EAST KHASI HILLS","state":"MEGHALAYA","circle":"North Eastern Circle","region":"Shillong HQ Region"},{"pincode":"793102","office":"Saiden B.O","district":"RI BHOI","state":"MEGHALAYA","circle":"North Eastern Circle","region":"Shillong HQ Region"},{"pincode":"793102","office":"Umden B.O","district":"RI BHOI","state":"MEGHALAYA","circle":"North Eastern Circle","region":"Shillong HQ Region"},{"pincode":"793102","office":"Umrit B.O","district":"RI BHOI","state":"MEGHALAYA","circle":"North Eastern Circle","region":"Shillong HQ Region"},{"pincode":"793102","office":"Umpdem","district":"RI BHOI","state":"MEGHALAYA","circle":"North Eastern Circle","region":"Shillong HQ Region"},{"pincode":"793119","office":"Laitkseh B.O","district":"WEST KHASI HILLS","state":"MEGHALAYA","circle":"North Eastern Circle","region":"Shillong HQ Region"},{"pincode":"793119","office":"Marskuin B.O","district":"WEST KHASI HILLS","state":"MEGHALAYA","circle":"North Eastern Circle","region":"Shillong HQ Region"},{"pincode":"793119","office":"Nongpyndeng B.O","district":"WEST KHASI HILLS","state":"MEGHALAYA","circle":"North Eastern Circle","region":"Shillong HQ Region"},{"pincode":"793119","office":"Nongsdad  Dkhar B.O","district":"WEST KHASI HILLS","state":"MEGHALAYA","circle":"North Eastern Circle","region":"Shillong HQ Region"},{"pincode":"793119","office":"Nongshyrkon B.O","district":"WEST KHASI HILLS","state":"MEGHALAYA","circle":"North Eastern Circle","region":"Shillong HQ Region"},{"pincode":"793119","office":"Pyndengrei B.O","district":"WEST KHASI HILLS","state":"MEGHALAYA","circle":"North Eastern Circle","region":"Shillong HQ Region"},{"pincode":"793119","office":"Dariphang","district":"WEST JAINTIA HILLS","state":"MEGHALAYA","circle":"North Eastern Circle","region":"Shillong HQ Region"},{"pincode":"793119","office":"Mawrok Nongnah","district":"WEST JAINTIA HILLS","state":"MEGHALAYA","circle":"North Eastern Circle","region":"Shillong HQ Region"},{"pincode":"793119","office":"Nongkyllang","district":"WEST JAINTIA HILLS","state":"MEGHALAYA","circle":"North Eastern Circle","region":"Shillong HQ Region"},{"pincode":"793119","office":"Mawdumdum","district":"WEST JAINTIA HILLS","state":"MEGHALAYA","circle":"North Eastern Circle","region":"Shillong HQ Region"},{"pincode":"793119","office":"Mawliehbah Mawnar","district":"WEST JAINTIA HILLS","state":"MEGHALAYA","circle":"North Eastern Circle","region":"Shillong HQ Region"},{"pincode":"793119","office":"Mawduh","district":"WEST JAINTIA HILLS","state":"MEGHALAYA","circle":"North Eastern Circle","region":"Shillong HQ Region"},{"pincode":"793119","office":"Mawlangsu","district":"WEST JAINTIA HILLS","state":"MEGHALAYA","circle":"North Eastern Circle","region":"Shillong HQ Region"},{"pincode":"793119","office":"Mawiawet","district":"WEST JAINTIA HILLS","state":"MEGHALAYA","circle":"North Eastern Circle","region":"Shillong HQ Region"},{"pincode":"793119","office":"Thadteja","district":"WEST JAINTIA HILLS","state":"MEGHALAYA","circle":"North Eastern Circle","region":"Shillong HQ Region"},{"pincode":"793110","office":"Laitlyngkot B.O","district":"EAST KHASI HILLS","state":"MEGHALAYA","circle":"North Eastern Circle","region":"Shillong HQ Region"},{"pincode":"793110","office":"Nongkynrih B.O","district":"EAST KHASI HILLS","state":"MEGHALAYA","circle":"North Eastern Circle","region":"Shillong HQ Region"},{"pincode":"793112","office":"Dalia B.O","district":"EAST KHASI HILLS","state":"MEGHALAYA","circle":"North Eastern Circle","region":"Shillong HQ Region"},{"pincode":"793015","office":"Jongksha B.O","district":"EAST KHASI HILLS","state":"MEGHALAYA","circle":"North Eastern Circle","region":"Shillong HQ Region"},{"pincode":"793021","office":"Mawlyngngad B.O","district":"EAST KHASI HILLS","state":"MEGHALAYA","circle":"North Eastern Circle","region":"Shillong HQ Region"},{"pincode":"793015","office":"Thynroit B.O","district":"EAST KHASI HILLS","state":"MEGHALAYA","circle":"North Eastern Circle","region":"Shillong HQ Region"},{"pincode":"793151","office":"Saitsama B.O","district":"WEST JAINTIA HILLS","state":"MEGHALAYA","circle":"North Eastern Circle","region":"Shillong HQ Region"},{"pincode":"793151","office":"Wahiajer B.O","district":"WEST JAINTIA HILLS","state":"MEGHALAYA","circle":"North Eastern Circle","region":"Shillong HQ Region"},{"pincode":"793151","office":"Thadbamon","district":"WEST JAINTIA HILLS","state":"MEGHALAYA","circle":"North Eastern Circle","region":"Shillong HQ Region"},{"pincode":"793103","office":"Mawbri B.O","district":"RI BHOI","state":"MEGHALAYA","circle":"North Eastern Circle","region":"Shillong HQ Region"},{"pincode":"793103","office":"Rongmen B.O","district":"RI BHOI","state":"MEGHALAYA","circle":"North Eastern Circle","region":"Shillong HQ Region"},{"pincode":"793103","office":"Umroi B.O","district":"RI BHOI","state":"MEGHALAYA","circle":"North Eastern Circle","region":"Shillong HQ Region"},{"pincode":"793105","office":"Nongmahir","district":"RI BHOI","state":"MEGHALAYA","circle":"North Eastern Circle","region":"Shillong HQ Region"},{"pincode":"793126","office":"Dobakdrop","district":"WEST KHASI HILLS","state":"MEGHALAYA","circle":"North Eastern Circle","region":"Shillong HQ Region"},{"pincode":"793126","office":"Amagaon","district":"WEST KHASI HILLS","state":"MEGHALAYA","circle":"North Eastern Circle","region":"Shillong HQ Region"},{"pincode":"793126","office":"Nongjaiaw","district":"WEST KHASI HILLS","state":"MEGHALAYA","circle":"North Eastern Circle","region":"Shillong HQ Region"},{"pincode":"793126","office":"Rongkhang","district":"WEST KHASI HILLS","state":"MEGHALAYA","circle":"North Eastern Circle","region":"Shillong HQ Region"},{"pincode":"793126","office":"Awiak","district":"WEST KHASI HILLS","state":"MEGHALAYA","circle":"North Eastern Circle","region":"Shillong HQ Region"},{"pincode":"793126","office":"Mawbon Chithu","district":"WEST KHASI HILLS","state":"MEGHALAYA","circle":"North Eastern Circle","region":"Shillong HQ Region"},{"pincode":"794115","office":"Bollonggre","district":"SOUTH WEST GARO HILLS","state":"MEGHALAYA","circle":"North Eastern Circle","region":"Shillong HQ Region"},{"pincode":"794115","office":"Bollonggiri-II","district":"SOUTH WEST GARO HILLS","state":"MEGHALAYA","circle":"North Eastern Circle","region":"Shillong HQ Region"},{"pincode":"794115","office":"Banangpara","district":"SOUTH WEST GARO HILLS","state":"MEGHALAYA","circle":"North Eastern Circle","region":"Shillong HQ Region"},{"pincode":"794115","office":"Rukolpara","district":"SOUTH WEST GARO HILLS","state":"MEGHALAYA","circle":"North Eastern Circle","region":"Shillong HQ Region"},{"pincode":"794115","office":"Kangkanggre","district":"SOUTH WEST GARO HILLS","state":"MEGHALAYA","circle":"North Eastern Circle","region":"Shillong HQ Region"},{"pincode":"794115","office":"Ritekpara","district":"SOUTH WEST GARO HILLS","state":"MEGHALAYA","circle":"North Eastern Circle","region":"Shillong HQ Region"},{"pincode":"794101","office":"Captain Reserve B.O","district":"WEST GARO HILLS","state":"MEGHALAYA","circle":"North Eastern Circle","region":"Shillong HQ Region"},{"pincode":"794101","office":"Dakopgiri B.O","district":"WEST GARO HILLS","state":"MEGHALAYA","circle":"North Eastern Circle","region":"Shillong HQ Region"},{"pincode":"794102","office":"Siju B.O","district":"SOUTH GARO HILLS","state":"MEGHALAYA","circle":"North Eastern Circle","region":"Shillong HQ Region"},{"pincode":"794102","office":"Rongsugri","district":"SOUTH GARO HILLS","state":"MEGHALAYA","circle":"North Eastern Circle","region":"Shillong HQ Region"},{"pincode":"794102","office":"Ronchekgre","district":"SOUTH GARO HILLS","state":"MEGHALAYA","circle":"North Eastern Circle","region":"Shillong HQ Region"},{"pincode":"794102","office":"Karukol Konagittim","district":"SOUTH GARO HILLS","state":"MEGHALAYA","circle":"North Eastern Circle","region":"Shillong HQ Region"},{"pincode":"794102","office":"Wamisenggre","district":"SOUTH GARO HILLS","state":"MEGHALAYA","circle":"North Eastern Circle","region":"Shillong HQ Region"},{"pincode":"794102","office":"Rongsu Agal","district":"SOUTH GARO HILLS","state":"MEGHALAYA","circle":"North Eastern Circle","region":"Shillong HQ Region"},{"pincode":"794102","office":"Rewak Daburam","district":"SOUTH GARO HILLS","state":"MEGHALAYA","circle":"North Eastern Circle","region":"Shillong HQ Region"},{"pincode":"794102","office":"Medu Hawe","district":"SOUTH GARO HILLS","state":"MEGHALAYA","circle":"North Eastern Circle","region":"Shillong HQ Region"},{"pincode":"794102","office":"Mongmabel","district":"SOUTH GARO HILLS","state":"MEGHALAYA","circle":"North Eastern Circle","region":"Shillong HQ Region"},{"pincode":"794102","office":"Dabokol","district":"SOUTH GARO HILLS","state":"MEGHALAYA","circle":"North Eastern Circle","region":"Shillong HQ Region"},{"pincode":"794102","office":"Mohadeo Songmong","district":"SOUTH GARO HILLS","state":"MEGHALAYA","circle":"North Eastern Circle","region":"Shillong HQ Region"},{"pincode":"794102","office":"Galasora","district":"SOUTH GARO HILLS","state":"MEGHALAYA","circle":"North Eastern Circle","region":"Shillong HQ Region"},{"pincode":"794103","office":"Kharapara B.O","district":"WEST GARO HILLS","state":"MEGHALAYA","circle":"North Eastern Circle","region":"Shillong HQ Region"},{"pincode":"794103","office":"Rimrangapara B.O","district":"WEST GARO HILLS","state":"MEGHALAYA","circle":"North Eastern Circle","region":"Shillong HQ Region"},{"pincode":"794103","office":"Chigranggre","district":"WEST GARO HILLS","state":"MEGHALAYA","circle":"North Eastern Circle","region":"Shillong HQ Region"},{"pincode":"794005","office":"Chokpotgiri B.O","district":"WEST GARO HILLS","state":"MEGHALAYA","circle":"North Eastern Circle","region":"Shillong HQ Region"},{"pincode":"794005","office":"Shankinigiri B.O","district":"WEST GARO HILLS","state":"MEGHALAYA","circle":"North Eastern Circle","region":"Shillong HQ Region"},{"pincode":"794005","office":"Romba Songgitalgre","district":"WEST GARO HILLS","state":"MEGHALAYA","circle":"North Eastern Circle","region":"Shillong HQ Region"},{"pincode":"794005","office":"Dorangre B","district":"WEST GARO HILLS","state":"MEGHALAYA","circle":"North Eastern Circle","region":"Shillong HQ Region"},{"pincode":"794104","office":"Bhaitbari B.O","district":"WEST GARO HILLS","state":"MEGHALAYA","circle":"North Eastern Circle","region":"Shillong HQ Region"},{"pincode":"794104","office":"Holidayganj B.O","district":"WEST GARO HILLS","state":"MEGHALAYA","circle":"North Eastern Circle","region":"Shillong HQ Region"},{"pincode":"794104","office":"Rajabala B.O","district":"WEST GARO HILLS","state":"MEGHALAYA","circle":"North Eastern Circle","region":"Shillong HQ Region"},{"pincode":"794104","office":"Rongmatchokgiri B.O","district":"WEST GARO HILLS","state":"MEGHALAYA","circle":"North Eastern Circle","region":"Shillong HQ Region"},{"pincode":"794104","office":"Sabribari B.O","district":"WEST GARO HILLS","state":"MEGHALAYA","circle":"North Eastern Circle","region":"Shillong HQ Region"},{"pincode":"794104","office":"Saka Mronggre","district":"WEST GARO HILLS","state":"MEGHALAYA","circle":"North Eastern Circle","region":"Shillong HQ Region"},{"pincode":"794105","office":"Damalgiri B.O","district":"WEST GARO HILLS","state":"MEGHALAYA","circle":"North Eastern Circle","region":"Shillong HQ Region"},{"pincode":"794105","office":"Grenggandi Agal B.O","district":"WEST GARO HILLS","state":"MEGHALAYA","circle":"North Eastern Circle","region":"Shillong HQ Region"},{"pincode":"794105","office":"Kalchengapara B.O","district":"WEST GARO HILLS","state":"MEGHALAYA","circle":"North Eastern Circle","region":"Shillong HQ Region"},{"pincode":"794004","office":"Anugiri B.O","district":"WEST GARO HILLS","state":"MEGHALAYA","circle":"North Eastern Circle","region":"Shillong HQ Region"},{"pincode":"794002","office":"Bajengdoba B.O","district":"WEST GARO HILLS","state":"MEGHALAYA","circle":"North Eastern Circle","region":"Shillong HQ Region"},{"pincode":"794002","office":"Mendal B.O","district":"WEST GARO HILLS","state":"MEGHALAYA","circle":"North Eastern Circle","region":"Shillong HQ Region"},{"pincode":"794002","office":"Rongram B.O","district":"WEST GARO HILLS","state":"MEGHALAYA","circle":"North Eastern Circle","region":"Shillong HQ Region"},{"pincode":"794002","office":"Aguragre","district":"WEST GARO HILLS","state":"MEGHALAYA","circle":"North Eastern Circle","region":"Shillong HQ Region"},{"pincode":"794002","office":"Gondenggre","district":"WEST GARO HILLS","state":"MEGHALAYA","circle":"North Eastern Circle","region":"Shillong HQ Region"},{"pincode":"794002","office":"Sasatgre","district":"WEST GARO HILLS","state":"MEGHALAYA","circle":"North Eastern Circle","region":"Shillong HQ Region"},{"pincode":"794112","office":"Imsambal","district":"WEST GARO HILLS","state":"MEGHALAYA","circle":"North Eastern Circle","region":"Shillong HQ Region"},{"pincode":"794112","office":"Dobanggal","district":"WEST GARO HILLS","state":"MEGHALAYA","circle":"North Eastern Circle","region":"Shillong HQ Region"},{"pincode":"794112","office":"Ildek Reserve","district":"WEST GARO HILLS","state":"MEGHALAYA","circle":"North Eastern Circle","region":"Shillong HQ Region"},{"pincode":"794112","office":"Rem Megapgre","district":"WEST GARO HILLS","state":"MEGHALAYA","circle":"North Eastern Circle","region":"Shillong HQ Region"},{"pincode":"794112","office":"Sildubipara Pt-II","district":"WEST GARO HILLS","state":"MEGHALAYA","circle":"North Eastern Circle","region":"Shillong HQ Region"},{"pincode":"794107","office":"Khalu A","district":"SOUTH GARO HILLS","state":"MEGHALAYA","circle":"North Eastern Circle","region":"Shillong HQ Region"},{"pincode":"794108","office":"Dandakol","district":"NORTH GARO HILLS","state":"MEGHALAYA","circle":"North Eastern Circle","region":"Shillong HQ Region"},{"pincode":"794108","office":"Mebokdam","district":"NORTH GARO HILLS","state":"MEGHALAYA","circle":"North Eastern Circle","region":"Shillong HQ Region"},{"pincode":"794108","office":"Kawak","district":"NORTH GARO HILLS","state":"MEGHALAYA","circle":"North Eastern Circle","region":"Shillong HQ Region"},{"pincode":"794108","office":"Bangsi Minol","district":"NORTH GARO HILLS","state":"MEGHALAYA","circle":"North Eastern Circle","region":"Shillong HQ Region"},{"pincode":"794108","office":"Upper Bolsaldam","district":"NORTH GARO HILLS","state":"MEGHALAYA","circle":"North Eastern Circle","region":"Shillong HQ Region"},{"pincode":"794108","office":"Asil Mindil","district":"NORTH GARO HILLS","state":"MEGHALAYA","circle":"North Eastern Circle","region":"Shillong HQ Region"},{"pincode":"794110","office":"Dagal Simreng","district":"EAST GARO HILLS","state":"MEGHALAYA","circle":"North Eastern Circle","region":"Shillong HQ Region"},{"pincode":"794110","office":"Gongrang","district":"EAST GARO HILLS","state":"MEGHALAYA","circle":"North Eastern Circle","region":"Shillong HQ Region"},{"pincode":"794110","office":"Sokadam Agalgre","district":"EAST GARO HILLS","state":"MEGHALAYA","circle":"North Eastern Circle","region":"Shillong HQ Region"},{"pincode":"794102","office":"Nokatgre","district":"EAST GARO HILLS","state":"MEGHALAYA","circle":"North Eastern Circle","region":"Shillong HQ Region"},{"pincode":"794114","office":"Lower Nekora","district":"SOUTH GARO HILLS","state":"MEGHALAYA","circle":"North Eastern Circle","region":"Shillong HQ Region"},{"pincode":"794114","office":"Hatisia","district":"SOUTH GARO HILLS","state":"MEGHALAYA","circle":"North Eastern Circle","region":"Shillong HQ Region"},{"pincode":"794109","office":"Mohalgre","district":"WEST GARO HILLS","state":"MEGHALAYA","circle":"North Eastern Circle","region":"Shillong HQ Region"},{"pincode":"794109","office":"Dhelapara","district":"WEST GARO HILLS","state":"MEGHALAYA","circle":"North Eastern Circle","region":"Shillong HQ Region"},{"pincode":"794109","office":"Gonda Chibolgre","district":"WEST GARO HILLS","state":"MEGHALAYA","circle":"North Eastern Circle","region":"Shillong HQ Region"},{"pincode":"794109","office":"Tosinpara","district":"WEST GARO HILLS","state":"MEGHALAYA","circle":"North Eastern Circle","region":"Shillong HQ Region"},{"pincode":"794111","office":"Rongap Songgitcham","district":"EAST GARO HILLS","state":"MEGHALAYA","circle":"North Eastern Circle","region":"Shillong HQ Region"},{"pincode":"794111","office":"Bolmoram Dochokgre","district":"EAST GARO HILLS","state":"MEGHALAYA","circle":"North Eastern Circle","region":"Shillong HQ Region"},{"pincode":"794111","office":"Songma Enggok","district":"EAST GARO HILLS","state":"MEGHALAYA","circle":"North Eastern Circle","region":"Shillong HQ Region"},{"pincode":"794111","office":"Bansinggre","district":"EAST GARO HILLS","state":"MEGHALAYA","circle":"North Eastern Circle","region":"Shillong HQ Region"},{"pincode":"794111","office":"Sawilgre","district":"EAST GARO HILLS","state":"MEGHALAYA","circle":"North Eastern Circle","region":"Shillong HQ Region"},{"pincode":"794111","office":"Kakwa Rongbokgre","district":"EAST GARO HILLS","state":"MEGHALAYA","circle":"North Eastern Circle","region":"Shillong HQ Region"},{"pincode":"794111","office":"Mandalgre","district":"EAST GARO HILLS","state":"MEGHALAYA","circle":"North Eastern Circle","region":"Shillong HQ Region"},{"pincode":"794005","office":"Emandurabangda","district":"EAST GARO HILLS","state":"MEGHALAYA","circle":"North Eastern Circle","region":"Shillong HQ Region"},{"pincode":"794003","office":"Bandanggre","district":"WEST GARO HILLS","state":"MEGHALAYA","circle":"North Eastern Circle","region":"Shillong HQ Region"},{"pincode":"794003","office":"Egopara","district":"WEST GARO HILLS","state":"MEGHALAYA","circle":"North Eastern Circle","region":"Shillong HQ Region"},{"pincode":"794004","office":"Chinaranggre","district":"WEST GARO HILLS","state":"MEGHALAYA","circle":"North Eastern Circle","region":"Shillong HQ Region"},{"pincode":"794004","office":"Laskarpara (Hajong)","district":"WEST GARO HILLS","state":"MEGHALAYA","circle":"North Eastern Circle","region":"Shillong HQ Region"},{"pincode":"794004","office":"Laskarpara (Garo)","district":"WEST GARO HILLS","state":"MEGHALAYA","circle":"North Eastern Circle","region":"Shillong HQ Region"},{"pincode":"794004","office":"Rongsep Adinggre","district":"WEST GARO HILLS","state":"MEGHALAYA","circle":"North Eastern Circle","region":"Shillong HQ Region"},{"pincode":"794004","office":"Asil Songgital","district":"WEST GARO HILLS","state":"MEGHALAYA","circle":"North Eastern Circle","region":"Shillong HQ Region"},{"pincode":"793108","office":"Cherrapunjee S.O","district":"EAST KHASI HILLS","state":"MEGHALAYA","circle":"North Eastern Circle","region":"Shillong HQ Region"},{"pincode":"793003","office":"Laitumkhrah S.O","district":"EAST KHASI HILLS","state":"MEGHALAYA","circle":"North Eastern Circle","region":"Shillong HQ Region"},{"pincode":"793021","office":"Madanriting S.O","district":"EAST KHASI HILLS","state":"MEGHALAYA","circle":"North Eastern Circle","region":"Shillong HQ Region"},{"pincode":"793001","office":"Meghalaya Secretariat S.O","district":"EAST KHASI HILLS","state":"MEGHALAYA","circle":"North Eastern Circle","region":"Shillong HQ Region"},{"pincode":"793122","office":"Ucc S.O","district":"RI BHOI","state":"MEGHALAYA","circle":"North Eastern Circle","region":"Shillong HQ Region"},{"pincode":"793103","office":"Umiam S.O","district":"RI BHOI","state":"MEGHALAYA","circle":"North Eastern Circle","region":"Shillong HQ Region"},{"pincode":"793123","office":"Umsaw S.O","district":"RI BHOI","state":"MEGHALAYA","circle":"North Eastern Circle","region":"Shillong HQ Region"},{"pincode":"794107","office":"Nangwalbibra S.O","district":"SOUTH GARO HILLS","state":"MEGHALAYA","circle":"North Eastern Circle","region":"Shillong HQ Region"},{"pincode":"794114","office":"Rongra S.O","district":"SOUTH GARO HILLS","state":"MEGHALAYA","circle":"North Eastern Circle","region":"Shillong HQ Region"}]