[{"pincode":"796007","office":"Edenthar B.O","district":"AIZAWL","state":"MIZORAM","circle":"North Eastern Circle","region":"North East - I Region"},{"pincode":"796190","office":"Maubuang B.O","district":"AIZAWL","state":"MIZORAM","circle":"North Eastern Circle","region":"North East - I Region"},{"pincode":"796015","office":"Muthi B.O","district":"AIZAWL","state":"MIZORAM","circle":"North Eastern Circle","region":"North East - I Region"},{"pincode":"796015","office":"Selesih B.O","district":"AIZAWL","state":"MIZORAM","circle":"North Eastern Circle","region":"North East - I Region"},{"pincode":"796091","office":"Phaisen B.O","district":"KOLASIB","state":"MIZORAM","circle":"North Eastern Circle","region":"North East - I Region"},{"pincode":"796701","office":"Sesawm B.O","district":"LUNGLEI","state":"MIZORAM","circle":"North Eastern Circle","region":"North East - I Region"},{"pincode":"796321","office":"Bethel B.O","district":"CHAMPHAI","state":"MIZORAM","circle":"North Eastern Circle","region":"North East - I Region"},{"pincode":"796321","office":"Ngur B.O","district":"CHAMPHAI","state":"MIZORAM","circle":"North Eastern Circle","region":"North East - I Region"},{"pincode":"796321","office":"Ruantlang B.O","district":"CHAMPHAI","state":"MIZORAM","circle":"North Eastern Circle","region":"North East - I Region"},{"pincode":"796321","office":"Sesih B.O","district":"CHAMPHAI","state":"MIZORAM","circle":"North Eastern Circle","region":"North East - I Region"},{"pincode":"796321","office":"Zote e B.O","district":"CHAMPHAI","state":"MIZORAM","circle":"North Eastern Circle","region":"North East - I Region"},{"pincode":"796321","office":"LIANPUI","district":"CHAMPHAI","state":"MIZORAM","circle":"North Eastern Circle","region":"North East - I Region"},{"pincode":"796007","office":"Bethlehem B.O","district":"AIZAWL","state":"MIZORAM","circle":"North Eastern Circle","region":"North East - I Region"},{"pincode":"796007","office":"Ramthar B.O","district":"AIZAWL","state":"MIZORAM","circle":"North Eastern Circle","region":"North East - I Region"},{"pincode":"796770","office":"Jarulsury B.O","district":"AIZAWL","state":"MIZORAM","circle":"North Eastern Circle","region":"North East - I Region"},{"pincode":"796770","office":"Sumsilui B.O","district":"AIZAWL","state":"MIZORAM","circle":"North Eastern Circle","region":"North East - I Region"},{"pincode":"796770","office":"Udaisury B.O","district":"AIZAWL","state":"MIZORAM","circle":"North Eastern Circle","region":"North East - I Region"},{"pincode":"796770","office":"Udalthana B.O","district":"AIZAWL","state":"MIZORAM","circle":"North Eastern Circle","region":"North East - I Region"},{"pincode":"796770","office":"Kamalanagar B.O","district":"AIZAWL","state":"MIZORAM","circle":"North Eastern Circle","region":"North East - I Region"},{"pincode":"796770","office":"MAINABABSORA","district":"AIZAWL","state":"MIZORAM","circle":"North Eastern Circle","region":"North East - I Region"},{"pincode":"796111","office":"Khawpuar B.O","district":"AIZAWL","state":"MIZORAM","circle":"North Eastern Circle","region":"North East - I Region"},{"pincode":"796111","office":"N.Tinghmun B.O","district":"AIZAWL","state":"MIZORAM","circle":"North Eastern Circle","region":"North East - I Region"},{"pincode":"796111","office":"Sakawrdai B.O","district":"AIZAWL","state":"MIZORAM","circle":"North Eastern Circle","region":"North East - I Region"},{"pincode":"796111","office":"Vaitin B.O","district":"AIZAWL","state":"MIZORAM","circle":"North Eastern Circle","region":"North East - I Region"},{"pincode":"796111","office":"KANI","district":"AIZAWL","state":"MIZORAM","circle":"North Eastern Circle","region":"North East - I Region"},{"pincode":"796751","office":"S.Chawilung B.O","district":"LUNGLEI","state":"MIZORAM","circle":"North Eastern Circle","region":"North East - I Region"},{"pincode":"796751","office":"Zodin B.O","district":"LUNGLEI","state":"MIZORAM","circle":"North Eastern Circle","region":"North East - I Region"},{"pincode":"796751","office":"SUMASUMI","district":"LUNGLEI","state":"MIZORAM","circle":"North Eastern Circle","region":"North East - I Region"},{"pincode":"796081","office":"Thingdawl B.O","district":"KOLASIB","state":"MIZORAM","circle":"North Eastern Circle","region":"North East - I Region"},{"pincode":"796571","office":"Darzo B.O","district":"Hnahthial","state":"MIZORAM","circle":"North Eastern Circle","region":"North East - I Region"},{"pincode":"796571","office":"LUNGMAWI","district":"Hnahthial","state":"MIZORAM","circle":"North Eastern Circle","region":"North East - I Region"},{"pincode":"796070","office":"Mualvum B.O","district":"KOLASIB","state":"MIZORAM","circle":"North Eastern Circle","region":"North East - I Region"},{"pincode":"796310","office":"Chawngtlai B.O","district":"KHAWZAWL","state":"MIZORAM","circle":"North Eastern Circle","region":"North East - I Region"},{"pincode":"796081","office":"Bairabi B.O","district":"KOLASIB","state":"MIZORAM","circle":"North Eastern Circle","region":"North East - I Region"},{"pincode":"796005","office":"Thingdawlmelriat B.O","district":"AIZAWL","state":"MIZORAM","circle":"North Eastern Circle","region":"North East - I Region"},{"pincode":"796891","office":"Balhlakawn B.O","district":"LAWNGTLAI","state":"MIZORAM","circle":"North Eastern Circle","region":"North East - I Region"},{"pincode":"796891","office":"Kawlchaw W B.O","district":"LAWNGTLAI","state":"MIZORAM","circle":"North Eastern Circle","region":"North East - I Region"},{"pincode":"796891","office":"Paithar B.O","district":"LAWNGTLAI","state":"MIZORAM","circle":"North Eastern Circle","region":"North East - I Region"},{"pincode":"796891","office":"Tuithumhnar B.O","district":"LAWNGTLAI","state":"MIZORAM","circle":"North Eastern Circle","region":"North East - I Region"},{"pincode":"796891","office":"LONGPUIGHAT","district":"LAWNGTLAI","state":"MIZORAM","circle":"North Eastern Circle","region":"North East - I Region"},{"pincode":"796891","office":"DEVASORA","district":"LAWNGTLAI","state":"MIZORAM","circle":"North Eastern Circle","region":"North East - I Region"},{"pincode":"796891","office":"KAMTULI","district":"LAWNGTLAI","state":"MIZORAM","circle":"North Eastern Circle","region":"North East - I Region"},{"pincode":"796891","office":"MUALBU L","district":"LAWNGTLAI","state":"MIZORAM","circle":"North Eastern Circle","region":"North East - I Region"},{"pincode":"796891","office":"CHIKHURLUI","district":"LAWNGTLAI","state":"MIZORAM","circle":"North Eastern Circle","region":"North East - I Region"},{"pincode":"796701","office":"Buarpui B.O","district":"AIZAWL","state":"MIZORAM","circle":"North Eastern Circle","region":"North East - I Region"},{"pincode":"796701","office":"Hauruang B.O","district":"AIZAWL","state":"MIZORAM","circle":"North Eastern Circle","region":"North East - I Region"},{"pincode":"796701","office":"Hrangchalkawn B.O","district":"AIZAWL","state":"MIZORAM","circle":"North Eastern Circle","region":"North East - I Region"},{"pincode":"796701","office":"Lungchem B.O","district":"AIZAWL","state":"MIZORAM","circle":"North Eastern Circle","region":"North East - I Region"},{"pincode":"796701","office":"Thingfal B.O","district":"AIZAWL","state":"MIZORAM","circle":"North Eastern Circle","region":"North East - I Region"},{"pincode":"796701","office":"DENGSUR","district":"AIZAWL","state":"MIZORAM","circle":"North Eastern Circle","region":"North East - I Region"},{"pincode":"791701","office":"HLUMTE","district":"AIZAWL","state":"MIZORAM","circle":"North Eastern Circle","region":"North East - I Region"},{"pincode":"796701","office":"Belthei B.O","district":"AIZAWL","state":"MIZORAM","circle":"North Eastern Circle","region":"North East - I Region"},{"pincode":"796441","office":"Kawrtethawveng B.O","district":"AIZAWL","state":"MIZORAM","circle":"North Eastern Circle","region":"North East - I Region"},{"pincode":"796441","office":"N.Sabual B.O","district":"AIZAWL","state":"MIZORAM","circle":"North Eastern Circle","region":"North East - I Region"},{"pincode":"796441","office":"LUANGPAWL","district":"AIZAWL","state":"MIZORAM","circle":"North Eastern Circle","region":"North East - I Region"},{"pincode":"796291","office":"Hrianghmun B.O","district":"SAITUAL","state":"MIZORAM","circle":"North Eastern Circle","region":"North East - I Region"},{"pincode":"796290","office":"Ne Khawdungsei B.O","district":"SAITUAL","state":"MIZORAM","circle":"North Eastern Circle","region":"North East - I Region"},{"pincode":"796431","office":"Phuldungsei B.O","district":"MAMIT","state":"MIZORAM","circle":"North Eastern Circle","region":"North East - I Region"},{"pincode":"796431","office":"Silsury B.O","district":"MAMIT","state":"MIZORAM","circle":"North Eastern Circle","region":"North East - I Region"},{"pincode":"796431","office":"Tuipuibari B.O","district":"MAMIT","state":"MIZORAM","circle":"North Eastern Circle","region":"North East - I Region"},{"pincode":"796431","office":"ANDERMANIK","district":"MAMIT","state":"MIZORAM","circle":"North Eastern Circle","region":"North East - I Region"},{"pincode":"796501","office":"Darlung B.O","district":"MAMIT","state":"MIZORAM","circle":"North Eastern Circle","region":"North East - I Region"},{"pincode":"796320","office":"Dungtlang B.O","district":"CHAMPHAI","state":"MIZORAM","circle":"North Eastern Circle","region":"North East - I Region"},{"pincode":"796320","office":"THEKTE","district":"CHAMPHAI","state":"MIZORAM","circle":"North Eastern Circle","region":"North East - I Region"},{"pincode":"796320","office":"THEKPUI","district":"CHAMPHAI","state":"MIZORAM","circle":"North Eastern Circle","region":"North East - I Region"},{"pincode":"796320","office":"ZAWLSEI","district":"CHAMPHAI","state":"MIZORAM","circle":"North Eastern Circle","region":"North East - I Region"},{"pincode":"796901","office":"Tuipuiferry B.O","district":"LAWNGTLAI","state":"MIZORAM","circle":"North Eastern Circle","region":"North East - I Region"},{"pincode":"796901","office":"Lungtian B.O","district":"SAIHA","state":"MIZORAM","circle":"North Eastern Circle","region":"North East - I Region"},{"pincode":"796901","office":"Pangkhua B.O","district":"LAWNGTLAI","state":"MIZORAM","circle":"North Eastern Circle","region":"North East - I Region"},{"pincode":"796901","office":"Laki B.O","district":"SAIHA","state":"MIZORAM","circle":"North Eastern Circle","region":"North East - I Region"},{"pincode":"796901","office":"Lawngban B.O","district":"SAIHA","state":"MIZORAM","circle":"North Eastern Circle","region":"North East - I Region"},{"pincode":"796901","office":"CHHEIHHLU","district":"LAWNGTLAI","state":"MIZORAM","circle":"North Eastern Circle","region":"North East - I Region"},{"pincode":"796901","office":"MAWHRE","district":"LAWNGTLAI","state":"MIZORAM","circle":"North Eastern Circle","region":"North East - I Region"},{"pincode":"796901","office":"AHMYPI","district":"LAWNGTLAI","state":"MIZORAM","circle":"North Eastern Circle","region":"North East - I Region"},{"pincode":"796901","office":"MAILA","district":"LAWNGTLAI","state":"MIZORAM","circle":"North Eastern Circle","region":"North East - I Region"},{"pincode":"796410","office":"Mualkhang B.O","district":"KOLASIB","state":"MIZORAM","circle":"North Eastern Circle","region":"North East - I Region"},{"pincode":"796261","office":"Changzawl B.O","district":"SAITUAL","state":"MIZORAM","circle":"North Eastern Circle","region":"North East - I Region"},{"pincode":"796261","office":"N.E.Bualpui B.O","district":"SAITUAL","state":"MIZORAM","circle":"North Eastern Circle","region":"North East - I Region"},{"pincode":"796261","office":"N.Khawlek B.O","district":"SAITUAL","state":"MIZORAM","circle":"North Eastern Circle","region":"North East - I Region"},{"pincode":"796261","office":"Phullen B.O","district":"SAITUAL","state":"MIZORAM","circle":"North Eastern Circle","region":"North East - I Region"},{"pincode":"796261","office":"Ruallung B.O","district":"SAITUAL","state":"MIZORAM","circle":"North Eastern Circle","region":"North East - I Region"},{"pincode":"796261","office":"Saichal B.O","district":"SAITUAL","state":"MIZORAM","circle":"North Eastern Circle","region":"North East - I Region"},{"pincode":"796261","office":"Tualbung B.O","district":"SAITUAL","state":"MIZORAM","circle":"North Eastern Circle","region":"North East - I Region"},{"pincode":"796186","office":"Kanghmun S B.O","district":"SERCHHIP","state":"MIZORAM","circle":"North Eastern Circle","region":"North East - I Region"},{"pincode":"796181","office":"Keitum B.O","district":"SERCHHIP","state":"MIZORAM","circle":"North Eastern Circle","region":"North East - I Region"},{"pincode":"796181","office":"Lungpho B.O","district":"SERCHHIP","state":"MIZORAM","circle":"North Eastern Circle","region":"North East - I Region"},{"pincode":"796181","office":"Thinglian B.O","district":"SERCHHIP","state":"MIZORAM","circle":"North Eastern Circle","region":"North East - I Region"},{"pincode":"796181","office":"HRIANGTLANG","district":"SERCHHIP","state":"MIZORAM","circle":"North Eastern Circle","region":"North East - I Region"},{"pincode":"796161","office":"Hmuntha B.O","district":"SERCHHIP","state":"MIZORAM","circle":"North Eastern Circle","region":"North East - I Region"},{"pincode":"796161","office":"Khumtung B.O","district":"SERCHHIP","state":"MIZORAM","circle":"North Eastern Circle","region":"North East - I Region"},{"pincode":"796161","office":"Seling B.O","district":"AIZAWL","state":"MIZORAM","circle":"North Eastern Circle","region":"North East - I Region"},{"pincode":"796091","office":"Tuirial H.E.P B.O","district":"KOLASIB","state":"MIZORAM","circle":"North Eastern Circle","region":"North East - I Region"},{"pincode":"796009","office":"Chawlhhmun B.O","district":"AIZAWL","state":"MIZORAM","circle":"North Eastern Circle","region":"North East - I Region"},{"pincode":"796470","office":"Boraibazar B.O","district":"AIZAWL","state":"MIZORAM","circle":"North Eastern Circle","region":"North East - I Region"},{"pincode":"796017","office":"Khawruhlian B.O","district":"AIZAWL","state":"MIZORAM","circle":"North Eastern Circle","region":"North East - I Region"},{"pincode":"796017","office":"Sawleng B.O","district":"AIZAWL","state":"MIZORAM","circle":"North Eastern Circle","region":"North East - I Region"},{"pincode":"796691","office":"Pukpui B.O","district":"LUNGLEI","state":"MIZORAM","circle":"North Eastern Circle","region":"North East - I Region"},{"pincode":"796014","office":"Bawngkawn S.O","district":"AIZAWL","state":"MIZORAM","circle":"North Eastern Circle","region":"North East - I Region"},{"pincode":"796070","office":"Kawnpui S.O","district":"KOLASIB","state":"MIZORAM","circle":"North Eastern Circle","region":"North East - I Region"},{"pincode":"796310","office":"Khawzawl S.O","district":"KHAWZAWL","state":"MIZORAM","circle":"North Eastern Circle","region":"North East - I Region"},{"pincode":"796370","office":"Lungdar S.O","district":"SERCHHIP","state":"MIZORAM","circle":"North Eastern Circle","region":"North East - I Region"},{"pincode":"796004","office":"Mizoram University S.O","district":"AIZAWL","state":"MIZORAM","circle":"North Eastern Circle","region":"North East - I Region"},{"pincode":"796901","office":"Saiha S.O","district":"SAIHA","state":"MIZORAM","circle":"North Eastern Circle","region":"North East - I Region"},{"pincode":"796161","office":"Thingsulthliah S.O","district":"AIZAWL","state":"MIZORAM","circle":"North Eastern Circle","region":"North East - I Region"},{"pincode":"796190","office":"Phulpui B.O","district":"AIZAWL","state":"MIZORAM","circle":"North Eastern Circle","region":"North East - I Region"},{"pincode":"796190","office":"Sailam B.O","district":"AIZAWL","state":"MIZORAM","circle":"North Eastern Circle","region":"North East - I Region"},{"pincode":"796190","office":"Sateek B.O","district":"AIZAWL","state":"MIZORAM","circle":"North Eastern Circle","region":"North East - I Region"},{"pincode":"796321","office":"Hnahlan B.O","district":"CHAMPHAI","state":"MIZORAM","circle":"North Eastern Circle","region":"North East - I Region"},{"pincode":"796321","office":"Hruaikawn B.O","district":"CHAMPHAI","state":"MIZORAM","circle":"North Eastern Circle","region":"North East - I Region"},{"pincode":"796321","office":"Khuangleng B.O","district":"CHAMPHAI","state":"MIZORAM","circle":"North Eastern Circle","region":"North East - I Region"},{"pincode":"796321","office":"Mualkawi B.O","district":"CHAMPHAI","state":"MIZORAM","circle":"North Eastern Circle","region":"North East - I Region"},{"pincode":"796321","office":"N.Khawbung B.O","district":"CHAMPHAI","state":"MIZORAM","circle":"North Eastern Circle","region":"North East - I Region"},{"pincode":"796321","office":"BUANG","district":"CHAMPHAI","state":"MIZORAM","circle":"North Eastern Circle","region":"North East - I Region"},{"pincode":"796070","office":"Bukpui B.O","district":"KOLASIB","state":"MIZORAM","circle":"North Eastern Circle","region":"North East - I Region"},{"pincode":"796070","office":"Lungmuat B.O","district":"KOLASIB","state":"MIZORAM","circle":"North Eastern Circle","region":"North East - I Region"},{"pincode":"796070","office":"N.Chaltlang B.O","district":"KOLASIB","state":"MIZORAM","circle":"North Eastern Circle","region":"North East - I Region"},{"pincode":"796770","office":"Ajasora B.O","district":"AIZAWL","state":"MIZORAM","circle":"North Eastern Circle","region":"North East - I Region"},{"pincode":"796571","office":"Chawngtui B.O","district":"Hnahthial","state":"MIZORAM","circle":"North Eastern Circle","region":"North East - I Region"},{"pincode":"796571","office":"Cherhlun B.O","district":"Hnahthial","state":"MIZORAM","circle":"North Eastern Circle","region":"North East - I Region"},{"pincode":"796571","office":"Rawpui B.O","district":"Hnahthial","state":"MIZORAM","circle":"North Eastern Circle","region":"North East - I Region"},{"pincode":"796070","office":"Nisapui B.O","district":"KOLASIB","state":"MIZORAM","circle":"North Eastern Circle","region":"North East - I Region"},{"pincode":"796310","office":"Chhawrtui B.O","district":"KHAWZAWL","state":"MIZORAM","circle":"North Eastern Circle","region":"North East - I Region"},{"pincode":"796310","office":"Kawlkulh B.O","district":"KHAWZAWL","state":"MIZORAM","circle":"North Eastern Circle","region":"North East - I Region"},{"pincode":"796310","office":"Khawhai B.O","district":"KHAWZAWL","state":"MIZORAM","circle":"North Eastern Circle","region":"North East - I Region"},{"pincode":"796310","office":"N.Chalrang B.O","district":"KHAWZAWL","state":"MIZORAM","circle":"North Eastern Circle","region":"North East - I Region"},{"pincode":"796310","office":"Neihdawn B.O","district":"KHAWZAWL","state":"MIZORAM","circle":"North Eastern Circle","region":"North East - I Region"},{"pincode":"796310","office":"Vanchengpui B.O","district":"KHAWZAWL","state":"MIZORAM","circle":"North Eastern Circle","region":"North East - I Region"},{"pincode":"796081","office":"Suarhliap B.O","district":"MAMIT","state":"MIZORAM","circle":"North Eastern Circle","region":"North East - I Region"},{"pincode":"796081","office":"KANANTHAR","district":"KOLASIB","state":"MIZORAM","circle":"North Eastern Circle","region":"North East - I Region"},{"pincode":"796005","office":"Missionvengthlang B.O","district":"AIZAWL","state":"MIZORAM","circle":"North Eastern Circle","region":"North East - I Region"},{"pincode":"796005","office":"Muallungthu B.O","district":"AIZAWL","state":"MIZORAM","circle":"North Eastern Circle","region":"North East - I Region"},{"pincode":"796005","office":"New Secretariat Complex B.O","district":"AIZAWL","state":"MIZORAM","circle":"North Eastern Circle","region":"North East - I Region"},{"pincode":"796891","office":"New Jagnasury B.O","district":"LAWNGTLAI","state":"MIZORAM","circle":"North Eastern Circle","region":"North East - I Region"},{"pincode":"796891","office":"Parva B.O","district":"LAWNGTLAI","state":"MIZORAM","circle":"North Eastern Circle","region":"North East - I Region"},{"pincode":"796691","office":"Ralvawng B.O","district":"LUNGLEI","state":"MIZORAM","circle":"North Eastern Circle","region":"North East - I Region"},{"pincode":"796691","office":"Zohnuai B.O","district":"LUNGLEI","state":"MIZORAM","circle":"North Eastern Circle","region":"North East - I Region"},{"pincode":"791701","office":"S. LUNGDAI","district":"AIZAWL","state":"MIZORAM","circle":"North Eastern Circle","region":"North East - I Region"},{"pincode":"796701","office":"Lungrang S B.O","district":"AIZAWL","state":"MIZORAM","circle":"North Eastern Circle","region":"North East - I Region"},{"pincode":"796701","office":"Rualalung B.O","district":"AIZAWL","state":"MIZORAM","circle":"North Eastern Circle","region":"North East - I Region"},{"pincode":"796441","office":"Darlak B.O","district":"AIZAWL","state":"MIZORAM","circle":"North Eastern Circle","region":"North East - I Region"},{"pincode":"796441","office":"CHILUI","district":"AIZAWL","state":"MIZORAM","circle":"North Eastern Circle","region":"North East - I Region"},{"pincode":"796290","office":"Kawlbem B.O","district":"SAITUAL","state":"MIZORAM","circle":"North Eastern Circle","region":"North East - I Region"},{"pincode":"796431","office":"N.Chhippui B.O","district":"MAMIT","state":"MIZORAM","circle":"North Eastern Circle","region":"North East - I Region"},{"pincode":"796431","office":"TUIPUIBARI II","district":"MAMIT","state":"MIZORAM","circle":"North Eastern Circle","region":"North East - I Region"},{"pincode":"796501","office":"Rulpuihlim B.O","district":"MAMIT","state":"MIZORAM","circle":"North Eastern Circle","region":"North East - I Region"},{"pincode":"796501","office":"S.Sabual B.O","district":"MAMIT","state":"MIZORAM","circle":"North Eastern Circle","region":"North East - I Region"},{"pincode":"796501","office":"LUNGPHUN","district":"MAMIT","state":"MIZORAM","circle":"North Eastern Circle","region":"North East - I Region"},{"pincode":"796320","office":"Bungzung B.O","district":"CHAMPHAI","state":"MIZORAM","circle":"North Eastern Circle","region":"North East - I Region"},{"pincode":"796320","office":"Khuangthing B.O","district":"CHAMPHAI","state":"MIZORAM","circle":"North Eastern Circle","region":"North East - I Region"},{"pincode":"796320","office":"Sazep B.O","district":"CHAMPHAI","state":"MIZORAM","circle":"North Eastern Circle","region":"North East - I Region"},{"pincode":"796320","office":"Vangchhia B.O","district":"CHAMPHAI","state":"MIZORAM","circle":"North Eastern Circle","region":"North East - I Region"},{"pincode":"796901","office":"Bualpui ng B.O","district":"LAWNGTLAI","state":"MIZORAM","circle":"North Eastern Circle","region":"North East - I Region"},{"pincode":"796901","office":"Chhuarlung B.O","district":"SAIHA","state":"MIZORAM","circle":"North Eastern Circle","region":"North East - I Region"},{"pincode":"796901","office":"Lungpher S B.O","district":"LAWNGTLAI","state":"MIZORAM","circle":"North Eastern Circle","region":"North East - I Region"},{"pincode":"796901","office":"New Maubawk B.O","district":"SAIHA","state":"MIZORAM","circle":"North Eastern Circle","region":"North East - I Region"},{"pincode":"796901","office":"Theiva B.O","district":"SAIHA","state":"MIZORAM","circle":"North Eastern Circle","region":"North East - I Region"},{"pincode":"796901","office":"Khopai B.O","district":"SAIHA","state":"MIZORAM","circle":"North Eastern Circle","region":"North East - I Region"},{"pincode":"796901","office":"Vahai B.O","district":"SAIHA","state":"MIZORAM","circle":"North Eastern Circle","region":"North East - I Region"},{"pincode":"796901","office":"Zawngling B.O","district":"SAIHA","state":"MIZORAM","circle":"North Eastern Circle","region":"North East - I Region"},{"pincode":"796901","office":"VARTETKAI","district":"LAWNGTLAI","state":"MIZORAM","circle":"North Eastern Circle","region":"North East - I Region"},{"pincode":"796901","office":"MIPU","district":"LAWNGTLAI","state":"MIZORAM","circle":"North Eastern Circle","region":"North East - I Region"},{"pincode":"796410","office":"Rawpuichhip B.O","district":"MAMIT","state":"MIZORAM","circle":"North Eastern Circle","region":"North East - I Region"},{"pincode":"796261","office":"Keifang B.O","district":"SERCHHIP","state":"MIZORAM","circle":"North Eastern Circle","region":"North East - I Region"},{"pincode":"796261","office":"Lungpher N B.O","district":"SAITUAL","state":"MIZORAM","circle":"North Eastern Circle","region":"North East - I Region"},{"pincode":"796261","office":"Zawngin B.O","district":"SAITUAL","state":"MIZORAM","circle":"North Eastern Circle","region":"North East - I Region"},{"pincode":"796261","office":"DAIDO","district":"SERCHHIP","state":"MIZORAM","circle":"North Eastern Circle","region":"North East - I Region"},{"pincode":"796091","office":"N.Chawnpui B.O","district":"KOLASIB","state":"MIZORAM","circle":"North Eastern Circle","region":"North East - I Region"},{"pincode":"796101","office":"Saiphai B.O","district":"KOLASIB","state":"MIZORAM","circle":"North Eastern Circle","region":"North East - I Region"},{"pincode":"796009","office":"Govt. Complex B.O","district":"AIZAWL","state":"MIZORAM","circle":"North Eastern Circle","region":"North East - I Region"},{"pincode":"796009","office":"Luangmual B.O","district":"AIZAWL","state":"MIZORAM","circle":"North Eastern Circle","region":"North East - I Region"},{"pincode":"796470","office":"Momcherra B.O","district":"AIZAWL","state":"MIZORAM","circle":"North Eastern Circle","region":"North East - I Region"},{"pincode":"796691","office":"Haulawng B.O","district":"LUNGLEI","state":"MIZORAM","circle":"North Eastern Circle","region":"North East - I Region"},{"pincode":"796691","office":"Mualthuam N B.O","district":"LUNGLEI","state":"MIZORAM","circle":"North Eastern Circle","region":"North East - I Region"},{"pincode":"796186","office":"Ramlaitui B.O","district":"LUNGLEI","state":"MIZORAM","circle":"North Eastern Circle","region":"North East - I Region"},{"pincode":"796470","office":"Zawlnuam BO","district":"AIZAWL","state":"MIZORAM","circle":"North Eastern Circle","region":"North East - I Region"},{"pincode":"796091","office":"Bilkhawthlir S.O","district":"KOLASIB","state":"MIZORAM","circle":"North Eastern Circle","region":"North East - I Region"},{"pincode":"796751","office":"Tlabung S.O","district":"LUNGLEI","state":"MIZORAM","circle":"North Eastern Circle","region":"North East - I Region"},{"pincode":"796571","office":"Hnahthial S.O","district":"Hnahthial","state":"MIZORAM","circle":"North Eastern Circle","region":"North East - I Region"},{"pincode":"796891","office":"Lawngtlai S.O","district":"LAWNGTLAI","state":"MIZORAM","circle":"North Eastern Circle","region":"North East - I Region"},{"pincode":"796290","office":"Ngopa S.O","district":"SAITUAL","state":"MIZORAM","circle":"North Eastern Circle","region":"North East - I Region"},{"pincode":"796261","office":"Saitual S.O","district":"SAITUAL","state":"MIZORAM","circle":"North Eastern Circle","region":"North East - I Region"},{"pincode":"796186","office":"Thenzawl S.O","district":"SERCHHIP","state":"MIZORAM","circle":"North Eastern Circle","region":"North East - I Region"},{"pincode":"796184","office":"N. Vanlaiphai S.O","district":"SERCHHIP","state":"MIZORAM","circle":"North Eastern Circle","region":"North East - I Region"},{"pincode":"796190","office":"Lamchhip B.O","district":"AIZAWL","state":"MIZORAM","circle":"North Eastern Circle","region":"North East - I Region"},{"pincode":"796246","office":"LUNGSEL","district":"AIZAWL","state":"MIZORAM","circle":"North Eastern Circle","region":"North East - I Region"},{"pincode":"796091","office":"Buhchang B.O","district":"KOLASIB","state":"MIZORAM","circle":"North Eastern Circle","region":"North East - I Region"},{"pincode":"796701","office":"Sachan B.O","district":"LUNGLEI","state":"MIZORAM","circle":"North Eastern Circle","region":"North East - I Region"},{"pincode":"796321","office":"Hmunhmeltha B.O","district":"CHAMPHAI","state":"MIZORAM","circle":"North Eastern Circle","region":"North East - I Region"},{"pincode":"796321","office":"Khawnuam B.O","district":"CHAMPHAI","state":"MIZORAM","circle":"North Eastern Circle","region":"North East - I Region"},{"pincode":"796321","office":"Leisenzo B.O","district":"CHAMPHAI","state":"MIZORAM","circle":"North Eastern Circle","region":"North East - I Region"},{"pincode":"796321","office":"Lungphunlian B.O","district":"CHAMPHAI","state":"MIZORAM","circle":"North Eastern Circle","region":"North East - I Region"},{"pincode":"796321","office":"Murlen B.O","district":"CHAMPHAI","state":"MIZORAM","circle":"North Eastern Circle","region":"North East - I Region"},{"pincode":"796321","office":"Tualcheng B.O","district":"CHAMPHAI","state":"MIZORAM","circle":"North Eastern Circle","region":"North East - I Region"},{"pincode":"796321","office":"Vapar B.O","district":"CHAMPHAI","state":"MIZORAM","circle":"North Eastern Circle","region":"North East - I Region"},{"pincode":"796770","office":"Borapansury B.O","district":"AIZAWL","state":"MIZORAM","circle":"North Eastern Circle","region":"North East - I Region"},{"pincode":"796111","office":"Lungsum B.O","district":"AIZAWL","state":"MIZORAM","circle":"North Eastern Circle","region":"North East - I Region"},{"pincode":"796111","office":"New Vervek B.O","district":"AIZAWL","state":"MIZORAM","circle":"North Eastern Circle","region":"North East - I Region"},{"pincode":"796111","office":"Palsang B.O","district":"AIZAWL","state":"MIZORAM","circle":"North Eastern Circle","region":"North East - I Region"},{"pincode":"796111","office":"Sailutar B.O","district":"AIZAWL","state":"MIZORAM","circle":"North Eastern Circle","region":"North East - I Region"},{"pincode":"796111","office":"Zohmun B.O","district":"AIZAWL","state":"MIZORAM","circle":"North Eastern Circle","region":"North East - I Region"},{"pincode":"796751","office":"Diblibagh B.O","district":"LUNGLEI","state":"MIZORAM","circle":"North Eastern Circle","region":"North East - I Region"},{"pincode":"796751","office":"MAUZAM","district":"LUNGLEI","state":"MIZORAM","circle":"North Eastern Circle","region":"North East - I Region"},{"pincode":"796571","office":"Pangzawl B.O","district":"Hnahthial","state":"MIZORAM","circle":"North Eastern Circle","region":"North East - I Region"},{"pincode":"796571","office":"S.Vanlaiphai B.O","district":"Hnahthial","state":"MIZORAM","circle":"North Eastern Circle","region":"North East - I Region"},{"pincode":"796571","office":"S. PHAILENG","district":"Hnahthial","state":"MIZORAM","circle":"North Eastern Circle","region":"North East - I Region"},{"pincode":"796310","office":"Dulte B.O","district":"KHAWZAWL","state":"MIZORAM","circle":"North Eastern Circle","region":"North East - I Region"},{"pincode":"796310","office":"Tualpui B.O","district":"KHAWZAWL","state":"MIZORAM","circle":"North Eastern Circle","region":"North East - I Region"},{"pincode":"796310","office":"Tualte B.O","district":"KHAWZAWL","state":"MIZORAM","circle":"North Eastern Circle","region":"North East - I Region"},{"pincode":"796081","office":"Chuhvel B.O","district":"MAMIT","state":"MIZORAM","circle":"North Eastern Circle","region":"North East - I Region"},{"pincode":"796081","office":"Saikhawthlir B.O","district":"KOLASIB","state":"MIZORAM","circle":"North Eastern Circle","region":"North East - I Region"},{"pincode":"796005","office":"Mualmawi B.O","district":"AIZAWL","state":"MIZORAM","circle":"North Eastern Circle","region":"North East - I Region"},{"pincode":"796005","office":"Sabualkawn B.O","district":"AIZAWL","state":"MIZORAM","circle":"North Eastern Circle","region":"North East - I Region"},{"pincode":"796891","office":"Ngengpuikai B.O","district":"LAWNGTLAI","state":"MIZORAM","circle":"North Eastern Circle","region":"North East - I Region"},{"pincode":"796891","office":"Rulkual B.O","district":"LAWNGTLAI","state":"MIZORAM","circle":"North Eastern Circle","region":"North East - I Region"},{"pincode":"796891","office":"Vaseitlang B.O","district":"LAWNGTLAI","state":"MIZORAM","circle":"North Eastern Circle","region":"North East - I Region"},{"pincode":"796891","office":"MAINABABSORA","district":"LAWNGTLAI","state":"MIZORAM","circle":"North Eastern Circle","region":"North East - I Region"},{"pincode":"796891","office":"RENGSHAYA","district":"LAWNGTLAI","state":"MIZORAM","circle":"North Eastern Circle","region":"North East - I Region"},{"pincode":"796891","office":"BONDUKBANSORA","district":"LAWNGTLAI","state":"MIZORAM","circle":"North Eastern Circle","region":"North East - I Region"},{"pincode":"796891","office":"DAMLUI","district":"LAWNGTLAI","state":"MIZORAM","circle":"North Eastern Circle","region":"North East - I Region"},{"pincode":"796891","office":"NGHALIMLUI","district":"LAWNGTLAI","state":"MIZORAM","circle":"North Eastern Circle","region":"North East - I Region"},{"pincode":"796891","office":"DUMZAU I","district":"LAWNGTLAI","state":"MIZORAM","circle":"North Eastern Circle","region":"North East - I Region"},{"pincode":"796370","office":"Tlangpui B.O","district":"SERCHHIP","state":"MIZORAM","circle":"North Eastern Circle","region":"North East - I Region"},{"pincode":"796701","office":"Theiriat B.O","district":"AIZAWL","state":"MIZORAM","circle":"North Eastern Circle","region":"North East - I Region"},{"pincode":"796701","office":"Thualthu B.O","district":"AIZAWL","state":"MIZORAM","circle":"North Eastern Circle","region":"North East - I Region"},{"pincode":"796701","office":"Thuampui B.O","district":"AIZAWL","state":"MIZORAM","circle":"North Eastern Circle","region":"North East - I Region"},{"pincode":"796701","office":"Bunghmun B.O","district":"AIZAWL","state":"MIZORAM","circle":"North Eastern Circle","region":"North East - I Region"},{"pincode":"796701","office":"BUNGTLANG WEST","district":"AIZAWL","state":"MIZORAM","circle":"North Eastern Circle","region":"North East - I Region"},{"pincode":"796751","office":"Tuichawng B.O","district":"LUNGLEI","state":"MIZORAM","circle":"North Eastern Circle","region":"North East - I Region"},{"pincode":"796470","office":"Rengdil B.O","district":"AIZAWL","state":"MIZORAM","circle":"North Eastern Circle","region":"North East - I Region"},{"pincode":"796441","office":"Tuidam B.O","district":"AIZAWL","state":"MIZORAM","circle":"North Eastern Circle","region":"North East - I Region"},{"pincode":"796441","office":"WEST BUNGHMUN","district":"AIZAWL","state":"MIZORAM","circle":"North Eastern Circle","region":"North East - I Region"},{"pincode":"796441","office":"N. TLANGKHANG","district":"AIZAWL","state":"MIZORAM","circle":"North Eastern Circle","region":"North East - I Region"},{"pincode":"796290","office":"Khawkawn B.O","district":"SAITUAL","state":"MIZORAM","circle":"North Eastern Circle","region":"North East - I Region"},{"pincode":"796290","office":"Lamzawl B.O","district":"SAITUAL","state":"MIZORAM","circle":"North Eastern Circle","region":"North East - I Region"},{"pincode":"796291","office":"Teikhang B.O","district":"SAITUAL","state":"MIZORAM","circle":"North Eastern Circle","region":"North East - I Region"},{"pincode":"796321","office":"Vaikhawtlang B.O","district":"CHAMPHAI","state":"MIZORAM","circle":"North Eastern Circle","region":"North East - I Region"},{"pincode":"796431","office":"Damparengpui B.O","district":"MAMIT","state":"MIZORAM","circle":"North Eastern Circle","region":"North East - I Region"},{"pincode":"796431","office":"Lallen B.O","district":"MAMIT","state":"MIZORAM","circle":"North Eastern Circle","region":"North East - I Region"},{"pincode":"796431","office":"ZOPUI","district":"MAMIT","state":"MIZORAM","circle":"North Eastern Circle","region":"North East - I Region"},{"pincode":"796501","office":"Khawrihnim B.O","district":"MAMIT","state":"MIZORAM","circle":"North Eastern Circle","region":"North East - I Region"},{"pincode":"796320","office":"Samthang B.O","district":"CHAMPHAI","state":"MIZORAM","circle":"North Eastern Circle","region":"North East - I Region"},{"pincode":"796320","office":"Vaphai B.O","district":"CHAMPHAI","state":"MIZORAM","circle":"North Eastern Circle","region":"North East - I Region"},{"pincode":"796320","office":"EAST CHAWNGTUI","district":"CHAMPHAI","state":"MIZORAM","circle":"North Eastern Circle","region":"North East - I Region"},{"pincode":"796901","office":"Chapui B.O","district":"SAIHA","state":"MIZORAM","circle":"North Eastern Circle","region":"North East - I Region"},{"pincode":"796901","office":"Fungkah B.O","district":"LAWNGTLAI","state":"MIZORAM","circle":"North Eastern Circle","region":"North East - I Region"},{"pincode":"796901","office":"Sangau B.O","district":"LAWNGTLAI","state":"MIZORAM","circle":"North Eastern Circle","region":"North East - I Region"},{"pincode":"796901","office":"Tuipang B.O","district":"SAIHA","state":"MIZORAM","circle":"North Eastern Circle","region":"North East - I Region"},{"pincode":"796901","office":"SENTETFIANG","district":"LAWNGTLAI","state":"MIZORAM","circle":"North Eastern Circle","region":"North East - I Region"},{"pincode":"796261","office":"Mualpheng B.O","district":"SAITUAL","state":"MIZORAM","circle":"North Eastern Circle","region":"North East - I Region"},{"pincode":"796261","office":"Pawlrang B.O","district":"SAITUAL","state":"MIZORAM","circle":"North Eastern Circle","region":"North East - I Region"},{"pincode":"796261","office":"Vanbawng B.O","district":"SAITUAL","state":"MIZORAM","circle":"North Eastern Circle","region":"North East - I Region"},{"pincode":"796181","office":"Bungtlang N B.O","district":"SERCHHIP","state":"MIZORAM","circle":"North Eastern Circle","region":"North East - I Region"},{"pincode":"796184","office":"Chekawn B.O","district":"SERCHHIP","state":"MIZORAM","circle":"North Eastern Circle","region":"North East - I Region"},{"pincode":"796181","office":"NGENTIANG","district":"SERCHHIP","state":"MIZORAM","circle":"North Eastern Circle","region":"North East - I Region"},{"pincode":"796186","office":"NEIHLOH","district":"LUNGLEI","state":"MIZORAM","circle":"North Eastern Circle","region":"North East - I Region"},{"pincode":"796091","office":"Saipum B.O","district":"KOLASIB","state":"MIZORAM","circle":"North Eastern Circle","region":"North East - I Region"},{"pincode":"796009","office":"Rangvamual B.O","district":"AIZAWL","state":"MIZORAM","circle":"North Eastern Circle","region":"North East - I Region"},{"pincode":"796009","office":"Tanhril B.O","district":"AIZAWL","state":"MIZORAM","circle":"North Eastern Circle","region":"North East - I Region"},{"pincode":"796009","office":"ZONUAM","district":"AIZAWL","state":"MIZORAM","circle":"North Eastern Circle","region":"North East - I Region"},{"pincode":"796470","office":"Kanhmunbazar B.O","district":"AIZAWL","state":"MIZORAM","circle":"North Eastern Circle","region":"North East - I Region"},{"pincode":"796470","office":"Lushaicherra B.O","district":"AIZAWL","state":"MIZORAM","circle":"North Eastern Circle","region":"North East - I Region"},{"pincode":"796017","office":"Phaileng E B.O","district":"AIZAWL","state":"MIZORAM","circle":"North Eastern Circle","region":"North East - I Region"},{"pincode":"796017","office":"Sesawng B.O","district":"AIZAWL","state":"MIZORAM","circle":"North Eastern Circle","region":"North East - I Region"},{"pincode":"796017","office":"Tuirial Airfield B.O","district":"AIZAWL","state":"MIZORAM","circle":"North Eastern Circle","region":"North East - I Region"},{"pincode":"796691","office":"Hnahchang B.O","district":"LUNGLEI","state":"MIZORAM","circle":"North Eastern Circle","region":"North East - I Region"},{"pincode":"796190","office":"Aibawk S.O","district":"AIZAWL","state":"MIZORAM","circle":"North Eastern Circle","region":"North East - I Region"},{"pincode":"796005","office":"Kulikawn S.O","district":"AIZAWL","state":"MIZORAM","circle":"North Eastern Circle","region":"North East - I Region"},{"pincode":"796501","office":"Reiek S.O","district":"MAMIT","state":"MIZORAM","circle":"North Eastern Circle","region":"North East - I Region"},{"pincode":"796006","office":"NEW SECRETARIAT","district":"AIZAWL","state":"MIZORAM","circle":"North Eastern Circle","region":"North East - I Region"},{"pincode":"796190","office":"Samlukhai B.O","district":"AIZAWL","state":"MIZORAM","circle":"North Eastern Circle","region":"North East - I Region"},{"pincode":"796190","office":"Tachhip B.O","district":"AIZAWL","state":"MIZORAM","circle":"North Eastern Circle","region":"North East - I Region"},{"pincode":"796190","office":"Thiak B.O","district":"AIZAWL","state":"MIZORAM","circle":"North Eastern Circle","region":"North East - I Region"},{"pincode":"796190","office":"Sialsuk B.O","district":"AIZAWL","state":"MIZORAM","circle":"North Eastern Circle","region":"North East - I Region"},{"pincode":"796321","office":"Kelkang B.O","district":"CHAMPHAI","state":"MIZORAM","circle":"North Eastern Circle","region":"North East - I Region"},{"pincode":"796321","office":"Tlangsam B.O","district":"CHAMPHAI","state":"MIZORAM","circle":"North Eastern Circle","region":"North East - I Region"},{"pincode":"796770","office":"Saizawh B.O","district":"AIZAWL","state":"MIZORAM","circle":"North Eastern Circle","region":"North East - I Region"},{"pincode":"796751","office":"Tiperaghat B.O","district":"LUNGLEI","state":"MIZORAM","circle":"North Eastern Circle","region":"North East - I Region"},{"pincode":"796751","office":"KALAPANI","district":"LUNGLEI","state":"MIZORAM","circle":"North Eastern Circle","region":"North East - I Region"},{"pincode":"796571","office":"Leite B.O","district":"Hnahthial","state":"MIZORAM","circle":"North Eastern Circle","region":"North East - I Region"},{"pincode":"796571","office":"Tarpho B.O","district":"Hnahthial","state":"MIZORAM","circle":"North Eastern Circle","region":"North East - I Region"},{"pincode":"796571","office":"Thingsai B.O","district":"Hnahthial","state":"MIZORAM","circle":"North Eastern Circle","region":"North East - I Region"},{"pincode":"796070","office":"Hortoki B.O","district":"KOLASIB","state":"MIZORAM","circle":"North Eastern Circle","region":"North East - I Region"},{"pincode":"796070","office":"N.Hlimen B.O","district":"KOLASIB","state":"MIZORAM","circle":"North Eastern Circle","region":"North East - I Region"},{"pincode":"796070","office":"Thingthelh B.O","district":"KOLASIB","state":"MIZORAM","circle":"North Eastern Circle","region":"North East - I Region"},{"pincode":"796081","office":"DILZAU H","district":"KOLASIB","state":"MIZORAM","circle":"North Eastern Circle","region":"North East - I Region"},{"pincode":"796310","office":"Lungtan B.O","district":"KHAWZAWL","state":"MIZORAM","circle":"North Eastern Circle","region":"North East - I Region"},{"pincode":"796310","office":"Puilo B.O","district":"KHAWZAWL","state":"MIZORAM","circle":"North Eastern Circle","region":"North East - I Region"},{"pincode":"796310","office":"NGAIZAWL B.O","district":"KHAWZAWL","state":"MIZORAM","circle":"North Eastern Circle","region":"North East - I Region"},{"pincode":"796081","office":"RENGTEKAWN","district":"KOLASIB","state":"MIZORAM","circle":"North Eastern Circle","region":"North East - I Region"},{"pincode":"796005","office":"Maubawk B.O","district":"AIZAWL","state":"MIZORAM","circle":"North Eastern Circle","region":"North East - I Region"},{"pincode":"796005","office":"N.Lungleng B.O","district":"AIZAWL","state":"MIZORAM","circle":"North Eastern Circle","region":"North East - I Region"},{"pincode":"796891","office":"Chamdur B.O","district":"LAWNGTLAI","state":"MIZORAM","circle":"North Eastern Circle","region":"North East - I Region"},{"pincode":"796891","office":"Diltlang B.O","district":"LAWNGTLAI","state":"MIZORAM","circle":"North Eastern Circle","region":"North East - I Region"},{"pincode":"796891","office":"Mualbukawn B.O","district":"LAWNGTLAI","state":"MIZORAM","circle":"North Eastern Circle","region":"North East - I Region"},{"pincode":"796891","office":"Tuisentlang B.O","district":"LAWNGTLAI","state":"MIZORAM","circle":"North Eastern Circle","region":"North East - I Region"},{"pincode":"796891","office":"Vathuampui B.O","district":"LAWNGTLAI","state":"MIZORAM","circle":"North Eastern Circle","region":"North East - I Region"},{"pincode":"796891","office":"KHAWMAWI","district":"LAWNGTLAI","state":"MIZORAM","circle":"North Eastern Circle","region":"North East - I Region"},{"pincode":"796891","office":"KUKURDULEYA","district":"LAWNGTLAI","state":"MIZORAM","circle":"North Eastern Circle","region":"North East - I Region"},{"pincode":"796370","office":"Leng B.O","district":"SERCHHIP","state":"MIZORAM","circle":"North Eastern Circle","region":"North East - I Region"},{"pincode":"796370","office":"Sailulak B.O","district":"SERCHHIP","state":"MIZORAM","circle":"North Eastern Circle","region":"North East - I Region"},{"pincode":"796701","office":"Changpui B.O","district":"AIZAWL","state":"MIZORAM","circle":"North Eastern Circle","region":"North East - I Region"},{"pincode":"796701","office":"Mualcheng S B.O","district":"AIZAWL","state":"MIZORAM","circle":"North Eastern Circle","region":"North East - I Region"},{"pincode":"796701","office":"Sertlangpui B.O","district":"AIZAWL","state":"MIZORAM","circle":"North Eastern Circle","region":"North East - I Region"},{"pincode":"796701","office":"Vaisam B.O","district":"AIZAWL","state":"MIZORAM","circle":"North Eastern Circle","region":"North East - I Region"},{"pincode":"796701","office":"Lungsen B.O","district":"AIZAWL","state":"MIZORAM","circle":"North Eastern Circle","region":"North East - I Region"},{"pincode":"791701","office":"CHITHAR","district":"AIZAWL","state":"MIZORAM","circle":"North Eastern Circle","region":"North East - I Region"},{"pincode":"791701","office":"THANGTE","district":"AIZAWL","state":"MIZORAM","circle":"North Eastern Circle","region":"North East - I Region"},{"pincode":"796701","office":"Rangte B.O","district":"AIZAWL","state":"MIZORAM","circle":"North Eastern Circle","region":"North East - I Region"},{"pincode":"796701","office":"Zawlpui B.O","district":"AIZAWL","state":"MIZORAM","circle":"North Eastern Circle","region":"North East - I Region"},{"pincode":"796431","office":"Parvatui B.O","district":"MAMIT","state":"MIZORAM","circle":"North Eastern Circle","region":"North East - I Region"},{"pincode":"796431","office":"Pukzing B.O","district":"MAMIT","state":"MIZORAM","circle":"North Eastern Circle","region":"North East - I Region"},{"pincode":"796431","office":"Saithah B.O","district":"MAMIT","state":"MIZORAM","circle":"North Eastern Circle","region":"North East - I Region"},{"pincode":"796431","office":"HNAHVA","district":"MAMIT","state":"MIZORAM","circle":"North Eastern Circle","region":"North East - I Region"},{"pincode":"796501","office":"Lungdar W B.O","district":"MAMIT","state":"MIZORAM","circle":"North Eastern Circle","region":"North East - I Region"},{"pincode":"796320","office":"Farkawn B.O","district":"CHAMPHAI","state":"MIZORAM","circle":"North Eastern Circle","region":"North East - I Region"},{"pincode":"796320","office":"Leithum B.O","district":"CHAMPHAI","state":"MIZORAM","circle":"North Eastern Circle","region":"North East - I Region"},{"pincode":"796901","office":"Chakhang B.O","district":"SAIHA","state":"MIZORAM","circle":"North Eastern Circle","region":"North East - I Region"},{"pincode":"796901","office":"Rawmibawk B.O","district":"LAWNGTLAI","state":"MIZORAM","circle":"North Eastern Circle","region":"North East - I Region"},{"pincode":"796901","office":"SUPHA","district":"LAWNGTLAI","state":"MIZORAM","circle":"North Eastern Circle","region":"North East - I Region"},{"pincode":"796901","office":"LUNGPUK","district":"LAWNGTLAI","state":"MIZORAM","circle":"North Eastern Circle","region":"North East - I Region"},{"pincode":"796410","office":"Ptc Lungverh B.O","district":"AIZAWL","state":"MIZORAM","circle":"North Eastern Circle","region":"North East - I Region"},{"pincode":"796310","office":"Aiduzawl B.O","district":"KHAWZAWL","state":"MIZORAM","circle":"North Eastern Circle","region":"North East - I Region"},{"pincode":"796261","office":"Khawlian B.O","district":"SAITUAL","state":"MIZORAM","circle":"North Eastern Circle","region":"North East - I Region"},{"pincode":"796261","office":"Luangpawn B.O","district":"SAITUAL","state":"MIZORAM","circle":"North Eastern Circle","region":"North East - I Region"},{"pincode":"796261","office":"Sihfa B.O","district":"SAITUAL","state":"MIZORAM","circle":"North Eastern Circle","region":"North East - I Region"},{"pincode":"796261","office":"Suangpuilawn B.O","district":"SAITUAL","state":"MIZORAM","circle":"North Eastern Circle","region":"North East - I Region"},{"pincode":"796186","office":"Chhipphir B.O","district":"SERCHHIP","state":"MIZORAM","circle":"North Eastern Circle","region":"North East - I Region"},{"pincode":"796184","office":"Lungchhuan B.O","district":"SERCHHIP","state":"MIZORAM","circle":"North Eastern Circle","region":"North East - I Region"},{"pincode":"796184","office":"Lungkawlh B.O","district":"SERCHHIP","state":"MIZORAM","circle":"North Eastern Circle","region":"North East - I Region"},{"pincode":"796186","office":"Zote S B.O","district":"SERCHHIP","state":"MIZORAM","circle":"North Eastern Circle","region":"North East - I Region"},{"pincode":"796571","office":"Bualpui H B.O","district":"Hnahthial","state":"MIZORAM","circle":"North Eastern Circle","region":"North East - I Region"},{"pincode":"796161","office":"Hualtu B.O","district":"SERCHHIP","state":"MIZORAM","circle":"North Eastern Circle","region":"North East - I Region"},{"pincode":"796161","office":"Khawbel B.O","district":"SERCHHIP","state":"MIZORAM","circle":"North Eastern Circle","region":"North East - I Region"},{"pincode":"796009","office":"Sakawrtuichhun B.O","district":"AIZAWL","state":"MIZORAM","circle":"North Eastern Circle","region":"North East - I Region"},{"pincode":"796017","office":"Cti Sesawng B.O","district":"AIZAWL","state":"MIZORAM","circle":"North Eastern Circle","region":"North East - I Region"},{"pincode":"796008","office":"Armed Veng S.O","district":"AIZAWL","state":"MIZORAM","circle":"North Eastern Circle","region":"North East - I Region"},{"pincode":"796007","office":"Chandmary S.O","district":"AIZAWL","state":"MIZORAM","circle":"North Eastern Circle","region":"North East - I Region"},{"pincode":"796770","office":"Chawngte S.O","district":"AIZAWL","state":"MIZORAM","circle":"North Eastern Circle","region":"North East - I Region"},{"pincode":"796111","office":"Darlawn S.O","district":"AIZAWL","state":"MIZORAM","circle":"North Eastern Circle","region":"North East - I Region"},{"pincode":"796012","office":"Ramhlun S.O","district":"AIZAWL","state":"MIZORAM","circle":"North Eastern Circle","region":"North East - I Region"},{"pincode":"796009","office":"Vaivakawn S.O","district":"AIZAWL","state":"MIZORAM","circle":"North Eastern Circle","region":"North East - I Region"},{"pincode":"796691","office":"Zotlang S.O","district":"LUNGLEI","state":"MIZORAM","circle":"North Eastern Circle","region":"North East - I Region"},{"pincode":"796291","office":"MIMBUNG S.O","district":"AIZAWL","state":"MIZORAM","circle":"North Eastern Circle","region":"North East - I Region"},{"pincode":"796190","office":"Hmuifang B.O","district":"AIZAWL","state":"MIZORAM","circle":"North Eastern Circle","region":"North East - I Region"},{"pincode":"796190","office":"Sumsuih B.O","district":"AIZAWL","state":"MIZORAM","circle":"North Eastern Circle","region":"North East - I Region"},{"pincode":"796015","office":"Lungdai B.O","district":"KOLASIB","state":"MIZORAM","circle":"North Eastern Circle","region":"North East - I Region"},{"pincode":"796015","office":"Zanlawn B.O","district":"KOLASIB","state":"MIZORAM","circle":"North Eastern Circle","region":"North East - I Region"},{"pincode":"796015","office":"Sihphir B.O","district":"AIZAWL","state":"MIZORAM","circle":"North Eastern Circle","region":"North East - I Region"},{"pincode":"796701","office":"Darngawn W B.O","district":"LUNGLEI","state":"MIZORAM","circle":"North Eastern Circle","region":"North East - I Region"},{"pincode":"796710","office":"Laisawral B.O","district":"LUNGLEI","state":"MIZORAM","circle":"North Eastern Circle","region":"North East - I Region"},{"pincode":"796321","office":"Khuangphah B.O","district":"CHAMPHAI","state":"MIZORAM","circle":"North Eastern Circle","region":"North East - I Region"},{"pincode":"796321","office":"ZOKHAWTHAR B.O","district":"CHAMPHAI","state":"MIZORAM","circle":"North Eastern Circle","region":"North East - I Region"},{"pincode":"796007","office":"Tuithiang B.O","district":"AIZAWL","state":"MIZORAM","circle":"North Eastern Circle","region":"North East - I Region"},{"pincode":"796770","office":"NGHARUM","district":"AIZAWL","state":"MIZORAM","circle":"North Eastern Circle","region":"North East - I Region"},{"pincode":"796770","office":"SONGRASURY","district":"AIZAWL","state":"MIZORAM","circle":"North Eastern Circle","region":"North East - I Region"},{"pincode":"796770","office":"JOGNASURY","district":"AIZAWL","state":"MIZORAM","circle":"North Eastern Circle","region":"North East - I Region"},{"pincode":"796111","office":"Mauchar B.O","district":"AIZAWL","state":"MIZORAM","circle":"North Eastern Circle","region":"North East - I Region"},{"pincode":"796111","office":"N.Serzawl B.O","district":"AIZAWL","state":"MIZORAM","circle":"North Eastern Circle","region":"North East - I Region"},{"pincode":"796111","office":"Ratu B.O","district":"AIZAWL","state":"MIZORAM","circle":"North Eastern Circle","region":"North East - I Region"},{"pincode":"796111","office":"Thingsat B.O","district":"AIZAWL","state":"MIZORAM","circle":"North Eastern Circle","region":"North East - I Region"},{"pincode":"796111","office":"SUNHLUCHHIP","district":"AIZAWL","state":"MIZORAM","circle":"North Eastern Circle","region":"North East - I Region"},{"pincode":"796751","office":"Nunsury B.O","district":"LUNGLEI","state":"MIZORAM","circle":"North Eastern Circle","region":"North East - I Region"},{"pincode":"796751","office":"Puankhai B.O","district":"LUNGLEI","state":"MIZORAM","circle":"North Eastern Circle","region":"North East - I Region"},{"pincode":"796751","office":"DEVASURI","district":"LUNGLEI","state":"MIZORAM","circle":"North Eastern Circle","region":"North East - I Region"},{"pincode":"796571","office":"Muallianpui B.O","district":"Hnahthial","state":"MIZORAM","circle":"North Eastern Circle","region":"North East - I Region"},{"pincode":"796571","office":"Thiltlang B.O","district":"Hnahthial","state":"MIZORAM","circle":"North Eastern Circle","region":"North East - I Region"},{"pincode":"796571","office":"Tuipui D B.O","district":"Hnahthial","state":"MIZORAM","circle":"North Eastern Circle","region":"North East - I Region"},{"pincode":"796070","office":"Bualpui B.O","district":"KOLASIB","state":"MIZORAM","circle":"North Eastern Circle","region":"North East - I Region"},{"pincode":"796070","office":"Serkhan B.O","district":"KOLASIB","state":"MIZORAM","circle":"North Eastern Circle","region":"North East - I Region"},{"pincode":"796310","office":"Chalrang B.O","district":"KHAWZAWL","state":"MIZORAM","circle":"North Eastern Circle","region":"North East - I Region"},{"pincode":"796310","office":"Riangtlei B.O","district":"KHAWZAWL","state":"MIZORAM","circle":"North Eastern Circle","region":"North East - I Region"},{"pincode":"796310","office":"Rullam B.O","district":"SERCHHIP","state":"MIZORAM","circle":"North Eastern Circle","region":"North East - I Region"},{"pincode":"796310","office":"Vangtlang B.O","district":"KHAWZAWL","state":"MIZORAM","circle":"North Eastern Circle","region":"North East - I Region"},{"pincode":"796081","office":"Diakkawn B.O","district":"KOLASIB","state":"MIZORAM","circle":"North Eastern Circle","region":"North East - I Region"},{"pincode":"796081","office":"SIHTHIANG","district":"KOLASIB","state":"MIZORAM","circle":"North Eastern Circle","region":"North East - I Region"},{"pincode":"796081","office":"PANGBALKAWN","district":"KOLASIB","state":"MIZORAM","circle":"North Eastern Circle","region":"North East - I Region"},{"pincode":"796005","office":"Hualngohmun B.O","district":"AIZAWL","state":"MIZORAM","circle":"North Eastern Circle","region":"North East - I Region"},{"pincode":"796005","office":"Kelsih B.O","district":"AIZAWL","state":"MIZORAM","circle":"North Eastern Circle","region":"North East - I Region"},{"pincode":"796005","office":"Khawchhete B.O","district":"AIZAWL","state":"MIZORAM","circle":"North Eastern Circle","region":"North East - I Region"},{"pincode":"796005","office":"Mualpui B.O","district":"AIZAWL","state":"MIZORAM","circle":"North Eastern Circle","region":"North East - I Region"},{"pincode":"796005","office":"Shlimen B.O","district":"AIZAWL","state":"MIZORAM","circle":"North Eastern Circle","region":"North East - I Region"},{"pincode":"796891","office":"Bungtlang S B.O","district":"LAWNGTLAI","state":"MIZORAM","circle":"North Eastern Circle","region":"North East - I Region"},{"pincode":"796891","office":"Mampui B.O","district":"LAWNGTLAI","state":"MIZORAM","circle":"North Eastern Circle","region":"North East - I Region"},{"pincode":"796891","office":"Sabualtlang B.O","district":"LAWNGTLAI","state":"MIZORAM","circle":"North Eastern Circle","region":"North East - I Region"},{"pincode":"796891","office":"TUICHAWNGTLANG","district":"LAWNGTLAI","state":"MIZORAM","circle":"North Eastern Circle","region":"North East - I Region"},{"pincode":"796421","office":"Hmunpui B.O","district":"MAMIT","state":"MIZORAM","circle":"North Eastern Circle","region":"North East - I Region"},{"pincode":"796370","office":"Biate B.O","district":"KHAWZAWL","state":"MIZORAM","circle":"North Eastern Circle","region":"North East - I Region"},{"pincode":"796370","office":"Mualcheng B.O","district":"SERCHHIP","state":"MIZORAM","circle":"North Eastern Circle","region":"North East - I Region"},{"pincode":"796370","office":"Sialhawk B.O","district":"SERCHHIP","state":"MIZORAM","circle":"North Eastern Circle","region":"North East - I Region"},{"pincode":"796701","office":"Bualte B.O","district":"AIZAWL","state":"MIZORAM","circle":"North Eastern Circle","region":"North East - I Region"},{"pincode":"796701","office":"Sazaikawn B.O","district":"AIZAWL","state":"MIZORAM","circle":"North Eastern Circle","region":"North East - I Region"},{"pincode":"796701","office":"Tawipui N B.O","district":"AIZAWL","state":"MIZORAM","circle":"North Eastern Circle","region":"North East - I Region"},{"pincode":"796701","office":"Tawipui S B.O","district":"AIZAWL","state":"MIZORAM","circle":"North Eastern Circle","region":"North East - I Region"},{"pincode":"796701","office":"Thenhlum B.O","district":"AIZAWL","state":"MIZORAM","circle":"North Eastern Circle","region":"North East - I Region"},{"pincode":"796701","office":"Vanhne B.O","district":"AIZAWL","state":"MIZORAM","circle":"North Eastern Circle","region":"North East - I Region"},{"pincode":"796701","office":"Zobawk B.O","district":"AIZAWL","state":"MIZORAM","circle":"North Eastern Circle","region":"North East - I Region"},{"pincode":"796701","office":"S. KHAWLEK","district":"AIZAWL","state":"MIZORAM","circle":"North Eastern Circle","region":"North East - I Region"},{"pincode":"796701","office":"KAWLHAWK","district":"AIZAWL","state":"MIZORAM","circle":"North Eastern Circle","region":"North East - I Region"},{"pincode":"796701","office":"SERTE","district":"AIZAWL","state":"MIZORAM","circle":"North Eastern Circle","region":"North East - I Region"},{"pincode":"796701","office":"BOLIA","district":"AIZAWL","state":"MIZORAM","circle":"North Eastern Circle","region":"North East - I Region"},{"pincode":"796701","office":"Phairuangkai B.O","district":"AIZAWL","state":"MIZORAM","circle":"North Eastern Circle","region":"North East - I Region"},{"pincode":"796441","office":"Dampui B.O","district":"AIZAWL","state":"MIZORAM","circle":"North Eastern Circle","region":"North East - I Region"},{"pincode":"796441","office":"West Bunghmun B.O","district":"AIZAWL","state":"MIZORAM","circle":"North Eastern Circle","region":"North East - I Region"},{"pincode":"796291","office":"Selam B.O","district":"CHAMPHAI","state":"MIZORAM","circle":"North Eastern Circle","region":"North East - I Region"},{"pincode":"796431","office":"Marpara B.O","district":"MAMIT","state":"MIZORAM","circle":"North Eastern Circle","region":"North East - I Region"},{"pincode":"796441","office":"RAJIVNAGAR","district":"AIZAWL","state":"MIZORAM","circle":"North Eastern Circle","region":"North East - I Region"},{"pincode":"796501","office":"Ailawng B.O","district":"MAMIT","state":"MIZORAM","circle":"North Eastern Circle","region":"North East - I Region"},{"pincode":"796501","office":"Kanghmun B.O","district":"MAMIT","state":"MIZORAM","circle":"North Eastern Circle","region":"North East - I Region"},{"pincode":"796320","office":"Muallung B.O","district":"CHAMPHAI","state":"MIZORAM","circle":"North Eastern Circle","region":"North East - I Region"},{"pincode":"796320","office":"Vanzau B.O","district":"CHAMPHAI","state":"MIZORAM","circle":"North Eastern Circle","region":"North East - I Region"},{"pincode":"796901","office":"Lungbun B.O","district":"SAIHA","state":"MIZORAM","circle":"North Eastern Circle","region":"North East - I Region"},{"pincode":"796901","office":"Niawhtlang B.O","district":"SAIHA","state":"MIZORAM","circle":"North Eastern Circle","region":"North East - I Region"},{"pincode":"796901","office":"Siata B.O","district":"SAIHA","state":"MIZORAM","circle":"North Eastern Circle","region":"North East - I Region"},{"pincode":"796901","office":"Vawmbuk B.O","district":"LAWNGTLAI","state":"MIZORAM","circle":"North Eastern Circle","region":"North East - I Region"},{"pincode":"796901","office":"Tongkolong B.O","district":"SAIHA","state":"MIZORAM","circle":"North Eastern Circle","region":"North East - I Region"},{"pincode":"796901","office":"Latawh B.O","district":"SAIHA","state":"MIZORAM","circle":"North Eastern Circle","region":"North East - I Region"},{"pincode":"796901","office":"Cheural B.O","district":"SAIHA","state":"MIZORAM","circle":"North Eastern Circle","region":"North East - I Region"},{"pincode":"796901","office":"Serkawr B.O","district":"SAIHA","state":"MIZORAM","circle":"North Eastern Circle","region":"North East - I Region"},{"pincode":"796901","office":"Tuisih B.O","district":"SAIHA","state":"MIZORAM","circle":"North Eastern Circle","region":"North East - I Region"},{"pincode":"796901","office":"Phura B.O","district":"SAIHA","state":"MIZORAM","circle":"North Eastern Circle","region":"North East - I Region"},{"pincode":"796410","office":"Dapchhuah B.O","district":"MAMIT","state":"MIZORAM","circle":"North Eastern Circle","region":"North East - I Region"},{"pincode":"796261","office":"Buhban B.O","district":"SAITUAL","state":"MIZORAM","circle":"North Eastern Circle","region":"North East - I Region"},{"pincode":"796321","office":"Dilkawn B.O","district":"CHAMPHAI","state":"MIZORAM","circle":"North Eastern Circle","region":"North East - I Region"},{"pincode":"796261","office":"Maite B.O","district":"SAITUAL","state":"MIZORAM","circle":"North Eastern Circle","region":"North East - I Region"},{"pincode":"796261","office":"Phuaibuang B.O","district":"SAITUAL","state":"MIZORAM","circle":"North Eastern Circle","region":"North East - I Region"},{"pincode":"796261","office":"LENCHIM","district":"SERCHHIP","state":"MIZORAM","circle":"North Eastern Circle","region":"North East - I Region"},{"pincode":"796181","office":"Chhiahtlang B.O","district":"SERCHHIP","state":"MIZORAM","circle":"North Eastern Circle","region":"North East - I Region"},{"pincode":"796181","office":"Khawlailung B.O","district":"SERCHHIP","state":"MIZORAM","circle":"North Eastern Circle","region":"North East - I Region"},{"pincode":"796181","office":"New Serchhip B.O","district":"SERCHHIP","state":"MIZORAM","circle":"North Eastern Circle","region":"North East - I Region"},{"pincode":"796181","office":"Sialhau B.O","district":"SERCHHIP","state":"MIZORAM","circle":"North Eastern Circle","region":"North East - I Region"},{"pincode":"796184","office":"Sialsir B.O","district":"SERCHHIP","state":"MIZORAM","circle":"North Eastern Circle","region":"North East - I Region"},{"pincode":"796181","office":"HMUNZAWL","district":"SERCHHIP","state":"MIZORAM","circle":"North Eastern Circle","region":"North East - I Region"},{"pincode":"796161","office":"Baktawng B.O","district":"SERCHHIP","state":"MIZORAM","circle":"North Eastern Circle","region":"North East - I Region"},{"pincode":"796161","office":"Chhingchhip B.O","district":"SERCHHIP","state":"MIZORAM","circle":"North Eastern Circle","region":"North East - I Region"},{"pincode":"796161","office":"Thentlang B.O","district":"SERCHHIP","state":"MIZORAM","circle":"North Eastern Circle","region":"North East - I Region"},{"pincode":"796161","office":"Tlungvel B.O","district":"SERCHHIP","state":"MIZORAM","circle":"North Eastern Circle","region":"North East - I Region"},{"pincode":"796101","office":"Phainuam B.O","district":"KOLASIB","state":"MIZORAM","circle":"North Eastern Circle","region":"North East - I Region"},{"pincode":"796470","office":"Hriphaw B.O","district":"AIZAWL","state":"MIZORAM","circle":"North Eastern Circle","region":"North East - I Region"},{"pincode":"796470","office":"Zamuang B.O","district":"AIZAWL","state":"MIZORAM","circle":"North Eastern Circle","region":"North East - I Region"},{"pincode":"796017","office":"Kepran B.O","district":"SAITUAL","state":"MIZORAM","circle":"North Eastern Circle","region":"North East - I Region"},{"pincode":"796017","office":"Khanpui B.O","district":"SAITUAL","state":"MIZORAM","circle":"North Eastern Circle","region":"North East - I Region"},{"pincode":"796017","office":"Zuangtui B.O","district":"AIZAWL","state":"MIZORAM","circle":"North Eastern Circle","region":"North East - I Region"},{"pincode":"796001","office":"Aizawl H.O","district":"AIZAWL","state":"MIZORAM","circle":"North Eastern Circle","region":"North East - I Region"},{"pincode":"796321","office":"Champhai S.O","district":"CHAMPHAI","state":"MIZORAM","circle":"North Eastern Circle","region":"North East - I Region"},{"pincode":"796081","office":"Kolasib S.O","district":"KOLASIB","state":"MIZORAM","circle":"North Eastern Circle","region":"North East - I Region"},{"pincode":"796421","office":"Lengpui Airport S.O","district":"AIZAWL","state":"MIZORAM","circle":"North Eastern Circle","region":"North East - I Region"},{"pincode":"796701","office":"Lunglei M.D.G","district":"AIZAWL","state":"MIZORAM","circle":"North Eastern Circle","region":"North East - I Region"},{"pincode":"796441","office":"Mamit S.O","district":"AIZAWL","state":"MIZORAM","circle":"North Eastern Circle","region":"North East - I Region"},{"pincode":"796431","office":"Phaileng S.O","district":"MAMIT","state":"MIZORAM","circle":"North Eastern Circle","region":"North East - I Region"},{"pincode":"796320","office":"S.Khawbung S.O","district":"CHAMPHAI","state":"MIZORAM","circle":"North Eastern Circle","region":"North East - I Region"},{"pincode":"796410","office":"Sairang S.O","district":"AIZAWL","state":"MIZORAM","circle":"North Eastern Circle","region":"North East - I Region"},{"pincode":"796181","office":"Serchhip S.O","district":"SERCHHIP","state":"MIZORAM","circle":"North Eastern Circle","region":"North East - I Region"},{"pincode":"796101","office":"Vairengte S.O","district":"KOLASIB","state":"MIZORAM","circle":"North Eastern Circle","region":"North East - I Region"},{"pincode":"796017","office":"Zemabawk S.O","district":"AIZAWL","state":"MIZORAM","circle":"North Eastern Circle","region":"North East - I Region"},{"pincode":"796015","office":"Durtlang SO","district":"AIZAWL","state":"MIZORAM","circle":"North Eastern Circle","region":"North East - I Region"},{"pincode":"796470","office":"Kawrthah S.O","district":"AIZAWL","state":"MIZORAM","circle":"North Eastern Circle","region":"North East - I Region"}]