[{"pincode":"523261","office":"Kolalapudi B.O","district":"NA","state":"NA","circle":"Andhra Pradesh Circle","region":"Vijayawada Region"},{"pincode":"521250","office":"ALINAKHIPALEM","district":"NA","state":"NA","circle":"Andhra Pradesh Circle","region":"Vijayawada Region"},{"pincode":"811315","office":"Karma BO","district":"NA","state":"NA","circle":"Bihar Circle","region":"East Region Bhagalpur"},{"pincode":"811315","office":"M Nagar BO","district":"NA","state":"NA","circle":"Bihar Circle","region":"East Region Bhagalpur"},{"pincode":"811106","office":"SONBARSHA","district":"NA","state":"NA","circle":"Bihar Circle","region":"East Region Bhagalpur"},{"pincode":"805108","office":"Bali BO","district":"NA","state":"NA","circle":"Bihar Circle","region":"East Region Bhagalpur"},{"pincode":"494450","office":"Gudra B.O","district":"NA","state":"NA","circle":"Chattisgarh Circle","region":"NA"},{"pincode":"494450","office":"Idwada B.O","district":"NA","state":"NA","circle":"Chattisgarh Circle","region":"NA"},{"pincode":"494450","office":"Mukram B.O","district":"NA","state":"NA","circle":"Chattisgarh Circle","region":"NA"},{"pincode":"494450","office":"Damaram B.O","district":"NA","state":"NA","circle":"Chattisgarh Circle","region":"NA"},{"pincode":"494450","office":"Talmendri B.O","district":"NA","state":"NA","circle":"Chattisgarh Circle","region":"NA"},{"pincode":"494450","office":"Tadopot B.O","district":"NA","state":"NA","circle":"Chattisgarh Circle","region":"NA"},{"pincode":"494450","office":"Markapal B.O","district":"NA","state":"NA","circle":"Chattisgarh Circle","region":"NA"},{"pincode":"494450","office":"Pitetugali B.O","district":"NA","state":"NA","circle":"Chattisgarh Circle","region":"NA"},{"pincode":"494450","office":"Hakwa B.O","district":"NA","state":"NA","circle":"Chattisgarh Circle","region":"NA"},{"pincode":"494450","office":"Okenar B.O","district":"NA","state":"NA","circle":"Chattisgarh Circle","region":"NA"},{"pincode":"494450","office":"Porrodwaya B.O","district":"NA","state":"NA","circle":"Chattisgarh Circle","region":"NA"},{"pincode":"494450","office":"Jabbe B.O","district":"NA","state":"NA","circle":"Chattisgarh Circle","region":"NA"},{"pincode":"494450","office":"Karkawada B.O","district":"NA","state":"NA","circle":"Chattisgarh Circle","region":"NA"},{"pincode":"494450","office":"Gartul B.O","district":"NA","state":"NA","circle":"Chattisgarh Circle","region":"NA"},{"pincode":"494450","office":"Erpagutta B.O","district":"NA","state":"NA","circle":"Chattisgarh Circle","region":"NA"},{"pincode":"494446","office":"Annaram B.O","district":"NA","state":"NA","circle":"Chattisgarh Circle","region":"NA"},{"pincode":"494444","office":"Turrenar B.O","district":"NA","state":"NA","circle":"Chattisgarh Circle","region":"NA"},{"pincode":"494444","office":"Nendra B.O","district":"NA","state":"NA","circle":"Chattisgarh Circle","region":"NA"},{"pincode":"494444","office":"Kanwadganv B.O","district":"NA","state":"NA","circle":"Chattisgarh Circle","region":"NA"},{"pincode":"494111","office":"Gumodhi B.O","district":"NA","state":"NA","circle":"Chattisgarh Circle","region":"NA"},{"pincode":"494111","office":"Pariya B.O","district":"NA","state":"NA","circle":"Chattisgarh Circle","region":"NA"},{"pincode":"494111","office":"Kerlapenda B.O","district":"NA","state":"NA","circle":"Chattisgarh Circle","region":"NA"},{"pincode":"494111","office":"Duled B.O","district":"NA","state":"NA","circle":"Chattisgarh Circle","region":"NA"},{"pincode":"494111","office":"Chhotekedwal B.O","district":"NA","state":"NA","circle":"Chattisgarh Circle","region":"NA"},{"pincode":"494441","office":"Tunder B.O","district":"NA","state":"NA","circle":"Chattisgarh Circle","region":"NA"},{"pincode":"494114","office":"Palachalma B.O","district":"NA","state":"NA","circle":"Chattisgarh Circle","region":"NA"},{"pincode":"494114","office":"Palamadgu B.O","district":"NA","state":"NA","circle":"Chattisgarh Circle","region":"NA"},{"pincode":"494114","office":"Gangler B.O","district":"NA","state":"NA","circle":"Chattisgarh Circle","region":"NA"},{"pincode":"494114","office":"Balengtong B.O","district":"NA","state":"NA","circle":"Chattisgarh Circle","region":"NA"},{"pincode":"494114","office":"Mulakisoli B.O","district":"NA","state":"NA","circle":"Chattisgarh Circle","region":"NA"},{"pincode":"494010","office":"Erwar B.O","district":"NA","state":"NA","circle":"Chattisgarh Circle","region":"NA"},{"pincode":"494448","office":"Bandeparre B.O","district":"NA","state":"NA","circle":"Chattisgarh Circle","region":"NA"},{"pincode":"494448","office":"Kachlaram B.O","district":"NA","state":"NA","circle":"Chattisgarh Circle","region":"NA"},{"pincode":"534320","office":"Seshammacheruvu B.O","district":"NA","state":"NA","circle":"Andhra Pradesh Circle","region":"Vijayawada Region"},{"pincode":"521340","office":"Chatakai","district":"NA","state":"NA","circle":"Andhra Pradesh Circle","region":"Vijayawada Region"},{"pincode":"855115","office":"Dohar B.O.","district":"NA","state":"NA","circle":"Bihar Circle","region":"East Region Bhagalpur"},{"pincode":"813103","office":"Chatrapal","district":"NA","state":"NA","circle":"Bihar Circle","region":"East Region Bhagalpur"},{"pincode":"813210","office":"Badi Ibrahimpur","district":"NA","state":"NA","circle":"Bihar Circle","region":"East Region Bhagalpur"},{"pincode":"825405","office":"Pindarkon","district":"NA","state":"NA","circle":"Jharkhand Circle","region":"DivReportingCircle"},{"pincode":"583221","office":"Hampi Power House B.O","district":"NA","state":"NA","circle":"Karnataka Circle","region":"North Karnataka Region"},{"pincode":"494111","office":"Chhote Gadam B.O","district":"NA","state":"NA","circle":"Chattisgarh Circle","region":"NA"},{"pincode":"494111","office":"Chhote Lakhapal B.O","district":"NA","state":"NA","circle":"Chattisgarh Circle","region":"NA"},{"pincode":"494111","office":"Puspalli B.O","district":"NA","state":"NA","circle":"Chattisgarh Circle","region":"NA"},{"pincode":"494442","office":"Topar B.O","district":"NA","state":"NA","circle":"Chattisgarh Circle","region":"NA"},{"pincode":"494442","office":"Metawada B.O","district":"NA","state":"NA","circle":"Chattisgarh Circle","region":"NA"},{"pincode":"494115","office":"Chitalnar B.O","district":"NA","state":"NA","circle":"Chattisgarh Circle","region":"NA"},{"pincode":"494115","office":"Palem B.O","district":"NA","state":"NA","circle":"Chattisgarh Circle","region":"NA"},{"pincode":"494665","office":"Enhoor B.O","district":"NA","state":"NA","circle":"Chattisgarh Circle","region":"NA"},{"pincode":"494665","office":"Kastura B.O","district":"NA","state":"NA","circle":"Chattisgarh Circle","region":"NA"},{"pincode":"494665","office":"Gattakaal B.O","district":"NA","state":"NA","circle":"Chattisgarh Circle","region":"NA"},{"pincode":"494665","office":"Maanjhikurusbodi B.O","district":"NA","state":"NA","circle":"Chattisgarh Circle","region":"NA"},{"pincode":"494777","office":"Uliya B.O","district":"NA","state":"NA","circle":"Chattisgarh Circle","region":"NA"},{"pincode":"494777","office":"Pakurkal B.O","district":"NA","state":"NA","circle":"Chattisgarh Circle","region":"NA"},{"pincode":"494777","office":"Kodhur B.O","district":"NA","state":"NA","circle":"Chattisgarh Circle","region":"NA"},{"pincode":"494669","office":"Bhurka B.O","district":"NA","state":"NA","circle":"Chattisgarh Circle","region":"NA"},{"pincode":"494669","office":"Bhejar B.O","district":"NA","state":"NA","circle":"Chattisgarh Circle","region":"NA"},{"pincode":"494669","office":"Tumrisur B.O","district":"NA","state":"NA","circle":"Chattisgarh Circle","region":"NA"},{"pincode":"494771","office":"Kuli B.O","district":"NA","state":"NA","circle":"Chattisgarh Circle","region":"NA"},{"pincode":"494771","office":"Budhandand B.O","district":"NA","state":"NA","circle":"Chattisgarh Circle","region":"NA"},{"pincode":"494226","office":"Madagaon","district":"NA","state":"NA","circle":"Chattisgarh Circle","region":"DivReportingCircle"},{"pincode":"494226","office":"Sukurpal","district":"NA","state":"NA","circle":"Chattisgarh Circle","region":"DivReportingCircle"},{"pincode":"494226","office":"Bhagdewa","district":"NA","state":"NA","circle":"Chattisgarh Circle","region":"DivReportingCircle"},{"pincode":"494226","office":"Bolbola","district":"NA","state":"NA","circle":"Chattisgarh Circle","region":"DivReportingCircle"},{"pincode":"494670","office":"Upertonaka B.O","district":"NA","state":"NA","circle":"Chattisgarh Circle","region":"NA"},{"pincode":"494336","office":"Golkumhada B.O","district":"NA","state":"NA","circle":"Chattisgarh Circle","region":"NA"},{"pincode":"494230","office":"Bertanar B.O","district":"NA","state":"NA","circle":"Chattisgarh Circle","region":"NA"},{"pincode":"494230","office":"Budhakhursai B.O","district":"NA","state":"NA","circle":"Chattisgarh Circle","region":"NA"},{"pincode":"494230","office":"Bodagaon B.O","district":"NA","state":"NA","circle":"Chattisgarh Circle","region":"NA"},{"pincode":"494230","office":"Maankot B.O","district":"NA","state":"NA","circle":"Chattisgarh Circle","region":"NA"},{"pincode":"494335","office":"Saaranda B.O","district":"NA","state":"NA","circle":"Chattisgarh Circle","region":"NA"},{"pincode":"494220","office":"Mulnaar","district":"NA","state":"NA","circle":"Chattisgarh Circle","region":"DivReportingCircle"},{"pincode":"494220","office":"Jodenga","district":"NA","state":"NA","circle":"Chattisgarh Circle","region":"DivReportingCircle"},{"pincode":"494220","office":"Tekapal","district":"NA","state":"NA","circle":"Chattisgarh Circle","region":"DivReportingCircle"},{"pincode":"494662","office":"Amgaon","district":"NA","state":"NA","circle":"Chattisgarh Circle","region":"DivReportingCircle"},{"pincode":"494662","office":"Sulenga","district":"NA","state":"NA","circle":"Chattisgarh Circle","region":"DivReportingCircle"},{"pincode":"494662","office":"Pidiyakot","district":"NA","state":"NA","circle":"Chattisgarh Circle","region":"DivReportingCircle"},{"pincode":"494662","office":"Jhara B.O","district":"NA","state":"NA","circle":"Chattisgarh Circle","region":"NA"},{"pincode":"494662","office":"Temrugaon B.O","district":"NA","state":"NA","circle":"Chattisgarh Circle","region":"NA"},{"pincode":"494662","office":"Raynar B.O","district":"NA","state":"NA","circle":"Chattisgarh Circle","region":"NA"},{"pincode":"494661","office":"Borpal","district":"NA","state":"NA","circle":"Chattisgarh Circle","region":"DivReportingCircle"},{"pincode":"494661","office":"Khadkagaon (B) B.O","district":"NA","state":"NA","circle":"Chattisgarh Circle","region":"NA"},{"pincode":"494661","office":"Telanga B.O","district":"NA","state":"NA","circle":"Chattisgarh Circle","region":"NA"},{"pincode":"494661","office":"Ghotiya B.O","district":"NA","state":"NA","circle":"Chattisgarh Circle","region":"NA"},{"pincode":"491229","office":"Medha","district":"NA","state":"NA","circle":"Chattisgarh Circle","region":"NA"},{"pincode":"496001","office":"KALMI BO","district":"NA","state":"NA","circle":"Chattisgarh Circle","region":"DivReportingCircle"},{"pincode":"193101","office":"Court Complex B.O","district":"NA","state":"NA","circle":"Jammu Kashmir Circle","region":"Srinagar HQ Region"},{"pincode":"492009","office":"Raipur RS B.O","district":"NA","state":"NA","circle":"Chattisgarh Circle","region":"DivReportingCircle"},{"pincode":"493101","office":"OTGAN BO","district":"NA","state":"NA","circle":"Chattisgarh Circle","region":"NA"},{"pincode":"176314","office":"Panjoh","district":"NA","state":"NA","circle":"Himachal Pradesh Circle","region":"DivReportingCircle"},{"pincode":"416549","office":"Konal Katta Colony BO","district":"NA","state":"NA","circle":"Maharashtra Circle","region":"Goa-Panaji Region"},{"pincode":"421302","office":"Zidake B.O","district":"NA","state":"NA","circle":"Maharashtra Circle","region":"Navi Mumbai Region"},{"pincode":"443304","office":"Mohana Bk B.O","district":"NA","state":"NA","circle":"Maharashtra Circle","region":"Nagpur Region"},{"pincode":"688523","office":"PONNITTUSSERY","district":"NA","state":"NA","circle":"Kerala Circle","region":"Kochi Region"},{"pincode":"796005","office":"ZORAM MEDICAL COLLEGE BO","district":"NA","state":"NA","circle":"North Eastern Circle","region":"North East - I Region"},{"pincode":"412101","office":"Cod Dehu Road","district":"NA","state":"NA","circle":"Maharashtra Circle","region":"Pune Region"},{"pincode":"327603","office":"Naugama B.O","district":"NA","state":"NA","circle":"Rajasthan Circle","region":"Ajmer Region"},{"pincode":"343041","office":"Pathmeda BO","district":"NA","state":"NA","circle":"Rajasthan Circle","region":"Jodhpur Region"},{"pincode":"261201","office":"Bhithmani B.O","district":"NA","state":"NA","circle":"Uttar Pradesh Circle","region":"Lucknow  HQ Region"},{"pincode":"262308","office":"Sunpahar BO","district":"NA","state":"NA","circle":"Uttarakhand Circle","region":"NA"},{"pincode":"262547","office":"Garbyang B.O","district":"NA","state":"NA","circle":"Uttarakhand Circle","region":"NA"},{"pincode":"274308","office":"Dharampur B.O","district":"NA","state":"NA","circle":"Uttar Pradesh Circle","region":"Gorakhpur Region"},{"pincode":"222101","office":"Bangaondih B.O","district":"NA","state":"NA","circle":"Uttar Pradesh Circle","region":"Prayagraj Regional Office"},{"pincode":"222101","office":"Bhelara B.O","district":"NA","state":"NA","circle":"Uttar Pradesh Circle","region":"Prayagraj Regional Office"},{"pincode":"222101","office":"Rupaipur B.O","district":"NA","state":"NA","circle":"Uttar Pradesh Circle","region":"Prayagraj Regional Office"},{"pincode":"228172","office":"Bangawadeeh B.O","district":"NA","state":"NA","circle":"Uttar Pradesh Circle","region":"Prayagraj Regional Office"},{"pincode":"228172","office":"Harpur B.O","district":"NA","state":"NA","circle":"Uttar Pradesh Circle","region":"Prayagraj Regional Office"},{"pincode":"621714","office":"Sirukadambur B.O.","district":"NA","state":"NA","circle":"Tamilnadu Circle","region":"Central Region Trichirapalli"},{"pincode":"462116","office":"Nodal Delivery Centre Shahpura Bhopal","district":"NA","state":"NA","circle":"Madhya Pradesh Circle","region":"DivReportingCircle"},{"pincode":"462034","office":"Neelbad S.O","district":"NA","state":"NA","circle":"Madhya Pradesh Circle","region":"DivReportingCircle"},{"pincode":"473106","office":"Fatehgarh S.O","district":"NA","state":"NA","circle":"Madhya Pradesh Circle","region":"NA"},{"pincode":"400201","office":"NDC Kandivali EAST","district":"NA","state":"NA","circle":"Maharashtra Circle","region":"Mumbai Region"},{"pincode":"400160","office":"NDC JOGESHWARI EAST","district":"NA","state":"NA","circle":"Maharashtra Circle","region":"Mumbai Region"},{"pincode":"400113","office":"Delisle Road PO","district":"NA","state":"NA","circle":"Maharashtra Circle","region":"Mumbai Region"},{"pincode":"411078","office":"NDC Pimpri PF","district":"NA","state":"NA","circle":"Maharashtra Circle","region":"Pune Region"},{"pincode":"795160","office":"Tousem SO","district":"NA","state":"NA","circle":"North Eastern Circle","region":"North East - II Region"},{"pincode":"495002","office":"NDC Bilaspur","district":"NA","state":"NA","circle":"Chattisgarh Circle","region":"DivReportingCircle"},{"pincode":"132035","office":"Padha SO","district":"NA","state":"NA","circle":"Haryana Circle","region":"DivReportingCircle"},{"pincode":"201319","office":"NDC NEPZ","district":"NA","state":"NA","circle":"Uttar Pradesh Circle","region":"NA"},{"pincode":"201320","office":"NDC Sec-1 Greater Noida","district":"NA","state":"NA","circle":"Uttar Pradesh Circle","region":"NA"},{"pincode":"226010","office":"Gomti Nagar Extension SO Lucknow","district":"NA","state":"NA","circle":"Uttar Pradesh Circle","region":"Lucknow  HQ Region"},{"pincode":"733139","office":"Fulbari S.O","district":"NA","state":"NA","circle":"West Bengal Circle","region":"North Bengal Region"},{"pincode":"203131","office":"Khurja MDG","district":"NA","state":"NA","circle":"Uttar Pradesh Circle","region":"Agra Region"},{"pincode":"250103","office":"I E Partapur Ext","district":"NA","state":"NA","circle":"Uttar Pradesh Circle","region":"Bareilly Region"},{"pincode":"532184","office":"NDC Srikakulam","district":"NA","state":"NA","circle":"Andhra Pradesh Circle","region":"Visakhapatnam Region"},{"pincode":"721659","office":"Rasikachak B.O.","district":"NA","state":"NA","circle":"West Bengal Circle","region":"South Bengal Region"},{"pincode":"504314","office":"GADIGUDA SO","district":"NA","state":"NA","circle":"Telangana Circle","region":"Hyderabad Region"},{"pincode":"504300","office":"BEJJUR SO","district":"NA","state":"NA","circle":"Telangana Circle","region":"Hyderabad Region"},{"pincode":"500934","office":"NDC Banjarahills","district":"NA","state":"NA","circle":"Telangana Circle","region":"Hyderabad City Region"},{"pincode":"500931","office":"NDC Ibrahim Bagh Lines","district":"NA","state":"NA","circle":"Telangana Circle","region":"Hyderabad City Region"},{"pincode":"500901","office":"NDC HYDERABAD GPO","district":"NA","state":"NA","circle":"Telangana Circle","region":"Hyderabad City Region"},{"pincode":"500955","office":"NDC IDA Jeedimetla","district":"NA","state":"NA","circle":"Telangana Circle","region":"Hyderabad City Region"},{"pincode":"500915","office":"NDC Trimulgherry","district":"NA","state":"NA","circle":"Telangana Circle","region":"Hyderabad City Region"},{"pincode":"524228","office":"B.C. Colony BO","district":"NA","state":"NA","circle":"Andhra Pradesh Circle","region":"Vijayawada Region"},{"pincode":"805121","office":"Phulwan BO","district":"NA","state":"NA","circle":"Bihar Circle","region":"East Region Bhagalpur"},{"pincode":"805124","office":"Kabla Kharant BO","district":"NA","state":"NA","circle":"Bihar Circle","region":"East Region Bhagalpur"},{"pincode":"844125","office":"Sisauni Prabodhi","district":"NA","state":"NA","circle":"Bihar Circle","region":"DivReportingCircle"},{"pincode":"494447","office":"Badesunkanpalli B.O","district":"NA","state":"NA","circle":"Chattisgarh Circle","region":"NA"},{"pincode":"494447","office":"Pedautlapalli B.O","district":"NA","state":"NA","circle":"Chattisgarh Circle","region":"NA"},{"pincode":"494447","office":"Kaurgatta B.O","district":"NA","state":"NA","circle":"Chattisgarh Circle","region":"NA"},{"pincode":"494450","office":"Hingmeta B.O","district":"NA","state":"NA","circle":"Chattisgarh Circle","region":"NA"},{"pincode":"494450","office":"Majjimendrari B.O","district":"NA","state":"NA","circle":"Chattisgarh Circle","region":"NA"},{"pincode":"494450","office":"Muchler B.O","district":"NA","state":"NA","circle":"Chattisgarh Circle","region":"NA"},{"pincode":"494450","office":"Kartur B.O","district":"NA","state":"NA","circle":"Chattisgarh Circle","region":"NA"},{"pincode":"494450","office":"Kotmeta B.O","district":"NA","state":"NA","circle":"Chattisgarh Circle","region":"NA"},{"pincode":"494450","office":"Timmenar B.O","district":"NA","state":"NA","circle":"Chattisgarh Circle","region":"NA"},{"pincode":"494450","office":"Odru B.O","district":"NA","state":"NA","circle":"Chattisgarh Circle","region":"NA"},{"pincode":"494444","office":"Gujjakonta B.O","district":"NA","state":"NA","circle":"Chattisgarh Circle","region":"NA"},{"pincode":"494444","office":"Mallur B.O","district":"NA","state":"NA","circle":"Chattisgarh Circle","region":"NA"},{"pincode":"494444","office":"Peddajojer B.O","district":"NA","state":"NA","circle":"Chattisgarh Circle","region":"NA"},{"pincode":"494111","office":"Peddabedkel B.O","district":"NA","state":"NA","circle":"Chattisgarh Circle","region":"NA"},{"pincode":"494111","office":"Burkapal B.O","district":"NA","state":"NA","circle":"Chattisgarh Circle","region":"NA"},{"pincode":"494441","office":"Cherpal BO","district":"NA","state":"NA","circle":"Chattisgarh Circle","region":"NA"},{"pincode":"494556","office":"Badepali B.O","district":"NA","state":"NA","circle":"Chattisgarh Circle","region":"NA"},{"pincode":"494556","office":"Bengpal B.O","district":"NA","state":"NA","circle":"Chattisgarh Circle","region":"NA"},{"pincode":"494556","office":"Lawa B.O","district":"NA","state":"NA","circle":"Chattisgarh Circle","region":"NA"},{"pincode":"494556","office":"Muler B.O","district":"NA","state":"NA","circle":"Chattisgarh Circle","region":"NA"},{"pincode":"494114","office":"Mailasur B.O","district":"NA","state":"NA","circle":"Chattisgarh Circle","region":"NA"},{"pincode":"494114","office":"Sendurguda B.O","district":"NA","state":"NA","circle":"Chattisgarh Circle","region":"NA"},{"pincode":"494114","office":"Gorkha B.O","district":"NA","state":"NA","circle":"Chattisgarh Circle","region":"NA"},{"pincode":"494114","office":"Lendra BO","district":"NA","state":"NA","circle":"Chattisgarh Circle","region":"NA"},{"pincode":"494010","office":"Neganar BO","district":"NA","state":"NA","circle":"Chattisgarh Circle","region":"NA"},{"pincode":"494448","office":"Pharsapalli B.O","district":"NA","state":"NA","circle":"Chattisgarh Circle","region":"NA"},{"pincode":"494448","office":"Cheramangi B.O","district":"NA","state":"NA","circle":"Chattisgarh Circle","region":"NA"},{"pincode":"494448","office":"Kongupalli B.O","district":"NA","state":"NA","circle":"Chattisgarh Circle","region":"NA"},{"pincode":"494552","office":"Madkamiras B.O","district":"NA","state":"NA","circle":"Chattisgarh Circle","region":"NA"},{"pincode":"494111","office":"Jangampal B.O","district":"NA","state":"NA","circle":"Chattisgarh Circle","region":"NA"},{"pincode":"494111","office":"Tongpal B.O","district":"NA","state":"NA","circle":"Chattisgarh Circle","region":"NA"},{"pincode":"494111","office":"Mankapal B.O","district":"NA","state":"NA","circle":"Chattisgarh Circle","region":"NA"},{"pincode":"494111","office":"Fulbagadi B.O","district":"NA","state":"NA","circle":"Chattisgarh Circle","region":"NA"},{"pincode":"494111","office":"Rajamunda B.O","district":"NA","state":"NA","circle":"Chattisgarh Circle","region":"NA"},{"pincode":"494334","office":"Jhulnatendu B.O","district":"NA","state":"NA","circle":"Chattisgarh Circle","region":"NA"},{"pincode":"494665","office":"Kuhche B.O","district":"NA","state":"NA","circle":"Chattisgarh Circle","region":"NA"},{"pincode":"494669","office":"Garda BO","district":"NA","state":"NA","circle":"Chattisgarh Circle","region":"NA"},{"pincode":"494669","office":"Padgaal B.O","district":"NA","state":"NA","circle":"Chattisgarh Circle","region":"NA"},{"pincode":"494337","office":"Bhotha B.O","district":"NA","state":"NA","circle":"Chattisgarh Circle","region":"NA"},{"pincode":"494771","office":"Mudla B.O","district":"NA","state":"NA","circle":"Chattisgarh Circle","region":"NA"},{"pincode":"494226","office":"Singanpur","district":"NA","state":"NA","circle":"Chattisgarh Circle","region":"DivReportingCircle"},{"pincode":"494226","office":"Ghodagaon","district":"NA","state":"NA","circle":"Chattisgarh Circle","region":"DivReportingCircle"},{"pincode":"494226","office":"Kumharpara","district":"NA","state":"NA","circle":"Chattisgarh Circle","region":"DivReportingCircle"},{"pincode":"494226","office":"Nevta","district":"NA","state":"NA","circle":"Chattisgarh Circle","region":"DivReportingCircle"},{"pincode":"494776","office":"Berkot B.O","district":"NA","state":"NA","circle":"Chattisgarh Circle","region":"NA"},{"pincode":"494230","office":"Badepinjodi B.O","district":"NA","state":"NA","circle":"Chattisgarh Circle","region":"NA"},{"pincode":"494230","office":"Tahkantola B.O","district":"NA","state":"NA","circle":"Chattisgarh Circle","region":"NA"},{"pincode":"494230","office":"Kilenar B.O","district":"NA","state":"NA","circle":"Chattisgarh Circle","region":"NA"},{"pincode":"494220","office":"Kudhur","district":"NA","state":"NA","circle":"Chattisgarh Circle","region":"DivReportingCircle"},{"pincode":"494220","office":"Tumadiwal","district":"NA","state":"NA","circle":"Chattisgarh Circle","region":"DivReportingCircle"},{"pincode":"494220","office":"Nahkanaar","district":"NA","state":"NA","circle":"Chattisgarh Circle","region":"DivReportingCircle"},{"pincode":"494662","office":"Taragaon","district":"NA","state":"NA","circle":"Chattisgarh Circle","region":"DivReportingCircle"},{"pincode":"494662","office":"Murumwada","district":"NA","state":"NA","circle":"Chattisgarh Circle","region":"DivReportingCircle"},{"pincode":"494662","office":"Rekawaya","district":"NA","state":"NA","circle":"Chattisgarh Circle","region":"DivReportingCircle"},{"pincode":"494226","office":"Bansgaon","district":"NA","state":"NA","circle":"Chattisgarh Circle","region":"DivReportingCircle"},{"pincode":"494661","office":"Kerlapal","district":"NA","state":"NA","circle":"Chattisgarh Circle","region":"DivReportingCircle"},{"pincode":"494661","office":"Brehbeda","district":"NA","state":"NA","circle":"Chattisgarh Circle","region":"DivReportingCircle"},{"pincode":"494661","office":"Aadnar","district":"NA","state":"NA","circle":"Chattisgarh Circle","region":"DivReportingCircle"},{"pincode":"494661","office":"Bagbeda B.O","district":"NA","state":"NA","circle":"Chattisgarh Circle","region":"NA"},{"pincode":"494661","office":"Nednar B.O","district":"NA","state":"NA","circle":"Chattisgarh Circle","region":"NA"},{"pincode":"494661","office":"Kurushnar B.O","district":"NA","state":"NA","circle":"Chattisgarh Circle","region":"NA"},{"pincode":"494661","office":"Mulle B.O","district":"NA","state":"NA","circle":"Chattisgarh Circle","region":"NA"},{"pincode":"494661","office":"Chapai B.O","district":"NA","state":"NA","circle":"Chattisgarh Circle","region":"NA"},{"pincode":"502306","office":"Kambalpally BO","district":"NA","state":"NA","circle":"Telangana Circle","region":"Hyderabad City Region"},{"pincode":"506103","office":"Secunderabad Thanda B.O","district":"NA","state":"NA","circle":"Telangana Circle","region":"Hyderabad Region"},{"pincode":"506313","office":"Katrial B.O","district":"NA","state":"NA","circle":"Telangana Circle","region":"Hyderabad Region"},{"pincode":"506313","office":"KOTHAPALLE","district":"NA","state":"NA","circle":"Telangana Circle","region":"Hyderabad Region"},{"pincode":"501144","office":"Muddaipet BO","district":"NA","state":"NA","circle":"Telangana Circle","region":"Hyderabad City Region"},{"pincode":"523261","office":"Bollapalli B.O","district":"NA","state":"NA","circle":"Andhra Pradesh Circle","region":"Vijayawada Region"},{"pincode":"523261","office":"Baitamanjuluru B.O","district":"NA","state":"NA","circle":"Andhra Pradesh Circle","region":"Vijayawada Region"},{"pincode":"521211","office":"Vadlamanu BO","district":"NA","state":"NA","circle":"Andhra Pradesh Circle","region":"Vijayawada Region"},{"pincode":"855107","office":"Daula B.O.","district":"NA","state":"NA","circle":"Bihar Circle","region":"East Region Bhagalpur"},{"pincode":"802207","office":"LABNA PATKHAULI BO","district":"NA","state":"NA","circle":"Bihar Circle","region":"DivReportingCircle"},{"pincode":"811315","office":"B Bahadurpur BO","district":"NA","state":"NA","circle":"Bihar Circle","region":"East Region Bhagalpur"},{"pincode":"811315","office":"Belchhi BO","district":"NA","state":"NA","circle":"Bihar Circle","region":"East Region Bhagalpur"},{"pincode":"811315","office":"Kumar BO","district":"NA","state":"NA","circle":"Bihar Circle","region":"East Region Bhagalpur"},{"pincode":"811315","office":"Manjosh BO","district":"NA","state":"NA","circle":"Bihar Circle","region":"East Region Bhagalpur"},{"pincode":"811315","office":"Noma BO","district":"NA","state":"NA","circle":"Bihar Circle","region":"East Region Bhagalpur"},{"pincode":"502255","office":"Hasthalpur BO","district":"NA","state":"NA","circle":"Telangana Circle","region":"Hyderabad City Region"},{"pincode":"502247","office":"Mubaraspur B.O","district":"NA","state":"NA","circle":"Telangana Circle","region":"Hyderabad City Region"},{"pincode":"502267","office":"KCR NAGAR BO","district":"NA","state":"NA","circle":"Telangana Circle","region":"Hyderabad City Region"},{"pincode":"835231","office":"GHAGHRA BO","district":"NA","state":"NA","circle":"Jharkhand Circle","region":"DivReportingCircle"},{"pincode":"815351","office":"Gopalpur BO","district":"NA","state":"NA","circle":"Jharkhand Circle","region":"DivReportingCircle"},{"pincode":"815355","office":"Sangajuri BO","district":"NA","state":"NA","circle":"Jharkhand Circle","region":"DivReportingCircle"},{"pincode":"814147","office":"BOHA BO","district":"NA","state":"NA","circle":"Jharkhand Circle","region":"DivReportingCircle"},{"pincode":"583203","office":"Kallahalli Rajapura B.O","district":"NA","state":"NA","circle":"Karnataka Circle","region":"North Karnataka Region"},{"pincode":"491229","office":"Sambalpur","district":"NA","state":"NA","circle":"Chattisgarh Circle","region":"NA"},{"pincode":"491666","office":"Admagondi","district":"NA","state":"NA","circle":"Chattisgarh Circle","region":"NA"},{"pincode":"491666","office":"Pendakodo","district":"NA","state":"NA","circle":"Chattisgarh Circle","region":"NA"},{"pincode":"491666","office":"Harratola","district":"NA","state":"NA","circle":"Chattisgarh Circle","region":"NA"},{"pincode":"571232","office":"Sundarnagar B.O","district":"NA","state":"NA","circle":"Karnataka Circle","region":"South Karnataka Region"},{"pincode":"825413","office":"Bijaiya","district":"NA","state":"NA","circle":"Jharkhand Circle","region":"DivReportingCircle"},{"pincode":"829134","office":"Jageshwar","district":"NA","state":"NA","circle":"Jharkhand Circle","region":"DivReportingCircle"},{"pincode":"172032","office":"Ladhagi BO","district":"NA","state":"NA","circle":"Himachal Pradesh Circle","region":"DivReportingCircle"},{"pincode":"395005","office":"Tunda B.O","district":"NA","state":"NA","circle":"Gujarat Circle","region":"Vadodara Region"},{"pincode":"123034","office":"SURJANWAS","district":"NA","state":"NA","circle":"Haryana Circle","region":"DivReportingCircle"},{"pincode":"796186","office":"BUANGPUI","district":"NA","state":"NA","circle":"North Eastern Circle","region":"North East - I Region"},{"pincode":"486890","office":"DUDHICHUA PROJECT","district":"NA","state":"NA","circle":"Madhya Pradesh Circle","region":"Jabalpur Region"},{"pincode":"421603","office":"Lahe B.O","district":"NA","state":"NA","circle":"Maharashtra Circle","region":"Navi Mumbai Region"},{"pincode":"401303","office":"Sakwar","district":"NA","state":"NA","circle":"Maharashtra Circle","region":"Navi Mumbai Region"},{"pincode":"444906","office":"Shahapur B.O","district":"NA","state":"NA","circle":"Maharashtra Circle","region":"Nagpur Region"},{"pincode":"443103","office":"Borkhed B.O","district":"NA","state":"NA","circle":"Maharashtra Circle","region":"Nagpur Region"},{"pincode":"410506","office":"Ordanance Dep Talegaon Dabhade BO","district":"NA","state":"NA","circle":"Maharashtra Circle","region":"Pune Region"},{"pincode":"671124","office":"ULIYATHADKA","district":"NA","state":"NA","circle":"Kerala Circle","region":"Calicut Region"},{"pincode":"485115","office":"khukhuda kothar B.O","district":"NA","state":"NA","circle":"Madhya Pradesh Circle","region":"Jabalpur Region"},{"pincode":"484771","office":"Giruikhurd","district":"NA","state":"NA","circle":"Madhya Pradesh Circle","region":"Jabalpur Region"},{"pincode":"327603","office":"Pindarama B.O","district":"NA","state":"NA","circle":"Rajasthan Circle","region":"Ajmer Region"},{"pincode":"752080","office":"CHADHEYAPALI B.O","district":"NA","state":"NA","circle":"Odisha Circle","region":"Bhubaneswar HQ Region"},{"pincode":"799012","office":"Durgabari","district":"NA","state":"NA","circle":"North Eastern Circle","region":"North East - I Region"},{"pincode":"759016","office":"Baniapada B.O","district":"NA","state":"NA","circle":"Odisha Circle","region":"Sambalpur Region"},{"pincode":"160001","office":"Khuda Ali Sher","district":"NA","state":"NA","circle":"Punjab Circle","region":"DivReportingCircle"},{"pincode":"341002","office":"Kherat B.O","district":"NA","state":"NA","circle":"Rajasthan Circle","region":"Jodhpur Region"},{"pincode":"249204","office":"Khadri Khadakmaf BO","district":"NA","state":"NA","circle":"Uttarakhand Circle","region":"DivReportingCircle"},{"pincode":"231305","office":"Kailhat Bazar","district":"NA","state":"NA","circle":"Uttar Pradesh Circle","region":"Prayagraj Regional Office"},{"pincode":"301019","office":"EXTENSION COUNTER BHIWARI I.A. POST OFFICE","district":"NA","state":"NA","circle":"Rajasthan Circle","region":"NA"},{"pincode":"600200","office":"Greams Road NDC","district":"NA","state":"NA","circle":"Tamilnadu Circle","region":"Chennai City Region"},{"pincode":"605012","office":"Pondicherry NDC","district":"NA","state":"NA","circle":"Tamilnadu Circle","region":"Chennai City Region"},{"pincode":"415635","office":"Kondye SO","district":"NA","state":"NA","circle":"Maharashtra Circle","region":"Goa-Panaji Region"},{"pincode":"400114","office":"NDC DADAR HO","district":"NA","state":"NA","circle":"Maharashtra Circle","region":"Mumbai Region"},{"pincode":"400193","office":"NDC Chakala MIDC","district":"NA","state":"NA","circle":"Maharashtra Circle","region":"Mumbai Region"},{"pincode":"400171","office":"NDC CHEMBUR HO","district":"NA","state":"NA","circle":"Maharashtra Circle","region":"Mumbai Region"},{"pincode":"400183","office":"NDC Tagore Nagar PO","district":"NA","state":"NA","circle":"Maharashtra Circle","region":"Mumbai Region"},{"pincode":"400118","office":"NDC Mumbai Central","district":"NA","state":"NA","circle":"Maharashtra Circle","region":"Mumbai Region"},{"pincode":"401108","office":"Mira Road NDC","district":"NA","state":"NA","circle":"Maharashtra Circle","region":"Navi Mumbai Region"},{"pincode":"440038","office":"NDC Nagpur GPO","district":"NA","state":"NA","circle":"Maharashtra Circle","region":"Nagpur Region"},{"pincode":"411074","office":"NDC Ganeshkhind","district":"NA","state":"NA","circle":"Maharashtra Circle","region":"Pune Region"},{"pincode":"411076","office":"NDC Parvati","district":"NA","state":"NA","circle":"Maharashtra Circle","region":"Pune Region"},{"pincode":"431025","office":"Nodal Delivery Center","district":"NA","state":"NA","circle":"Maharashtra Circle","region":"Regional Office Aurangabad"},{"pincode":"422014","office":"NDC Nashik","district":"NA","state":"NA","circle":"Maharashtra Circle","region":"Navi Mumbai Region"},{"pincode":"395015","office":"NDC SURAT","district":"NA","state":"NA","circle":"Gujarat Circle","region":"Vadodara Region"},{"pincode":"121999","office":"NDC Faridabad","district":"NA","state":"NA","circle":"Haryana Circle","region":"DivReportingCircle"},{"pincode":"122999","office":"NDC GURGAON","district":"NA","state":"NA","circle":"Haryana Circle","region":"DivReportingCircle"},{"pincode":"122998","office":"NDC DLF QE Complex","district":"NA","state":"NA","circle":"Haryana Circle","region":"DivReportingCircle"},{"pincode":"500958","office":"NDC Kanchanbagh","district":"NA","state":"NA","circle":"Telangana Circle","region":"Hyderabad City Region"},{"pincode":"500962","office":"NDC ECIL","district":"NA","state":"NA","circle":"Telangana Circle","region":"Hyderabad City Region"},{"pincode":"462099","office":"Nodal Delivery Centre Bhopal G.P.O.","district":"NA","state":"NA","circle":"Madhya Pradesh Circle","region":"DivReportingCircle"},{"pincode":"482007","office":"NDC Jabalpur","district":"NA","state":"NA","circle":"Madhya Pradesh Circle","region":"Jabalpur Region"},{"pincode":"457111","office":"Shivgarh S.O","district":"NA","state":"NA","circle":"Madhya Pradesh Circle","region":"Indore Region"},{"pincode":"403522","office":"NDC Goa at Alto Porvorim","district":"NA","state":"NA","circle":"Maharashtra Circle","region":"Goa-Panaji Region"},{"pincode":"273011","office":"NDC GORAKHPUR","district":"NA","state":"NA","circle":"Uttar Pradesh Circle","region":"Gorakhpur Region"},{"pincode":"800036","office":"Bairia SO","district":"NA","state":"NA","circle":"Bihar Circle","region":"DivReportingCircle"},{"pincode":"490004","office":"NDC Bhilai Nagar","district":"NA","state":"NA","circle":"Chattisgarh Circle","region":"DivReportingCircle"},{"pincode":"380012","office":"NDC Naranpura Vistar","district":"NA","state":"NA","circle":"Gujarat Circle","region":"Ahmedabad HQ Region"},{"pincode":"248020","office":"NDC Dehradun","district":"NA","state":"NA","circle":"Uttarakhand Circle","region":"DivReportingCircle"},{"pincode":"500939","office":"NDC Uppal","district":"NA","state":"NA","circle":"Telangana Circle","region":"Hyderabad City Region"},{"pincode":"804420","office":"MANIYAWAN BO","district":"NA","state":"NA","circle":"Bihar Circle","region":"DivReportingCircle"},{"pincode":"811315","office":"Sijhauri BO","district":"NA","state":"NA","circle":"Bihar Circle","region":"East Region Bhagalpur"},{"pincode":"811315","office":"Akauni BO","district":"NA","state":"NA","circle":"Bihar Circle","region":"East Region Bhagalpur"},{"pincode":"811315","office":"Lohanda B.O","district":"NA","state":"NA","circle":"Bihar Circle","region":"East Region Bhagalpur"},{"pincode":"801109","office":"Bahuara B.O","district":"NA","state":"NA","circle":"Bihar Circle","region":"DivReportingCircle"},{"pincode":"801109","office":"Chhoti Tengraila B.O","district":"NA","state":"NA","circle":"Bihar Circle","region":"DivReportingCircle"},{"pincode":"844125","office":"KUTUBPUR","district":"NA","state":"NA","circle":"Bihar Circle","region":"NA"},{"pincode":"494447","office":"Chutwahi B.O","district":"NA","state":"NA","circle":"Chattisgarh Circle","region":"NA"},{"pincode":"494447","office":"Dalla B.O","district":"NA","state":"NA","circle":"Chattisgarh Circle","region":"NA"},{"pincode":"494447","office":"Kottaguda BO","district":"NA","state":"NA","circle":"Chattisgarh Circle","region":"NA"},{"pincode":"494447","office":"Bhimaram B.O","district":"NA","state":"NA","circle":"Chattisgarh Circle","region":"NA"},{"pincode":"494447","office":"Tekler B.O","district":"NA","state":"NA","circle":"Chattisgarh Circle","region":"NA"},{"pincode":"494447","office":"Pedachanda B.O","district":"NA","state":"NA","circle":"Chattisgarh Circle","region":"NA"},{"pincode":"494450","office":"Bandemarka B.O","district":"NA","state":"NA","circle":"Chattisgarh Circle","region":"NA"},{"pincode":"494450","office":"Edkapalli B.O","district":"NA","state":"NA","circle":"Chattisgarh Circle","region":"NA"},{"pincode":"494450","office":"Madepur B.O","district":"NA","state":"NA","circle":"Chattisgarh Circle","region":"NA"},{"pincode":"494450","office":"Mukabeli B.O","district":"NA","state":"NA","circle":"Chattisgarh Circle","region":"NA"},{"pincode":"494450","office":"Surokhi B.O","district":"NA","state":"NA","circle":"Chattisgarh Circle","region":"NA"},{"pincode":"494450","office":"Medpal B.O","district":"NA","state":"NA","circle":"Chattisgarh Circle","region":"NA"},{"pincode":"494450","office":"Karremarka B.O","district":"NA","state":"NA","circle":"Chattisgarh Circle","region":"NA"},{"pincode":"494450","office":"Fandiwaya B.O","district":"NA","state":"NA","circle":"Chattisgarh Circle","region":"NA"},{"pincode":"494450","office":"Palsegundi B.O","district":"NA","state":"NA","circle":"Chattisgarh Circle","region":"NA"},{"pincode":"494450","office":"Kandalaparti B.O","district":"NA","state":"NA","circle":"Chattisgarh Circle","region":"NA"},{"pincode":"494446","office":"Kuchnur B.O","district":"NA","state":"NA","circle":"Chattisgarh Circle","region":"NA"},{"pincode":"494446","office":"Kondahausam B.O","district":"NA","state":"NA","circle":"Chattisgarh Circle","region":"NA"},{"pincode":"494444","office":"Mingachal B.O","district":"NA","state":"NA","circle":"Chattisgarh Circle","region":"NA"},{"pincode":"494444","office":"Kachlaram BO","district":"NA","state":"NA","circle":"Chattisgarh Circle","region":"NA"},{"pincode":"494444","office":"Kottapal B.O","district":"NA","state":"NA","circle":"Chattisgarh Circle","region":"NA"},{"pincode":"494444","office":"Irrenar B.O","district":"NA","state":"NA","circle":"Chattisgarh Circle","region":"NA"},{"pincode":"494444","office":"Dumirpalnar B.O","district":"NA","state":"NA","circle":"Chattisgarh Circle","region":"NA"},{"pincode":"494449","office":"Nadenar B.O","district":"NA","state":"NA","circle":"Chattisgarh Circle","region":"NA"},{"pincode":"494111","office":"Gorgunda B.O","district":"NA","state":"NA","circle":"Chattisgarh Circle","region":"NA"},{"pincode":"494111","office":"Korrapad B.O","district":"NA","state":"NA","circle":"Chattisgarh Circle","region":"NA"},{"pincode":"494111","office":"Tetrai B.O","district":"NA","state":"NA","circle":"Chattisgarh Circle","region":"NA"},{"pincode":"494441","office":"Kohkawada B.O","district":"NA","state":"NA","circle":"Chattisgarh Circle","region":"NA"},{"pincode":"494441","office":"Sadar B.O","district":"NA","state":"NA","circle":"Chattisgarh Circle","region":"NA"},{"pincode":"494441","office":"Bodhghat B.O","district":"NA","state":"NA","circle":"Chattisgarh Circle","region":"NA"},{"pincode":"494441","office":"Muhander B.O","district":"NA","state":"NA","circle":"Chattisgarh Circle","region":"NA"},{"pincode":"494441","office":"Salepal B.O","district":"NA","state":"NA","circle":"Chattisgarh Circle","region":"NA"},{"pincode":"494441","office":"Kahachenar B.O","district":"NA","state":"NA","circle":"Chattisgarh Circle","region":"NA"},{"pincode":"494556","office":"Pirnar B.O","district":"NA","state":"NA","circle":"Chattisgarh Circle","region":"NA"},{"pincode":"494448","office":"Marrimalla B.O","district":"NA","state":"NA","circle":"Chattisgarh Circle","region":"NA"},{"pincode":"494111","office":"Chichorguda B.O","district":"NA","state":"NA","circle":"Chattisgarh Circle","region":"NA"},{"pincode":"494442","office":"Bhejripadar BO","district":"NA","state":"NA","circle":"Chattisgarh Circle","region":"NA"},{"pincode":"494115","office":"Keratong B.O","district":"NA","state":"NA","circle":"Chattisgarh Circle","region":"NA"},{"pincode":"494115","office":"Dabba B.O","district":"NA","state":"NA","circle":"Chattisgarh Circle","region":"NA"},{"pincode":"494665","office":"Kohka B.O","district":"NA","state":"NA","circle":"Chattisgarh Circle","region":"NA"},{"pincode":"494665","office":"Hetale B.O","district":"NA","state":"NA","circle":"Chattisgarh Circle","region":"NA"},{"pincode":"494665","office":"Gutakachhar B.O","district":"NA","state":"NA","circle":"Chattisgarh Circle","region":"NA"},{"pincode":"494665","office":"Khutgaon B.O","district":"NA","state":"NA","circle":"Chattisgarh Circle","region":"NA"},{"pincode":"494777","office":"Ghotanbeda B.O","district":"NA","state":"NA","circle":"Chattisgarh Circle","region":"NA"},{"pincode":"494777","office":"Maanjhikutni B.O","district":"NA","state":"NA","circle":"Chattisgarh Circle","region":"NA"},{"pincode":"494777","office":"Puskatta B.O","district":"NA","state":"NA","circle":"Chattisgarh Circle","region":"NA"},{"pincode":"494777","office":"Berhbeda B.O","district":"NA","state":"NA","circle":"Chattisgarh Circle","region":"NA"},{"pincode":"494669","office":"Padgaal (Hanpatri) B.O","district":"NA","state":"NA","circle":"Chattisgarh Circle","region":"NA"},{"pincode":"504346","office":"Bhagavanrajupalem B.O","district":"NA","state":"NA","circle":"Andhra Pradesh Circle","region":"Vijayawada Region"},{"pincode":"523261","office":"Kondamanjulur B.O","district":"NA","state":"NA","circle":"Andhra Pradesh Circle","region":"Vijayawada Region"},{"pincode":"532430","office":"Guppidipeta","district":"NA","state":"NA","circle":"Andhra Pradesh Circle","region":"Visakhapatnam Region"},{"pincode":"841447","office":"UJJAINA BO","district":"NA","state":"NA","circle":"Bihar Circle","region":"Muzaffarpur Region"},{"pincode":"506313","office":"Liabarthy B.O","district":"NA","state":"NA","circle":"Telangana Circle","region":"Hyderabad Region"},{"pincode":"506313","office":"Sagaram B.O","district":"NA","state":"NA","circle":"Telangana Circle","region":"Hyderabad Region"},{"pincode":"506313","office":"DONGACHINTHATHANDA","district":"NA","state":"NA","circle":"Telangana Circle","region":"Hyderabad Region"},{"pincode":"501302","office":"Godhumkunta BO","district":"NA","state":"NA","circle":"Telangana Circle","region":"Hyderabad City Region"},{"pincode":"501502","office":"Lingampally BO","district":"NA","state":"NA","circle":"Telangana Circle","region":"Hyderabad City Region"},{"pincode":"855107","office":"Pichhla B.O.","district":"NA","state":"NA","circle":"Bihar Circle","region":"East Region Bhagalpur"},{"pincode":"822118","office":"Julanga","district":"NA","state":"NA","circle":"Jharkhand Circle","region":"DivReportingCircle"},{"pincode":"182201","office":"Bari BO","district":"NA","state":"NA","circle":"Jammu Kashmir Circle","region":"JAMMU RN"},{"pincode":"493773","office":"Dhamtari Nyayalay B.O","district":"NA","state":"NA","circle":"Chattisgarh Circle","region":"DivReportingCircle"},{"pincode":"493445","office":"Mahasamund Nyayalay B.O","district":"NA","state":"NA","circle":"Chattisgarh Circle","region":"DivReportingCircle"},{"pincode":"577549","office":"Kallenahalli BO","district":"NA","state":"NA","circle":"Karnataka Circle","region":"South Karnataka Region"},{"pincode":"494226","office":"Kejang","district":"NA","state":"NA","circle":"Chattisgarh Circle","region":"DivReportingCircle"},{"pincode":"494336","office":"Gotitola B.O","district":"NA","state":"NA","circle":"Chattisgarh Circle","region":"NA"},{"pincode":"494661","office":"Bhatpal","district":"NA","state":"NA","circle":"Chattisgarh Circle","region":"DivReportingCircle"},{"pincode":"494661","office":"Karmari","district":"NA","state":"NA","circle":"Chattisgarh Circle","region":"DivReportingCircle"},{"pincode":"494776","office":"Murawandi B.O","district":"NA","state":"NA","circle":"Chattisgarh Circle","region":"NA"},{"pincode":"494776","office":"Hidur B.O","district":"NA","state":"NA","circle":"Chattisgarh Circle","region":"NA"},{"pincode":"494776","office":"Pariyahur B.O","district":"NA","state":"NA","circle":"Chattisgarh Circle","region":"NA"},{"pincode":"494230","office":"Marmakonadi B.O","district":"NA","state":"NA","circle":"Chattisgarh Circle","region":"NA"},{"pincode":"494230","office":"Niljhar B.O","district":"NA","state":"NA","circle":"Chattisgarh Circle","region":"NA"},{"pincode":"494635","office":"Gudhphel B.O","district":"NA","state":"NA","circle":"Chattisgarh Circle","region":"NA"},{"pincode":"494335","office":"Rawas B.O","district":"NA","state":"NA","circle":"Chattisgarh Circle","region":"NA"},{"pincode":"494220","office":"Becha","district":"NA","state":"NA","circle":"Chattisgarh Circle","region":"DivReportingCircle"},{"pincode":"494220","office":"Puspal","district":"NA","state":"NA","circle":"Chattisgarh Circle","region":"DivReportingCircle"},{"pincode":"494662","office":"Ader","district":"NA","state":"NA","circle":"Chattisgarh Circle","region":"DivReportingCircle"},{"pincode":"494226","office":"Makadi","district":"NA","state":"NA","circle":"Chattisgarh Circle","region":"DivReportingCircle"},{"pincode":"494661","office":"Bagdongari","district":"NA","state":"NA","circle":"Chattisgarh Circle","region":"DivReportingCircle"},{"pincode":"494661","office":"Ghamandi","district":"NA","state":"NA","circle":"Chattisgarh Circle","region":"DivReportingCircle"},{"pincode":"494661","office":"Padamkot","district":"NA","state":"NA","circle":"Chattisgarh Circle","region":"DivReportingCircle"},{"pincode":"494661","office":"Aakabeda B.O","district":"NA","state":"NA","circle":"Chattisgarh Circle","region":"NA"},{"pincode":"494661","office":"Mohndi B.O","district":"NA","state":"NA","circle":"Chattisgarh Circle","region":"NA"},{"pincode":"491665","office":"Madiyanvadvi","district":"NA","state":"NA","circle":"Chattisgarh Circle","region":"NA"},{"pincode":"491229","office":"Sharda","district":"NA","state":"NA","circle":"Chattisgarh Circle","region":"NA"},{"pincode":"491229","office":"Ghodagaon","district":"NA","state":"NA","circle":"Chattisgarh Circle","region":"NA"},{"pincode":"491229","office":"Baseli","district":"NA","state":"NA","circle":"Chattisgarh Circle","region":"NA"},{"pincode":"491666","office":"Urwahi","district":"NA","state":"NA","circle":"Chattisgarh Circle","region":"NA"},{"pincode":"122506","office":"Jhanjrola Khera","district":"NA","state":"NA","circle":"Haryana Circle","region":"DivReportingCircle"},{"pincode":"123304","office":"Kheri Ramgarh ","district":"NA","state":"NA","circle":"Haryana Circle","region":"NA"},{"pincode":"796410","office":"SIHHMUI","district":"NA","state":"NA","circle":"North Eastern Circle","region":"North East - I Region"},{"pincode":"575022","office":"Madoor BO","district":"NA","state":"NA","circle":"Karnataka Circle","region":"South Karnataka Region"},{"pincode":"571127","office":"Kullur BO","district":"NA","state":"NA","circle":"Karnataka Circle","region":"South Karnataka Region"},{"pincode":"401204","office":"Ganeshpuri","district":"NA","state":"NA","circle":"Maharashtra Circle","region":"Navi Mumbai Region"},{"pincode":"413726","office":"Chikhalthanwadi B.O","district":"NA","state":"NA","circle":"Maharashtra Circle","region":"Pune Region"},{"pincode":"425414","office":"ASALI BO","district":"NA","state":"NA","circle":"Maharashtra Circle","region":"Regional Office Aurangabad"},{"pincode":"425111","office":"Waghra-Waghri B.O","district":"NA","state":"NA","circle":"Maharashtra Circle","region":"Regional Office Aurangabad"},{"pincode":"673010","office":"Thanneerpanthal BO","district":"NA","state":"NA","circle":"Kerala Circle","region":"Calicut Region"},{"pincode":"403004","office":"Bharati Indian Antartic Station","district":"NA","state":"NA","circle":"Maharashtra Circle","region":"Goa-Panaji Region"},{"pincode":"403406","office":"Bolkarne B.O","district":"NA","state":"NA","circle":"Maharashtra Circle","region":"Goa-Panaji Region"},{"pincode":"462022","office":"Chhawani Pathar B.O","district":"NA","state":"NA","circle":"Madhya Pradesh Circle","region":"DivReportingCircle"},{"pincode":"480442","office":"Jamuniya Jethu B.O","district":"NA","state":"NA","circle":"Madhya Pradesh Circle","region":"Jabalpur Region"},{"pincode":"160003","office":"Raipur Khurd","district":"NA","state":"NA","circle":"Punjab Circle","region":"DivReportingCircle"},{"pincode":"752104","office":"Durgadaspur B.O","district":"NA","state":"NA","circle":"Odisha Circle","region":"Bhubaneswar HQ Region"},{"pincode":"752010","office":"Mirzapur B.O","district":"NA","state":"NA","circle":"Odisha Circle","region":"Bhubaneswar HQ Region"},{"pincode":"629851","office":"Veerapuli R.F","district":"NA","state":"NA","circle":"Tamilnadu Circle","region":"Southern Region Madurai"},{"pincode":"342303","office":"NEWRA ROAD","district":"NA","state":"NA","circle":"Rajasthan Circle","region":"Jodhpur Region"},{"pincode":"335522","office":"Malasar B.O.","district":"NA","state":"NA","circle":"Rajasthan Circle","region":"Jodhpur Region"},{"pincode":"335704","office":"Gopalsar B.O","district":"NA","state":"NA","circle":"Rajasthan Circle","region":"Jodhpur Region"},{"pincode":"632102","office":"KILKANAVAYUR","district":"NA","state":"NA","circle":"Tamilnadu Circle","region":"Chennai City Region"},{"pincode":"734010","office":"TUMBAJOTE","district":"NA","state":"NA","circle":"West Bengal Circle","region":"North Bengal Region"},{"pincode":"228172","office":"Bhelara B.O","district":"NA","state":"NA","circle":"Uttar Pradesh Circle","region":"Prayagraj Regional Office"},{"pincode":"628002","office":"Vellapatti BO","district":"NA","state":"NA","circle":"Tamilnadu Circle","region":"Southern Region Madurai"},{"pincode":"262203","office":"Aliyapur BO","district":"NA","state":"NA","circle":"Uttar Pradesh Circle","region":"Bareilly Region"},{"pincode":"246763","office":"Jagdishpur B.O","district":"NA","state":"NA","circle":"Uttar Pradesh Circle","region":"Bareilly Region"},{"pincode":"247121","office":"Badshahi Bagh BO","district":"NA","state":"NA","circle":"Uttar Pradesh Circle","region":"Bareilly Region"},{"pincode":"733201","office":"Narayanpur BO","district":"NA","state":"NA","circle":"West Bengal Circle","region":"North Bengal Region"},{"pincode":"733125","office":"PATUN","district":"NA","state":"NA","circle":"West Bengal Circle","region":"North Bengal Region"},{"pincode":"733140","office":"MASTAFAPUR","district":"NA","state":"NA","circle":"West Bengal Circle","region":"North Bengal Region"},{"pincode":"713335","office":"PRANTAPALLY BO","district":"NA","state":"NA","circle":"West Bengal Circle","region":"South Bengal Region"},{"pincode":"712417","office":"SOSAPOTA B.O","district":"NA","state":"NA","circle":"West Bengal Circle","region":"South Bengal Region"},{"pincode":"452999","office":"NODEL DELIVERY CENTER INDORE","district":"NA","state":"NA","circle":"Madhya Pradesh Circle","region":"Indore Region"},{"pincode":"476338","office":"DHODHAR S.O","district":"NA","state":"NA","circle":"Madhya Pradesh Circle","region":"DivReportingCircle"},{"pincode":"400150","office":"Bandra W eCOM  Nodal Delivery Centre","district":"NA","state":"NA","circle":"Maharashtra Circle","region":"Mumbai Region"},{"pincode":"400167","office":"NDC Kandivali West","district":"NA","state":"NA","circle":"Maharashtra Circle","region":"Mumbai Region"},{"pincode":"400111","office":"NDC Mumbai GPO","district":"NA","state":"NA","circle":"Maharashtra Circle","region":"Mumbai Region"},{"pincode":"400609","office":"Thane NDC","district":"NA","state":"NA","circle":"Maharashtra Circle","region":"Navi Mumbai Region"},{"pincode":"794116","office":"HALLIDAYGANJ SO","district":"NA","state":"NA","circle":"North Eastern Circle","region":"Shillong HQ Region"},{"pincode":"517510","office":"Nodal Delivery Center Tirupati","district":"NA","state":"NA","circle":"Andhra Pradesh Circle","region":"Kurnool Region"},{"pincode":"521225","office":"GOLLAPUDI BAZAR","district":"NA","state":"NA","circle":"Andhra Pradesh Circle","region":"Vijayawada Region"},{"pincode":"841101","office":"Meena Bazar Camp PO","district":"NA","state":"NA","circle":"Bihar Circle","region":"Muzaffarpur Region"},{"pincode":"600201","office":"NDC Stthomasmount HO","district":"NA","state":"NA","circle":"Tamilnadu Circle","region":"Chennai City Region"},{"pincode":"462057","office":"Nodal Delivery Centre Arera Hills Bhopal","district":"NA","state":"NA","circle":"Madhya Pradesh Circle","region":"DivReportingCircle"},{"pincode":"380010","office":"NDC Ellisbridge","district":"NA","state":"NA","circle":"Gujarat Circle","region":"Ahmedabad HQ Region"},{"pincode":"360008","office":"NDC RAJKOT","district":"NA","state":"NA","circle":"Gujarat Circle","region":"Rajkot Region"},{"pincode":"390026","office":"NDC VADODARA","district":"NA","state":"NA","circle":"Gujarat Circle","region":"Vadodara Region"},{"pincode":"500989","office":"NDC Chitrapuri Colony","district":"NA","state":"NA","circle":"Telangana Circle","region":"Hyderabad City Region"},{"pincode":"500970","office":"NDC Vanasthalipuram","district":"NA","state":"NA","circle":"Telangana Circle","region":"Hyderabad City Region"},{"pincode":"502335","office":"Venkataipally B.O","district":"NA","state":"NA","circle":"Telangana Circle","region":"Hyderabad City Region"},{"pincode":"506313","office":"Bandouthapur B.O","district":"NA","state":"NA","circle":"Telangana Circle","region":"Hyderabad Region"},{"pincode":"506313","office":"Kakkiralapalli B.O","district":"NA","state":"NA","circle":"Telangana Circle","region":"Hyderabad Region"},{"pincode":"506313","office":"Nandanam B.O","district":"NA","state":"NA","circle":"Telangana Circle","region":"Hyderabad Region"},{"pincode":"506313","office":"Yellanda B.O","district":"NA","state":"NA","circle":"Telangana Circle","region":"Hyderabad Region"},{"pincode":"501143","office":"NEELAPALLI B.O","district":"NA","state":"NA","circle":"Telangana Circle","region":"Hyderabad City Region"},{"pincode":"523261","office":"Kondamuru B.O","district":"NA","state":"NA","circle":"Andhra Pradesh Circle","region":"Vijayawada Region"},{"pincode":"523261","office":"Reningavaram B.O","district":"NA","state":"NA","circle":"Andhra Pradesh Circle","region":"Vijayawada Region"},{"pincode":"494447","office":"Nabbi B.O","district":"NA","state":"NA","circle":"Chattisgarh Circle","region":"NA"},{"pincode":"494447","office":"Yampur B.O","district":"NA","state":"NA","circle":"Chattisgarh Circle","region":"NA"},{"pincode":"494450","office":"Birabhatti B.O","district":"NA","state":"NA","circle":"Chattisgarh Circle","region":"NA"},{"pincode":"494450","office":"Jaramarka B.O","district":"NA","state":"NA","circle":"Chattisgarh Circle","region":"NA"},{"pincode":"494450","office":"Rengawaya B.O","district":"NA","state":"NA","circle":"Chattisgarh Circle","region":"NA"},{"pincode":"494450","office":"Chuchkonta B.O","district":"NA","state":"NA","circle":"Chattisgarh Circle","region":"NA"},{"pincode":"494450","office":"Ehkeli B.O","district":"NA","state":"NA","circle":"Chattisgarh Circle","region":"NA"},{"pincode":"494450","office":"Dudme B.O","district":"NA","state":"NA","circle":"Chattisgarh Circle","region":"NA"},{"pincode":"494450","office":"Cherpalli BO","district":"NA","state":"NA","circle":"Chattisgarh Circle","region":"NA"},{"pincode":"494444","office":"Sagwahi B.O","district":"NA","state":"NA","circle":"Chattisgarh Circle","region":"NA"},{"pincode":"494444","office":"Mirganghotul B.O","district":"NA","state":"NA","circle":"Chattisgarh Circle","region":"NA"},{"pincode":"494449","office":"Kundeli B.O","district":"NA","state":"NA","circle":"Chattisgarh Circle","region":"NA"},{"pincode":"494449","office":"Fulnar B.O","district":"NA","state":"NA","circle":"Chattisgarh Circle","region":"NA"},{"pincode":"494449","office":"Chikpal BO","district":"NA","state":"NA","circle":"Chattisgarh Circle","region":"NA"},{"pincode":"494449","office":"Gudase B.O","district":"NA","state":"NA","circle":"Chattisgarh Circle","region":"NA"},{"pincode":"494111","office":"Tarlagudaa B.O","district":"NA","state":"NA","circle":"Chattisgarh Circle","region":"NA"},{"pincode":"494111","office":"Surpanguda B.O","district":"NA","state":"NA","circle":"Chattisgarh Circle","region":"NA"},{"pincode":"494111","office":"Kamaram B.O","district":"NA","state":"NA","circle":"Chattisgarh Circle","region":"NA"},{"pincode":"494111","office":"Almagunda B.O","district":"NA","state":"NA","circle":"Chattisgarh Circle","region":"NA"},{"pincode":"494441","office":"Kasoli 02 B.O","district":"NA","state":"NA","circle":"Chattisgarh Circle","region":"NA"},{"pincode":"494441","office":"Pawel B.O","district":"NA","state":"NA","circle":"Chattisgarh Circle","region":"NA"},{"pincode":"494441","office":"Bodali B.O","district":"NA","state":"NA","circle":"Chattisgarh Circle","region":"NA"},{"pincode":"494441","office":"Tetam BO","district":"NA","state":"NA","circle":"Chattisgarh Circle","region":"NA"},{"pincode":"494114","office":"karigundam B.O","district":"NA","state":"NA","circle":"Chattisgarh Circle","region":"NA"},{"pincode":"494114","office":"Uskewaya B.O","district":"NA","state":"NA","circle":"Chattisgarh Circle","region":"NA"},{"pincode":"494448","office":"Ralapal B.O","district":"NA","state":"NA","circle":"Chattisgarh Circle","region":"NA"},{"pincode":"494448","office":"Chinnakodepal B.O","district":"NA","state":"NA","circle":"Chattisgarh Circle","region":"NA"},{"pincode":"494448","office":"Punnur B.O","district":"NA","state":"NA","circle":"Chattisgarh Circle","region":"NA"},{"pincode":"494448","office":"Gauraram B.O","district":"NA","state":"NA","circle":"Chattisgarh Circle","region":"NA"},{"pincode":"494448","office":"Loded B.O","district":"NA","state":"NA","circle":"Chattisgarh Circle","region":"NA"},{"pincode":"494111","office":"Gondpalli BO","district":"NA","state":"NA","circle":"Chattisgarh Circle","region":"NA"},{"pincode":"494111","office":"Pordem B.O","district":"NA","state":"NA","circle":"Chattisgarh Circle","region":"NA"},{"pincode":"494442","office":"Goriyapal B.O","district":"NA","state":"NA","circle":"Chattisgarh Circle","region":"NA"},{"pincode":"494442","office":"Kanakurushpal B.O","district":"NA","state":"NA","circle":"Chattisgarh Circle","region":"NA"},{"pincode":"494442","office":"Matkot B.O","district":"NA","state":"NA","circle":"Chattisgarh Circle","region":"NA"},{"pincode":"494115","office":"Jheeram B.O","district":"NA","state":"NA","circle":"Chattisgarh Circle","region":"NA"},{"pincode":"494115","office":"Chiurwada B.O","district":"NA","state":"NA","circle":"Chattisgarh Circle","region":"NA"},{"pincode":"494665","office":"Ghoomer B.O","district":"NA","state":"NA","circle":"Chattisgarh Circle","region":"NA"},{"pincode":"494665","office":"Navgel B.O","district":"NA","state":"NA","circle":"Chattisgarh Circle","region":"NA"},{"pincode":"494665","office":"Wala B.O","district":"NA","state":"NA","circle":"Chattisgarh Circle","region":"NA"},{"pincode":"494777","office":"Kanchanmunda B.O","district":"NA","state":"NA","circle":"Chattisgarh Circle","region":"NA"},{"pincode":"494771","office":"Paalavi B.O","district":"NA","state":"NA","circle":"Chattisgarh Circle","region":"NA"},{"pincode":"494771","office":"Markachua B.O","district":"NA","state":"NA","circle":"Chattisgarh Circle","region":"NA"},{"pincode":"494771","office":"Mendra B.O","district":"NA","state":"NA","circle":"Chattisgarh Circle","region":"NA"},{"pincode":"494771","office":"Rampur B.O","district":"NA","state":"NA","circle":"Chattisgarh Circle","region":"NA"},{"pincode":"494661","office":"Amsara","district":"NA","state":"NA","circle":"Chattisgarh Circle","region":"DivReportingCircle"},{"pincode":"494661","office":"Dugabengal","district":"NA","state":"NA","circle":"Chattisgarh Circle","region":"DivReportingCircle"},{"pincode":"494230","office":"Uperkamta B.O","district":"NA","state":"NA","circle":"Chattisgarh Circle","region":"NA"},{"pincode":"494230","office":"Bagjhar B.O","district":"NA","state":"NA","circle":"Chattisgarh Circle","region":"NA"},{"pincode":"494635","office":"Hepurkasha B.O","district":"NA","state":"NA","circle":"Chattisgarh Circle","region":"NA"},{"pincode":"494335","office":"Tiriyarpani B.O","district":"NA","state":"NA","circle":"Chattisgarh Circle","region":"NA"},{"pincode":"494226","office":"Aadnar","district":"NA","state":"NA","circle":"Chattisgarh Circle","region":"DivReportingCircle"},{"pincode":"494220","office":"Kadenar","district":"NA","state":"NA","circle":"Chattisgarh Circle","region":"DivReportingCircle"},{"pincode":"494220","office":"Chhoteteusari","district":"NA","state":"NA","circle":"Chattisgarh Circle","region":"DivReportingCircle"},{"pincode":"494662","office":"Rajpur","district":"NA","state":"NA","circle":"Chattisgarh Circle","region":"DivReportingCircle"},{"pincode":"494662","office":"Dhondarbeda","district":"NA","state":"NA","circle":"Chattisgarh Circle","region":"DivReportingCircle"},{"pincode":"494662","office":"Jatloor","district":"NA","state":"NA","circle":"Chattisgarh Circle","region":"DivReportingCircle"},{"pincode":"494662","office":"Pochawada","district":"NA","state":"NA","circle":"Chattisgarh Circle","region":"DivReportingCircle"},{"pincode":"494661","office":"Kachchapal","district":"NA","state":"NA","circle":"Chattisgarh Circle","region":"DivReportingCircle"},{"pincode":"494661","office":"Chandagaon","district":"NA","state":"NA","circle":"Chattisgarh Circle","region":"DivReportingCircle"},{"pincode":"494661","office":"Chhinari","district":"NA","state":"NA","circle":"Chattisgarh Circle","region":"DivReportingCircle"},{"pincode":"494661","office":"Matla","district":"NA","state":"NA","circle":"Chattisgarh Circle","region":"DivReportingCircle"},{"pincode":"494661","office":"Sulenga(Guriya)","district":"NA","state":"NA","circle":"Chattisgarh Circle","region":"DivReportingCircle"},{"pincode":"494661","office":"Erakbhatti B.O","district":"NA","state":"NA","circle":"Chattisgarh Circle","region":"NA"},{"pincode":"845455","office":"Gaunaha BO","district":"NA","state":"NA","circle":"Bihar Circle","region":"Muzaffarpur Region"},{"pincode":"804425","office":"Gonwan BO","district":"NA","state":"NA","circle":"Bihar Circle","region":"DivReportingCircle"},{"pincode":"811315","office":"Khardih BO","district":"NA","state":"NA","circle":"Bihar Circle","region":"East Region Bhagalpur"},{"pincode":"811315","office":"Lachhuar BO","district":"NA","state":"NA","circle":"Bihar Circle","region":"East Region Bhagalpur"},{"pincode":"811315","office":"Mathurapur BO","district":"NA","state":"NA","circle":"Bihar Circle","region":"East Region Bhagalpur"},{"pincode":"811315","office":"Pirhinda BO","district":"NA","state":"NA","circle":"Bihar Circle","region":"East Region Bhagalpur"},{"pincode":"811315","office":"Rabai BO","district":"NA","state":"NA","circle":"Bihar Circle","region":"East Region Bhagalpur"},{"pincode":"811315","office":"Sawal Bigha BO","district":"NA","state":"NA","circle":"Bihar Circle","region":"East Region Bhagalpur"},{"pincode":"811315","office":"Tal Saharsa BO","district":"NA","state":"NA","circle":"Bihar Circle","region":"East Region Bhagalpur"},{"pincode":"811315","office":"Tarhari BO","district":"NA","state":"NA","circle":"Bihar Circle","region":"East Region Bhagalpur"},{"pincode":"805108","office":"Rewra Mahrath BO","district":"NA","state":"NA","circle":"Bihar Circle","region":"East Region Bhagalpur"},{"pincode":"805131","office":"Kolhana BO","district":"NA","state":"NA","circle":"Bihar Circle","region":"East Region Bhagalpur"},{"pincode":"535280","office":"BHUPALAPURAM","district":"NA","state":"NA","circle":"Andhra Pradesh Circle","region":"Visakhapatnam Region"},{"pincode":"785631","office":"L Longidong BO","district":"NA","state":"NA","circle":"Assam Circle","region":"Dibrugarh Region"},{"pincode":"507210","office":"Marrigudem B.O","district":"NA","state":"NA","circle":"Telangana Circle","region":"Hyderabad Region"},{"pincode":"517508","office":"Oteru B.O","district":"NA","state":"NA","circle":"Andhra Pradesh Circle","region":"Kurnool Region"},{"pincode":"534275","office":"Yerramsettivaripalem B.O","district":"NA","state":"NA","circle":"Andhra Pradesh Circle","region":"Vijayawada Region"},{"pincode":"815351","office":"Mohra BO","district":"NA","state":"NA","circle":"Jharkhand Circle","region":"DivReportingCircle"},{"pincode":"583152","office":"Ubbalagandi B.O","district":"NA","state":"NA","circle":"Karnataka Circle","region":"North Karnataka Region"},{"pincode":"173022","office":"Chhou Bhogar","district":"NA","state":"NA","circle":"Himachal Pradesh Circle","region":"DivReportingCircle"},{"pincode":"570010","office":"SARKARI UTTNAHALLI","district":"NA","state":"NA","circle":"Karnataka Circle","region":"South Karnataka Region"},{"pincode":"574240","office":"PERLA BAIPADY B.O","district":"NA","state":"NA","circle":"Karnataka Circle","region":"South Karnataka Region"},{"pincode":"121004","office":"PYALA BO","district":"NA","state":"NA","circle":"Haryana Circle","region":"NA"},{"pincode":"491665","office":"Goplinchuwa","district":"NA","state":"NA","circle":"Chattisgarh Circle","region":"NA"},{"pincode":"491229","office":"Muchar","district":"NA","state":"NA","circle":"Chattisgarh Circle","region":"NA"},{"pincode":"491229","office":"Hathra","district":"NA","state":"NA","circle":"Chattisgarh Circle","region":"NA"},{"pincode":"491229","office":"Sudiyal","district":"NA","state":"NA","circle":"Chattisgarh Circle","region":"NA"},{"pincode":"491666","office":"Bitejhar","district":"NA","state":"NA","circle":"Chattisgarh Circle","region":"NA"},{"pincode":"491666","office":"Parwahidih","district":"NA","state":"NA","circle":"Chattisgarh Circle","region":"NA"},{"pincode":"193411","office":"Kralnewa","district":"NA","state":"NA","circle":"Jammu Kashmir Circle","region":"Srinagar HQ Region"},{"pincode":"825314","office":"Barughutu","district":"NA","state":"NA","circle":"Jharkhand Circle","region":"DivReportingCircle"},{"pincode":"825404","office":"Dumarwar","district":"NA","state":"NA","circle":"Jharkhand Circle","region":"DivReportingCircle"},{"pincode":"825103","office":"Jangi","district":"NA","state":"NA","circle":"Jharkhand Circle","region":"DivReportingCircle"},{"pincode":"676510","office":"Poovanchina BO","district":"NA","state":"NA","circle":"Kerala Circle","region":"Calicut Region"},{"pincode":"471301","office":"GOPALPURA BO","district":"NA","state":"NA","circle":"Madhya Pradesh Circle","region":"Jabalpur Region"},{"pincode":"444803","office":"Sakhari B.O","district":"NA","state":"NA","circle":"Maharashtra Circle","region":"Nagpur Region"},{"pincode":"443301","office":"Bartala B.O","district":"NA","state":"NA","circle":"Maharashtra Circle","region":"Nagpur Region"},{"pincode":"457114","office":"Moriya B.O","district":"NA","state":"NA","circle":"Madhya Pradesh Circle","region":"Indore Region"},{"pincode":"457226","office":"Sohangarh B.O","district":"NA","state":"NA","circle":"Madhya Pradesh Circle","region":"Indore Region"},{"pincode":"795138","office":"Moirangpalli B.O","district":"NA","state":"NA","circle":"North Eastern Circle","region":"North East - II Region"},{"pincode":"414403","office":"Siddhatek B.O","district":"NA","state":"NA","circle":"Maharashtra Circle","region":"Pune Region"},{"pincode":"673019","office":"Manakkadavu BO","district":"NA","state":"NA","circle":"Kerala Circle","region":"Calicut Region"},{"pincode":"423102","office":"Kankapur","district":"NA","state":"NA","circle":"Maharashtra Circle","region":"Navi Mumbai Region"},{"pincode":"431717","office":"Yergi","district":"NA","state":"NA","circle":"Maharashtra Circle","region":"Regional Office Aurangabad"},{"pincode":"416404","office":"Kolgiri BO","district":"NA","state":"NA","circle":"Maharashtra Circle","region":"Goa-Panaji Region"},{"pincode":"140306","office":"Kurari","district":"NA","state":"NA","circle":"Punjab Circle","region":"DivReportingCircle"},{"pincode":"345024","office":"Prabhupura B.O","district":"NA","state":"NA","circle":"Rajasthan Circle","region":"Jodhpur Region"},{"pincode":"304502","office":"Barol B.O","district":"NA","state":"NA","circle":"Rajasthan Circle","region":"Ajmer Region"},{"pincode":"209206","office":"Gucchupur","district":"NA","state":"NA","circle":"Uttar Pradesh Circle","region":"Kanpur Region"},{"pincode":"272192","office":"Nizamabad B.O","district":"NA","state":"NA","circle":"Uttar Pradesh Circle","region":"Gorakhpur Region"},{"pincode":"222101","office":"Kalan B.O","district":"NA","state":"NA","circle":"Uttar Pradesh Circle","region":"Prayagraj Regional Office"},{"pincode":"228172","office":"Rupaipur B.O","district":"NA","state":"NA","circle":"Uttar Pradesh Circle","region":"Prayagraj Regional Office"},{"pincode":"502932","office":"Ramachandrapuram NDC","district":"NA","state":"NA","circle":"Telangana Circle","region":"Hyderabad City Region"},{"pincode":"500918","office":"NDC Sanathnagar","district":"NA","state":"NA","circle":"Telangana Circle","region":"Hyderabad City Region"},{"pincode":"500119","office":"Narsingi SO","district":"NA","state":"NA","circle":"Telangana Circle","region":"Hyderabad City Region"},{"pincode":"500920","office":"NDC Padmaraonagar","district":"NA","state":"NA","circle":"Telangana Circle","region":"Hyderabad City Region"},{"pincode":"500903","office":"NDC Secunderabad","district":"NA","state":"NA","circle":"Telangana Circle","region":"Hyderabad City Region"},{"pincode":"500972","office":"NDC Kukatpally","district":"NA","state":"NA","circle":"Telangana Circle","region":"Hyderabad City Region"},{"pincode":"800008","office":"BPC Counter","district":"NA","state":"NA","circle":"Bihar Circle","region":"DivReportingCircle"},{"pincode":"800033","office":"PATNA GPO NDC","district":"NA","state":"NA","circle":"Bihar Circle","region":"DivReportingCircle"},{"pincode":"380011","office":"NDC Maninagar","district":"NA","state":"NA","circle":"Gujarat Circle","region":"Ahmedabad HQ Region"},{"pincode":"395014","office":"NDC NANPURA","district":"NA","state":"NA","circle":"Gujarat Circle","region":"Vadodara Region"},{"pincode":"390008","office":"NDC FATEGANJ","district":"NA","state":"NA","circle":"Gujarat Circle","region":"Vadodara Region"},{"pincode":"134999","office":"NDC Sector 15 Panchkula","district":"NA","state":"NA","circle":"Haryana Circle","region":"DivReportingCircle"},{"pincode":"560098","office":"Rajarajeshwarinagar Parcel Processing Center","district":"NA","state":"NA","circle":"Karnataka Circle","region":"Bengaluru HQ Region"},{"pincode":"688051","office":"Nodal Delivery Centre Alappuzha","district":"NA","state":"NA","circle":"Kerala Circle","region":"Kochi Region"},{"pincode":"683051","office":"Nodal Delivery Centre Aluva","district":"NA","state":"NA","circle":"Kerala Circle","region":"Kochi Region"},{"pincode":"474005","office":"Gwalior Residency Nodal Delivery Center","district":"NA","state":"NA","circle":"Madhya Pradesh Circle","region":"DivReportingCircle"},{"pincode":"400186","office":"NDC Ghatkopar West PO","district":"NA","state":"NA","circle":"Maharashtra Circle","region":"Mumbai Region"},{"pincode":"411079","office":"NDC Yerwada","district":"NA","state":"NA","circle":"Maharashtra Circle","region":"Pune Region"},{"pincode":"411080","office":"NDC Hadapsar IE","district":"NA","state":"NA","circle":"Maharashtra Circle","region":"Pune Region"},{"pincode":"799120","office":"IDC Radhakishorepur HO","district":"NA","state":"NA","circle":"North Eastern Circle","region":"North East - I Region"},{"pincode":"222101","office":"Belwai S.O","district":"NA","state":"NA","circle":"Uttar Pradesh Circle","region":"Prayagraj Regional Office"},{"pincode":"734091","office":"NDC Siliguri","district":"NA","state":"NA","circle":"West Bengal Circle","region":"North Bengal Region"},{"pincode":"712291","office":"NDC Rishra","district":"NA","state":"NA","circle":"West Bengal Circle","region":"South Bengal Region"},{"pincode":"508214","office":"Laxmi Naik Thanda B.O","district":"NA","state":"NA","circle":"Telangana Circle","region":"Hyderabad Region"},{"pincode":"509401","office":"Rayavaram B.O","district":"NA","state":"NA","circle":"Telangana Circle","region":"Hyderabad Region"},{"pincode":"506313","office":"Kothur B.O","district":"NA","state":"NA","circle":"Telangana Circle","region":"Hyderabad Region"},{"pincode":"506313","office":"Reddipalem B.O","district":"NA","state":"NA","circle":"Telangana Circle","region":"Hyderabad Region"},{"pincode":"506313","office":"BANDAMPALLY","district":"NA","state":"NA","circle":"Telangana Circle","region":"Hyderabad Region"},{"pincode":"515767","office":"Anumpalli","district":"NA","state":"NA","circle":"Andhra Pradesh Circle","region":"Kurnool Region"},{"pincode":"533240","office":"Bellampudi B.O","district":"NA","state":"NA","circle":"Andhra Pradesh Circle","region":"Visakhapatnam Region"},{"pincode":"804454","office":"Tineri BO","district":"NA","state":"NA","circle":"Bihar Circle","region":"DivReportingCircle"},{"pincode":"804454","office":"Jamalpur BO","district":"NA","state":"NA","circle":"Bihar Circle","region":"DivReportingCircle"},{"pincode":"494001","office":"Machkot B.O","district":"NA","state":"NA","circle":"Chattisgarh Circle","region":"NA"},{"pincode":"494001","office":"Tiriya B.O","district":"NA","state":"NA","circle":"Chattisgarh Circle","region":"NA"},{"pincode":"494001","office":"Tolawada B.O","district":"NA","state":"NA","circle":"Chattisgarh Circle","region":"NA"},{"pincode":"494447","office":"Balnendra B.O","district":"NA","state":"NA","circle":"Chattisgarh Circle","region":"NA"},{"pincode":"494450","office":"Nugur B.O","district":"NA","state":"NA","circle":"Chattisgarh Circle","region":"NA"},{"pincode":"494450","office":"Pallewaya B.O","district":"NA","state":"NA","circle":"Chattisgarh Circle","region":"NA"},{"pincode":"494450","office":"Edasmeta B.O","district":"NA","state":"NA","circle":"Chattisgarh Circle","region":"NA"},{"pincode":"494450","office":"Usapari B.O","district":"NA","state":"NA","circle":"Chattisgarh Circle","region":"NA"},{"pincode":"494450","office":"Kerpe (Dudepalli) BO","district":"NA","state":"NA","circle":"Chattisgarh Circle","region":"NA"},{"pincode":"494450","office":"Fundari B.O","district":"NA","state":"NA","circle":"Chattisgarh Circle","region":"NA"},{"pincode":"494444","office":"Matla B.O","district":"NA","state":"NA","circle":"Chattisgarh Circle","region":"NA"},{"pincode":"494449","office":"Basanpur B.O","district":"NA","state":"NA","circle":"Chattisgarh Circle","region":"NA"},{"pincode":"494449","office":"Mangnar BO","district":"NA","state":"NA","circle":"Chattisgarh Circle","region":"NA"},{"pincode":"494449","office":"Alnar B.O","district":"NA","state":"NA","circle":"Chattisgarh Circle","region":"NA"},{"pincode":"494449","office":"Mathadi B.O","district":"NA","state":"NA","circle":"Chattisgarh Circle","region":"NA"},{"pincode":"494111","office":"Bhimapuram (misiguda) B.O","district":"NA","state":"NA","circle":"Chattisgarh Circle","region":"NA"},{"pincode":"494111","office":"Puwarti B.O","district":"NA","state":"NA","circle":"Chattisgarh Circle","region":"NA"},{"pincode":"494111","office":"Alampalli B.O","district":"NA","state":"NA","circle":"Chattisgarh Circle","region":"NA"},{"pincode":"494111","office":"Samsetti B.O","district":"NA","state":"NA","circle":"Chattisgarh Circle","region":"NA"},{"pincode":"494111","office":"Upampali B.O","district":"NA","state":"NA","circle":"Chattisgarh Circle","region":"NA"},{"pincode":"494111","office":"Punpalli B.O","district":"NA","state":"NA","circle":"Chattisgarh Circle","region":"NA"},{"pincode":"494441","office":"Budgum B.O","district":"NA","state":"NA","circle":"Chattisgarh Circle","region":"NA"},{"pincode":"494441","office":"Katoli B.O","district":"NA","state":"NA","circle":"Chattisgarh Circle","region":"NA"},{"pincode":"494441","office":"Hitameta-2 BO","district":"NA","state":"NA","circle":"Chattisgarh Circle","region":"NA"},{"pincode":"494441","office":"Pichchikoder B.O","district":"NA","state":"NA","circle":"Chattisgarh Circle","region":"NA"},{"pincode":"494114","office":"Banjhwahi B.O","district":"NA","state":"NA","circle":"Chattisgarh Circle","region":"NA"},{"pincode":"494114","office":"Singaram B.O","district":"NA","state":"NA","circle":"Chattisgarh Circle","region":"NA"},{"pincode":"494114","office":"Dharmapenta B.O","district":"NA","state":"NA","circle":"Chattisgarh Circle","region":"NA"},{"pincode":"494114","office":"Potakpalli B.O","district":"NA","state":"NA","circle":"Chattisgarh Circle","region":"NA"},{"pincode":"494114","office":"Ramaram","district":"NA","state":"NA","circle":"Chattisgarh Circle","region":"NA"},{"pincode":"494552","office":"Adpal B.O","district":"NA","state":"NA","circle":"Chattisgarh Circle","region":"NA"},{"pincode":"494552","office":"Chhote Bedma B.O","district":"NA","state":"NA","circle":"Chattisgarh Circle","region":"NA"},{"pincode":"494552","office":"Nayanar B.O","district":"NA","state":"NA","circle":"Chattisgarh Circle","region":"NA"},{"pincode":"494552","office":"Barrem B.O","district":"NA","state":"NA","circle":"Chattisgarh Circle","region":"NA"},{"pincode":"494111","office":"Maroki B.O","district":"NA","state":"NA","circle":"Chattisgarh Circle","region":"NA"},{"pincode":"494111","office":"Gudara B.O","district":"NA","state":"NA","circle":"Chattisgarh Circle","region":"NA"},{"pincode":"494442","office":"Sanwgel B.O","district":"NA","state":"NA","circle":"Chattisgarh Circle","region":"NA"},{"pincode":"494442","office":"Chhotebodenar B.O","district":"NA","state":"NA","circle":"Chattisgarh Circle","region":"NA"},{"pincode":"494442","office":"Badekakloor-2 B.O","district":"NA","state":"NA","circle":"Chattisgarh Circle","region":"NA"},{"pincode":"494115","office":"Kudumkhodra B.O","district":"NA","state":"NA","circle":"Chattisgarh Circle","region":"NA"},{"pincode":"494115","office":"Kandanar B.O","district":"NA","state":"NA","circle":"Chattisgarh Circle","region":"NA"},{"pincode":"494115","office":"Birchhatpal B.O","district":"NA","state":"NA","circle":"Chattisgarh Circle","region":"NA"},{"pincode":"494665","office":"Nawagawdegaon B.O","district":"NA","state":"NA","circle":"Chattisgarh Circle","region":"NA"},{"pincode":"494665","office":"Dangra BO","district":"NA","state":"NA","circle":"Chattisgarh Circle","region":"NA"},{"pincode":"494665","office":"Badrangi B.O","district":"NA","state":"NA","circle":"Chattisgarh Circle","region":"NA"},{"pincode":"494669","office":"Jalhur B.O","district":"NA","state":"NA","circle":"Chattisgarh Circle","region":"NA"},{"pincode":"494226","office":"Sirsikalar","district":"NA","state":"NA","circle":"Chattisgarh Circle","region":"DivReportingCircle"},{"pincode":"494226","office":"Umargaon-A","district":"NA","state":"NA","circle":"Chattisgarh Circle","region":"DivReportingCircle"},{"pincode":"494226","office":"Chichdongari","district":"NA","state":"NA","circle":"Chattisgarh Circle","region":"DivReportingCircle"},{"pincode":"494661","office":"Karlakha","district":"NA","state":"NA","circle":"Chattisgarh Circle","region":"DivReportingCircle"},{"pincode":"494230","office":"Pusgaon B.O","district":"NA","state":"NA","circle":"Chattisgarh Circle","region":"NA"},{"pincode":"494230","office":"Tuskaal B.O","district":"NA","state":"NA","circle":"Chattisgarh Circle","region":"NA"},{"pincode":"494230","office":"Paalarmeta B.O","district":"NA","state":"NA","circle":"Chattisgarh Circle","region":"NA"},{"pincode":"494230","office":"Pusaghati B.O","district":"NA","state":"NA","circle":"Chattisgarh Circle","region":"NA"},{"pincode":"494662","office":"Palli","district":"NA","state":"NA","circle":"Chattisgarh Circle","region":"DivReportingCircle"},{"pincode":"494662","office":"Thulthuli","district":"NA","state":"NA","circle":"Chattisgarh Circle","region":"DivReportingCircle"},{"pincode":"494226","office":"Pusawand","district":"NA","state":"NA","circle":"Chattisgarh Circle","region":"DivReportingCircle"},{"pincode":"494661","office":"Kalmanar","district":"NA","state":"NA","circle":"Chattisgarh Circle","region":"DivReportingCircle"},{"pincode":"494661","office":"Kundla","district":"NA","state":"NA","circle":"Chattisgarh Circle","region":"DivReportingCircle"},{"pincode":"494661","office":"Pangud","district":"NA","state":"NA","circle":"Chattisgarh Circle","region":"DivReportingCircle"},{"pincode":"494661","office":"HalamiMunjmeta B.O","district":"NA","state":"NA","circle":"Chattisgarh Circle","region":"NA"},{"pincode":"494661","office":"Huchadi B.O","district":"NA","state":"NA","circle":"Chattisgarh Circle","region":"NA"},{"pincode":"802312","office":"Ramapur BO","district":"NA","state":"NA","circle":"Bihar Circle","region":"DivReportingCircle"},{"pincode":"804429","office":"Sendhwan BO","district":"NA","state":"NA","circle":"Bihar Circle","region":"DivReportingCircle"},{"pincode":"811315","office":"Dhira BO","district":"NA","state":"NA","circle":"Bihar Circle","region":"East Region Bhagalpur"},{"pincode":"811315","office":"Ghonghsa BO","district":"NA","state":"NA","circle":"Bihar Circle","region":"East Region Bhagalpur"},{"pincode":"811315","office":"Matashi BO","district":"NA","state":"NA","circle":"Bihar Circle","region":"East Region Bhagalpur"},{"pincode":"811315","office":"Patambar BO","district":"NA","state":"NA","circle":"Bihar Circle","region":"East Region Bhagalpur"},{"pincode":"811315","office":"Sarsa Bichwe BO","district":"NA","state":"NA","circle":"Bihar Circle","region":"East Region Bhagalpur"},{"pincode":"811315","office":"Bhulo B.O","district":"NA","state":"NA","circle":"Bihar Circle","region":"East Region Bhagalpur"},{"pincode":"805104","office":"Kumbhi BO","district":"NA","state":"NA","circle":"Bihar Circle","region":"East Region Bhagalpur"},{"pincode":"805130","office":"Kutri BO","district":"NA","state":"NA","circle":"Bihar Circle","region":"East Region Bhagalpur"},{"pincode":"845450","office":"Kumarbagh BO","district":"NA","state":"NA","circle":"Bihar Circle","region":"Muzaffarpur Region"},{"pincode":"517508","office":"Vedanthapuram Agraharam BO","district":"NA","state":"NA","circle":"Andhra Pradesh Circle","region":"Kurnool Region"},{"pincode":"835201","office":"ELA BO","district":"NA","state":"NA","circle":"Jharkhand Circle","region":"DivReportingCircle"},{"pincode":"814145","office":"GANGWARA BO","district":"NA","state":"NA","circle":"Jharkhand Circle","region":"DivReportingCircle"},{"pincode":"172030","office":"Dalan","district":"NA","state":"NA","circle":"Himachal Pradesh Circle","region":"DivReportingCircle"},{"pincode":"184120","office":"Badali B.O","district":"NA","state":"NA","circle":"Jammu Kashmir Circle","region":"JAMMU RN"},{"pincode":"577512","office":"KANDANAKOVI","district":"NA","state":"NA","circle":"Karnataka Circle","region":"South Karnataka Region"},{"pincode":"491229","office":"Chichwahi","district":"NA","state":"NA","circle":"Chattisgarh Circle","region":"NA"},{"pincode":"491229","office":"Madanwada","district":"NA","state":"NA","circle":"Chattisgarh Circle","region":"NA"},{"pincode":"491666","office":"Pidingpar","district":"NA","state":"NA","circle":"Chattisgarh Circle","region":"NA"},{"pincode":"491666","office":"Tatoda","district":"NA","state":"NA","circle":"Chattisgarh Circle","region":"NA"},{"pincode":"825311","office":"Darikala","district":"NA","state":"NA","circle":"Jharkhand Circle","region":"DivReportingCircle"},{"pincode":"825101","office":"Dohakatu","district":"NA","state":"NA","circle":"Jharkhand Circle","region":"DivReportingCircle"},{"pincode":"829117","office":"Dhawaiya","district":"NA","state":"NA","circle":"Jharkhand Circle","region":"DivReportingCircle"},{"pincode":"133006","office":"Brahman Majra B.O","district":"NA","state":"NA","circle":"Haryana Circle","region":"NA"},{"pincode":"122004","office":"Nahar Pur Rupa","district":"NA","state":"NA","circle":"Haryana Circle","region":"DivReportingCircle"},{"pincode":"383350","office":"Moti Panduri B.O","district":"NA","state":"NA","circle":"Gujarat Circle","region":"Ahmedabad HQ Region"},{"pincode":"795106","office":"Khamsom B.O","district":"NA","state":"NA","circle":"North Eastern Circle","region":"North East - II Region"},{"pincode":"796005","office":"SALEM VENG BO","district":"NA","state":"NA","circle":"North Eastern Circle","region":"North East - I Region"},{"pincode":"796290","office":"MIMBUNG","district":"NA","state":"NA","circle":"North Eastern Circle","region":"North East - I Region"},{"pincode":"477450","office":"Rawatpura sarkar ashram B.o","district":"NA","state":"NA","circle":"Madhya Pradesh Circle","region":"DivReportingCircle"},{"pincode":"695581","office":"Tehnopark","district":"NA","state":"NA","circle":"Kerala Circle","region":"DivReportingCircle"},{"pincode":"414002","office":"Dahigaon B.O","district":"NA","state":"NA","circle":"Maharashtra Circle","region":"Pune Region"},{"pincode":"486661","office":"Bendua B.O","district":"NA","state":"NA","circle":"Madhya Pradesh Circle","region":"Jabalpur Region"},{"pincode":"625582","office":"Bodi Hill North BO","district":"NA","state":"NA","circle":"Tamilnadu Circle","region":"Southern Region Madurai"},{"pincode":"625705","office":"Saptur R.F","district":"NA","state":"NA","circle":"Tamilnadu Circle","region":"Southern Region Madurai"},{"pincode":"603202","office":"KUMIZHI BO","district":"NA","state":"NA","circle":"Tamilnadu Circle","region":"Chennai City Region"},{"pincode":"636104","office":"Pelapadi BO","district":"NA","state":"NA","circle":"Tamilnadu Circle","region":"Western Region Coimbatore"},{"pincode":"341521","office":"Gonarda B.O","district":"NA","state":"NA","circle":"Rajasthan Circle","region":"Jodhpur Region"},{"pincode":"341029","office":"Hanuman Nagar","district":"NA","state":"NA","circle":"Rajasthan Circle","region":"Jodhpur Region"},{"pincode":"343041","office":"Palri Solankiyan BO","district":"NA","state":"NA","circle":"Rajasthan Circle","region":"Jodhpur Region"},{"pincode":"248165","office":"Bhanjra B.O.","district":"NA","state":"NA","circle":"Uttarakhand Circle","region":"DivReportingCircle"},{"pincode":"222101","office":"Harpur B.O","district":"NA","state":"NA","circle":"Uttar Pradesh Circle","region":"Prayagraj Regional Office"},{"pincode":"228172","office":"Kalan B.O","district":"NA","state":"NA","circle":"Uttar Pradesh Circle","region":"Prayagraj Regional Office"},{"pincode":"221011","office":"AKHARI","district":"NA","state":"NA","circle":"Uttar Pradesh Circle","region":"Varanasi Region"},{"pincode":"606107","office":"Nagar BO","district":"NA","state":"NA","circle":"Tamilnadu Circle","region":"Central Region Trichirapalli"},{"pincode":"639003","office":"Othaiyur B.O","district":"NA","state":"NA","circle":"Tamilnadu Circle","region":"Central Region Trichirapalli"},{"pincode":"600002","office":"CPRC Chennai","district":"NA","state":"NA","circle":"Tamilnadu Circle","region":"Chennai City Region"},{"pincode":"500984","office":"NDC Kothaguda","district":"NA","state":"NA","circle":"Telangana Circle","region":"Hyderabad City Region"},{"pincode":"500930","office":"NDC Rajendranagar","district":"NA","state":"NA","circle":"Telangana Circle","region":"Hyderabad City Region"},{"pincode":"781041","office":"NDC Guwahati","district":"NA","state":"NA","circle":"Assam Circle","region":"DivReportingCircle"},{"pincode":"801308","office":"Daniyawan SO","district":"NA","state":"NA","circle":"Bihar Circle","region":"NA"},{"pincode":"805142","office":"MESKAUR SO","district":"NA","state":"NA","circle":"Bihar Circle","region":"East Region Bhagalpur"},{"pincode":"394230","office":"Kanakpur S.O","district":"NA","state":"NA","circle":"Gujarat Circle","region":"Vadodara Region"},{"pincode":"590100","office":"PNDC Belagavi HO","district":"NA","state":"NA","circle":"Karnataka Circle","region":"North Karnataka Region"},{"pincode":"682053","office":"NDC Edapally","district":"NA","state":"NA","circle":"Kerala Circle","region":"Kochi Region"},{"pincode":"691051","office":"NDC KOLLAM","district":"NA","state":"NA","circle":"Kerala Circle","region":"DivReportingCircle"},{"pincode":"400153","office":"NDC Azad Nagar","district":"NA","state":"NA","circle":"Maharashtra Circle","region":"Mumbai Region"},{"pincode":"441124","office":"Khapari SO","district":"NA","state":"NA","circle":"Maharashtra Circle","region":"Nagpur Region"},{"pincode":"411077","office":"NDC Chinchwad East","district":"NA","state":"NA","circle":"Maharashtra Circle","region":"Pune Region"},{"pincode":"411075","office":"NDC Shivajinagar","district":"NA","state":"NA","circle":"Maharashtra Circle","region":"Pune Region"},{"pincode":"799001","office":"IDC Agartala","district":"NA","state":"NA","circle":"North Eastern Circle","region":"North East - I Region"},{"pincode":"600202","office":"TTTI Taramani NDC","district":"NA","state":"NA","circle":"Tamilnadu Circle","region":"Chennai City Region"},{"pincode":"736209","office":"Natabari S.O","district":"NA","state":"NA","circle":"West Bengal Circle","region":"North Bengal Region"},{"pincode":"500927","office":"NDC Barkatpura","district":"NA","state":"NA","circle":"Telangana Circle","region":"Hyderabad City Region"}]