[{"pincode":"798627","office":"Aizuto B.O","district":"ZUNHEBOTO","state":"NAGALAND","circle":"North Eastern Circle","region":"North East - II Region"},{"pincode":"797115","office":"Aoyimti B.O","district":"DIMAPUR","state":"NAGALAND","circle":"North Eastern Circle","region":"North East - II Region"},{"pincode":"797099","office":"Liowokha Old","district":"WOKHA","state":"NAGALAND","circle":"North Eastern Circle","region":"North East - II Region"},{"pincode":"798603","office":"Chengloisho B.O","district":"MON","state":"NAGALAND","circle":"North Eastern Circle","region":"North East - II Region"},{"pincode":"798603","office":"Chinglong B.O","district":"MON","state":"NAGALAND","circle":"North Eastern Circle","region":"North East - II Region"},{"pincode":"798603","office":"Pessao B.O","district":"MON","state":"NAGALAND","circle":"North Eastern Circle","region":"North East - II Region"},{"pincode":"798603","office":"Tobu B.O","district":"MON","state":"NAGALAND","circle":"North Eastern Circle","region":"North East - II Region"},{"pincode":"797104","office":"Phugwu B.O","district":"PHEK","state":"NAGALAND","circle":"North Eastern Circle","region":"North East - II Region"},{"pincode":"798614","office":"Mongsenyimti B.O","district":"MOKOKCHUNG","state":"NAGALAND","circle":"North Eastern Circle","region":"North East - II Region"},{"pincode":"797103","office":"Nihekhu B.O","district":"DIMAPUR","state":"NAGALAND","circle":"North Eastern Circle","region":"North East - II Region"},{"pincode":"797103","office":"Pimla B.O","district":"DIMAPUR","state":"NAGALAND","circle":"North Eastern Circle","region":"North East - II Region"},{"pincode":"797116","office":"Khehekhu B.O","district":"DIMAPUR","state":"NAGALAND","circle":"North Eastern Circle","region":"North East - II Region"},{"pincode":"797116","office":"Padampukhuri B.O","district":"DIMAPUR","state":"NAGALAND","circle":"North Eastern Circle","region":"North East - II Region"},{"pincode":"797112","office":"Hening Kunglwa B.O","district":"PEREN","state":"NAGALAND","circle":"North Eastern Circle","region":"North East - II Region"},{"pincode":"797112","office":"Khermahal B.O","district":"DIMAPUR","state":"NAGALAND","circle":"North Eastern Circle","region":"North East - II Region"},{"pincode":"797112","office":"Hakhizhe B.O","district":"DIMAPUR","state":"NAGALAND","circle":"North Eastern Circle","region":"North East - II Region"},{"pincode":"797111","office":"Sungro B.O","district":"WOKHA","state":"NAGALAND","circle":"North Eastern Circle","region":"North East - II Region"},{"pincode":"798611","office":"Kisethong B.O","district":"KIPHIRE","state":"NAGALAND","circle":"North Eastern Circle","region":"North East - II Region"},{"pincode":"798611","office":"Pungro B.O","district":"KIPHIRE","state":"NAGALAND","circle":"North Eastern Circle","region":"North East - II Region"},{"pincode":"798611","office":"Singrup B.O","district":"KIPHIRE","state":"NAGALAND","circle":"North Eastern Circle","region":"North East - II Region"},{"pincode":"798611","office":"Penkim","district":"KIPHIRE","state":"NAGALAND","circle":"North Eastern Circle","region":"North East - II Region"},{"pincode":"797006","office":"Kigwema B.O","district":"KOHIMA","state":"NAGALAND","circle":"North Eastern Circle","region":"North East - II Region"},{"pincode":"797006","office":"Viswema B.O","district":"KOHIMA","state":"NAGALAND","circle":"North Eastern Circle","region":"North East - II Region"},{"pincode":"797120","office":"Zubza B.O","district":"KOHIMA","state":"NAGALAND","circle":"North Eastern Circle","region":"North East - II Region"},{"pincode":"797002","office":"Khonoma B.O","district":"KOHIMA","state":"NAGALAND","circle":"North Eastern Circle","region":"North East - II Region"},{"pincode":"797003","office":"Chakhabama B.O","district":"KOHIMA","state":"NAGALAND","circle":"North Eastern Circle","region":"North East - II Region"},{"pincode":"797006","office":"Kedima B.O","district":"KOHIMA","state":"NAGALAND","circle":"North Eastern Circle","region":"North East - II Region"},{"pincode":"797003","office":"Kizocha B.O","district":"KOHIMA","state":"NAGALAND","circle":"North Eastern Circle","region":"North East - II Region"},{"pincode":"798612","office":"Kongsang B.O","district":"TUENSANG","state":"NAGALAND","circle":"North Eastern Circle","region":"North East - II Region"},{"pincode":"797106","office":"Jharnapani B.O","district":"DIMAPUR","state":"NAGALAND","circle":"North Eastern Circle","region":"North East - II Region"},{"pincode":"797106","office":"Molvom B.O","district":"PEREN","state":"NAGALAND","circle":"North Eastern Circle","region":"North East - II Region"},{"pincode":"797114","office":"Akhegwo B.O","district":"PHEK","state":"NAGALAND","circle":"North Eastern Circle","region":"North East - II Region"},{"pincode":"798601","office":"Chare B.O","district":"TUENSANG","state":"NAGALAND","circle":"North Eastern Circle","region":"North East - II Region"},{"pincode":"798601","office":"Fazl Ali College B.O","district":"MOKOKCHUNG","state":"NAGALAND","circle":"North Eastern Circle","region":"North East - II Region"},{"pincode":"798601","office":"Longmisa B.O","district":"MOKOKCHUNG","state":"NAGALAND","circle":"North Eastern Circle","region":"North East - II Region"},{"pincode":"798601","office":"Longsa B.O","district":"MOKOKCHUNG","state":"NAGALAND","circle":"North Eastern Circle","region":"North East - II Region"},{"pincode":"798621","office":"Longpong Senghe B.O","district":"MON","state":"NAGALAND","circle":"North Eastern Circle","region":"North East - II Region"},{"pincode":"798604","office":"Khari B.O","district":"MOKOKCHUNG","state":"NAGALAND","circle":"North Eastern Circle","region":"North East - II Region"},{"pincode":"798622","office":"Baranamsang B.O","district":"MON","state":"NAGALAND","circle":"North Eastern Circle","region":"North East - II Region"},{"pincode":"797113","office":"D. C. Complex B.O","district":"DIMAPUR","state":"NAGALAND","circle":"North Eastern Circle","region":"North East - II Region"},{"pincode":"797004","office":"Meriema B.O","district":"KOHIMA","state":"NAGALAND","circle":"North Eastern Circle","region":"North East - II Region"},{"pincode":"797004","office":"Thizama B.O","district":"KOHIMA","state":"NAGALAND","circle":"North Eastern Circle","region":"North East - II Region"},{"pincode":"798612","office":"Choklangan B.O","district":"Noklak","state":"NAGALAND","circle":"North Eastern Circle","region":"North East - II Region"},{"pincode":"798612","office":"Sanglao B.O","district":"Noklak","state":"NAGALAND","circle":"North Eastern Circle","region":"North East - II Region"},{"pincode":"798601","office":"Khensa B.O","district":"MOKOKCHUNG","state":"NAGALAND","circle":"North Eastern Circle","region":"North East - II Region"},{"pincode":"797120","office":"Pfuchama","district":"KOHIMA","state":"NAGALAND","circle":"North Eastern Circle","region":"North East - II Region"},{"pincode":"797107","office":"Kikruma B.O","district":"PHEK","state":"NAGALAND","circle":"North Eastern Circle","region":"North East - II Region"},{"pincode":"797107","office":"Sakraba B.O","district":"PHEK","state":"NAGALAND","circle":"North Eastern Circle","region":"North East - II Region"},{"pincode":"797108","office":"Losami B.O","district":"PHEK","state":"NAGALAND","circle":"North Eastern Circle","region":"North East - II Region"},{"pincode":"798602","office":"Tiru Upper","district":"MON","state":"NAGALAND","circle":"North Eastern Circle","region":"North East - II Region"},{"pincode":"798602","office":"Oting","district":"MON","state":"NAGALAND","circle":"North Eastern Circle","region":"North East - II Region"},{"pincode":"797109","office":"Ghathashi B.O","district":"ZUNHEBOTO","state":"NAGALAND","circle":"North Eastern Circle","region":"North East - II Region"},{"pincode":"797109","office":"Zephenyu B.O","district":"KOHIMA","state":"NAGALAND","circle":"North Eastern Circle","region":"North East - II Region"},{"pincode":"798628","office":"Huker B.O","district":"TUENSANG","state":"NAGALAND","circle":"North Eastern Circle","region":"North East - II Region"},{"pincode":"798612","office":"Saramati B.O","district":"TUENSANG","state":"NAGALAND","circle":"North Eastern Circle","region":"North East - II Region"},{"pincode":"798612","office":"Shamator B.O","district":"TUENSANG","state":"NAGALAND","circle":"North Eastern Circle","region":"North East - II Region"},{"pincode":"798612","office":"Khudei","district":"TUENSANG","state":"NAGALAND","circle":"North Eastern Circle","region":"North East - II Region"},{"pincode":"798612","office":"Longtang","district":"TUENSANG","state":"NAGALAND","circle":"North Eastern Circle","region":"North East - II Region"},{"pincode":"798612","office":"Hak","district":"TUENSANG","state":"NAGALAND","circle":"North Eastern Circle","region":"North East - II Region"},{"pincode":"798612","office":"Sipongsang","district":"TUENSANG","state":"NAGALAND","circle":"North Eastern Circle","region":"North East - II Region"},{"pincode":"798612","office":"Kingniu","district":"TUENSANG","state":"NAGALAND","circle":"North Eastern Circle","region":"North East - II Region"},{"pincode":"798612","office":"Chipur","district":"TUENSANG","state":"NAGALAND","circle":"North Eastern Circle","region":"North East - II Region"},{"pincode":"798618","office":"Luyang Valley B.O","district":"MOKOKCHUNG","state":"NAGALAND","circle":"North Eastern Circle","region":"North East - II Region"},{"pincode":"798618","office":"Tamlu B.O","district":"MOKOKCHUNG","state":"NAGALAND","circle":"North Eastern Circle","region":"North East - II Region"},{"pincode":"797111","office":"Elumnyu B.O","district":"WOKHA","state":"NAGALAND","circle":"North Eastern Circle","region":"North East - II Region"},{"pincode":"797111","office":"Nyiro B.O","district":"WOKHA","state":"NAGALAND","circle":"North Eastern Circle","region":"North East - II Region"},{"pincode":"797111","office":"Yikhum B.O","district":"WOKHA","state":"NAGALAND","circle":"North Eastern Circle","region":"North East - II Region"},{"pincode":"797111","office":"Doyang BO","district":"WOKHA","state":"NAGALAND","circle":"North Eastern Circle","region":"North East - II Region"},{"pincode":"797110","office":"Khelma B.O","district":"PEREN","state":"NAGALAND","circle":"North Eastern Circle","region":"North East - II Region"},{"pincode":"797110","office":"Saijang","district":"PEREN","state":"NAGALAND","circle":"North Eastern Circle","region":"North East - II Region"},{"pincode":"798620","office":"Aghunato B.O","district":"ZUNHEBOTO","state":"NAGALAND","circle":"North Eastern Circle","region":"North East - II Region"},{"pincode":"798620","office":"Asukhomi B.O","district":"ZUNHEBOTO","state":"NAGALAND","circle":"North Eastern Circle","region":"North East - II Region"},{"pincode":"798620","office":"Asuto B.O","district":"ZUNHEBOTO","state":"NAGALAND","circle":"North Eastern Circle","region":"North East - II Region"},{"pincode":"798620","office":"Satakha B.O","district":"ZUNHEBOTO","state":"NAGALAND","circle":"North Eastern Circle","region":"North East - II Region"},{"pincode":"798620","office":"Satami B.O","district":"ZUNHEBOTO","state":"NAGALAND","circle":"North Eastern Circle","region":"North East - II Region"},{"pincode":"798620","office":"Satoi B.O","district":"ZUNHEBOTO","state":"NAGALAND","circle":"North Eastern Circle","region":"North East - II Region"},{"pincode":"798620","office":"Suruhuto B.O","district":"ZUNHEBOTO","state":"NAGALAND","circle":"North Eastern Circle","region":"North East - II Region"},{"pincode":"798620","office":"Khukishe","district":"ZUNHEBOTO","state":"NAGALAND","circle":"North Eastern Circle","region":"North East - II Region"},{"pincode":"798620","office":"Roto Old","district":"ZUNHEBOTO","state":"NAGALAND","circle":"North Eastern Circle","region":"North East - II Region"},{"pincode":"798620","office":"Ghokhuvi","district":"ZUNHEBOTO","state":"NAGALAND","circle":"North Eastern Circle","region":"North East - II Region"},{"pincode":"798613","office":"Chantongia S.O","district":"MOKOKCHUNG","state":"NAGALAND","circle":"North Eastern Circle","region":"North East - II Region"},{"pincode":"798614","office":"Chuchuyimlang S.O","district":"MOKOKCHUNG","state":"NAGALAND","circle":"North Eastern Circle","region":"North East - II Region"},{"pincode":"797117","office":"Circular Road S.O","district":"DIMAPUR","state":"NAGALAND","circle":"North Eastern Circle","region":"North East - II Region"},{"pincode":"797112","office":"Dimapur S.O","district":"DIMAPUR","state":"NAGALAND","circle":"North Eastern Circle","region":"North East - II Region"},{"pincode":"798625","office":"Longleng S.O","district":"LONGLENG","state":"NAGALAND","circle":"North Eastern Circle","region":"North East - II Region"},{"pincode":"798627","office":"Lumami S.O","district":"ZUNHEBOTO","state":"NAGALAND","circle":"North Eastern Circle","region":"North East - II Region"},{"pincode":"797120","office":"P.R Hill S.O","district":"KOHIMA","state":"NAGALAND","circle":"North Eastern Circle","region":"North East - II Region"},{"pincode":"798612","office":"Tuensang S.O","district":"TUENSANG","state":"NAGALAND","circle":"North Eastern Circle","region":"North East - II Region"},{"pincode":"797118","office":"Signal Village","district":"DIMAPUR","state":"NAGALAND","circle":"North Eastern Circle","region":"North East - II Region"},{"pincode":"798620","office":"Akuhaito B.O","district":"ZUNHEBOTO","state":"NAGALAND","circle":"North Eastern Circle","region":"North East - II Region"},{"pincode":"797115","office":"Sukhovi B.O","district":"DIMAPUR","state":"NAGALAND","circle":"North Eastern Circle","region":"North East - II Region"},{"pincode":"798603","office":"Longching B.O","district":"MON","state":"NAGALAND","circle":"North Eastern Circle","region":"North East - II Region"},{"pincode":"798603","office":"Monyakshu B.O","district":"MON","state":"NAGALAND","circle":"North Eastern Circle","region":"North East - II Region"},{"pincode":"798618","office":"Merangkong B.O","district":"MOKOKCHUNG","state":"NAGALAND","circle":"North Eastern Circle","region":"North East - II Region"},{"pincode":"797105","office":"Phekerkriema","district":"KOHIMA","state":"NAGALAND","circle":"North Eastern Circle","region":"North East - II Region"},{"pincode":"797104","office":"Dzulhami B.O","district":"PHEK","state":"NAGALAND","circle":"North Eastern Circle","region":"North East - II Region"},{"pincode":"798614","office":"Salulamang B.O","district":"MOKOKCHUNG","state":"NAGALAND","circle":"North Eastern Circle","region":"North East - II Region"},{"pincode":"798614","office":"Ungar B.O","district":"MOKOKCHUNG","state":"NAGALAND","circle":"North Eastern Circle","region":"North East - II Region"},{"pincode":"797103","office":"Tenyiphe B.O","district":"DIMAPUR","state":"NAGALAND","circle":"North Eastern Circle","region":"North East - II Region"},{"pincode":"797112","office":"Kuda B.O","district":"DIMAPUR","state":"NAGALAND","circle":"North Eastern Circle","region":"North East - II Region"},{"pincode":"797112","office":"Phaipijan B.O","district":"DIMAPUR","state":"NAGALAND","circle":"North Eastern Circle","region":"North East - II Region"},{"pincode":"797111","office":"Sanis B.O","district":"WOKHA","state":"NAGALAND","circle":"North Eastern Circle","region":"North East - II Region"},{"pincode":"797111","office":"Yamhon B.O","district":"WOKHA","state":"NAGALAND","circle":"North Eastern Circle","region":"North East - II Region"},{"pincode":"798615","office":"Kubulong B.O","district":"MOKOKCHUNG","state":"NAGALAND","circle":"North Eastern Circle","region":"North East - II Region"},{"pincode":"798611","office":"Phalonger B.O","district":"KIPHIRE","state":"NAGALAND","circle":"North Eastern Circle","region":"North East - II Region"},{"pincode":"798611","office":"Sikur B.O","district":"KIPHIRE","state":"NAGALAND","circle":"North Eastern Circle","region":"North East - II Region"},{"pincode":"798611","office":"Tsunger","district":"KIPHIRE","state":"NAGALAND","circle":"North Eastern Circle","region":"North East - II Region"},{"pincode":"798611","office":"Sangkhumti","district":"KIPHIRE","state":"NAGALAND","circle":"North Eastern Circle","region":"North East - II Region"},{"pincode":"798611","office":"Mimi","district":"KIPHIRE","state":"NAGALAND","circle":"North Eastern Circle","region":"North East - II Region"},{"pincode":"797002","office":"Poilwa B.O","district":"PEREN","state":"NAGALAND","circle":"North Eastern Circle","region":"North East - II Region"},{"pincode":"797003","office":"Ciesema B.O","district":"KOHIMA","state":"NAGALAND","circle":"North Eastern Circle","region":"North East - II Region"},{"pincode":"797003","office":"Dihoma B.O","district":"KOHIMA","state":"NAGALAND","circle":"North Eastern Circle","region":"North East - II Region"},{"pincode":"798612","office":"Noksen B.O","district":"TUENSANG","state":"NAGALAND","circle":"North Eastern Circle","region":"North East - II Region"},{"pincode":"798616","office":"Yangli B.O","district":"TUENSANG","state":"NAGALAND","circle":"North Eastern Circle","region":"North East - II Region"},{"pincode":"798625","office":"Yachem B.O","district":"LONGLENG","state":"NAGALAND","circle":"North Eastern Circle","region":"North East - II Region"},{"pincode":"798625","office":"Yongyak B.O","district":"LONGLENG","state":"NAGALAND","circle":"North Eastern Circle","region":"North East - II Region"},{"pincode":"797106","office":"Punglwa B.O","district":"PEREN","state":"NAGALAND","circle":"North Eastern Circle","region":"North East - II Region"},{"pincode":"797114","office":"Pungkhuri B.O","district":"PHEK","state":"NAGALAND","circle":"North Eastern Circle","region":"North East - II Region"},{"pincode":"798601","office":"Chungtia B.O","district":"MOKOKCHUNG","state":"NAGALAND","circle":"North Eastern Circle","region":"North East - II Region"},{"pincode":"798601","office":"Tronger B.O","district":"TUENSANG","state":"NAGALAND","circle":"North Eastern Circle","region":"North East - II Region"},{"pincode":"798601","office":"V. K. Town B.O","district":"ZUNHEBOTO","state":"NAGALAND","circle":"North Eastern Circle","region":"North East - II Region"},{"pincode":"798621","office":"Longwa B.O","district":"MON","state":"NAGALAND","circle":"North Eastern Circle","region":"North East - II Region"},{"pincode":"798621","office":"Singha Chingnyu B.O","district":"MON","state":"NAGALAND","circle":"North Eastern Circle","region":"North East - II Region"},{"pincode":"798621","office":"Waunching B.O","district":"MON","state":"NAGALAND","circle":"North Eastern Circle","region":"North East - II Region"},{"pincode":"798604","office":"Longchem B.O","district":"MOKOKCHUNG","state":"NAGALAND","circle":"North Eastern Circle","region":"North East - II Region"},{"pincode":"798604","office":"Aonokpu","district":"MOKOKCHUNG","state":"NAGALAND","circle":"North Eastern Circle","region":"North East - II Region"},{"pincode":"798604","office":"Shihaphumi","district":"MOKOKCHUNG","state":"NAGALAND","circle":"North Eastern Circle","region":"North East - II Region"},{"pincode":"797101","office":"N.Song B.O","district":"PEREN","state":"NAGALAND","circle":"North Eastern Circle","region":"North East - II Region"},{"pincode":"797101","office":"Tening B.O","district":"PEREN","state":"NAGALAND","circle":"North Eastern Circle","region":"North East - II Region"},{"pincode":"797107","office":"Zavame B.O","district":"PHEK","state":"NAGALAND","circle":"North Eastern Circle","region":"North East - II Region"},{"pincode":"797108","office":"Ketsapo B.O","district":"PHEK","state":"NAGALAND","circle":"North Eastern Circle","region":"North East - II Region"},{"pincode":"797108","office":"Luzaphuhu B.O","district":"PHEK","state":"NAGALAND","circle":"North Eastern Circle","region":"North East - II Region"},{"pincode":"798602","office":"Namsa B.O","district":"MON","state":"NAGALAND","circle":"North Eastern Circle","region":"North East - II Region"},{"pincode":"798602","office":"Zangkham B.O","district":"MON","state":"NAGALAND","circle":"North Eastern Circle","region":"North East - II Region"},{"pincode":"797109","office":"Lazami B.O","district":"ZUNHEBOTO","state":"NAGALAND","circle":"North Eastern Circle","region":"North East - II Region"},{"pincode":"797109","office":"Phenshunyu B.O","district":"KOHIMA","state":"NAGALAND","circle":"North Eastern Circle","region":"North East - II Region"},{"pincode":"797109","office":"Sendenyu B.O","district":"KOHIMA","state":"NAGALAND","circle":"North Eastern Circle","region":"North East - II Region"},{"pincode":"797109","office":"Tsosesunyu B.O","district":"KOHIMA","state":"NAGALAND","circle":"North Eastern Circle","region":"North East - II Region"},{"pincode":"798628","office":"Kuthur B.O","district":"TUENSANG","state":"NAGALAND","circle":"North Eastern Circle","region":"North East - II Region"},{"pincode":"798628","office":"Shampur B.O","district":"TUENSANG","state":"NAGALAND","circle":"North Eastern Circle","region":"North East - II Region"},{"pincode":"798612","office":"Sangtak","district":"TUENSANG","state":"NAGALAND","circle":"North Eastern Circle","region":"North East - II Region"},{"pincode":"798612","office":"Chendang","district":"TUENSANG","state":"NAGALAND","circle":"North Eastern Circle","region":"North East - II Region"},{"pincode":"798612","office":"Langnok","district":"TUENSANG","state":"NAGALAND","circle":"North Eastern Circle","region":"North East - II Region"},{"pincode":"798628","office":"Kiutsukiur","district":"TUENSANG","state":"NAGALAND","circle":"North Eastern Circle","region":"North East - II Region"},{"pincode":"798612","office":"Chilliso","district":"TUENSANG","state":"NAGALAND","circle":"North Eastern Circle","region":"North East - II Region"},{"pincode":"798618","office":"Molungyimsen B.O","district":"MOKOKCHUNG","state":"NAGALAND","circle":"North Eastern Circle","region":"North East - II Region"},{"pincode":"797111","office":"Mekhukla B.O","district":"WOKHA","state":"NAGALAND","circle":"North Eastern Circle","region":"North East - II Region"},{"pincode":"797111","office":"Pongitong B.O","district":"WOKHA","state":"NAGALAND","circle":"North Eastern Circle","region":"North East - II Region"},{"pincode":"797111","office":"Wokha Village B.O","district":"WOKHA","state":"NAGALAND","circle":"North Eastern Circle","region":"North East - II Region"},{"pincode":"797111","office":"Wozhuro B.O","district":"WOKHA","state":"NAGALAND","circle":"North Eastern Circle","region":"North East - II Region"},{"pincode":"797110","office":"Athibung B.O","district":"PEREN","state":"NAGALAND","circle":"North Eastern Circle","region":"North East - II Region"},{"pincode":"797110","office":"Jalukie B B.O","district":"PEREN","state":"NAGALAND","circle":"North Eastern Circle","region":"North East - II Region"},{"pincode":"797110","office":"Lilen B.O","district":"PEREN","state":"NAGALAND","circle":"North Eastern Circle","region":"North East - II Region"},{"pincode":"797110","office":"Mhainamtsi B.O","district":"PEREN","state":"NAGALAND","circle":"North Eastern Circle","region":"North East - II Region"},{"pincode":"797110","office":"Beisumpuikam","district":"PEREN","state":"NAGALAND","circle":"North Eastern Circle","region":"North East - II Region"},{"pincode":"798620","office":"Keltomi","district":"ZUNHEBOTO","state":"NAGALAND","circle":"North Eastern Circle","region":"North East - II Region"},{"pincode":"798620","office":"Xukhepu","district":"ZUNHEBOTO","state":"NAGALAND","circle":"North Eastern Circle","region":"North East - II Region"},{"pincode":"798620","office":"Kivikhu","district":"ZUNHEBOTO","state":"NAGALAND","circle":"North Eastern Circle","region":"North East - II Region"},{"pincode":"798620","office":"Thakiye","district":"ZUNHEBOTO","state":"NAGALAND","circle":"North Eastern Circle","region":"North East - II Region"},{"pincode":"798620","office":"Hokiye","district":"ZUNHEBOTO","state":"NAGALAND","circle":"North Eastern Circle","region":"North East - II Region"},{"pincode":"797103","office":"Chumukedima S.O","district":"DIMAPUR","state":"NAGALAND","circle":"North Eastern Circle","region":"North East - II Region"},{"pincode":"797116","office":"Dimapur Bazar S.O","district":"DIMAPUR","state":"NAGALAND","circle":"North Eastern Circle","region":"North East - II Region"},{"pincode":"797121","office":"Monkhola S.O","district":"KOHIMA","state":"NAGALAND","circle":"North Eastern Circle","region":"North East - II Region"},{"pincode":"798615","office":"Impur S.O","district":"MOKOKCHUNG","state":"NAGALAND","circle":"North Eastern Circle","region":"North East - II Region"},{"pincode":"798601","office":"Mokokchung S.O","district":"MOKOKCHUNG","state":"NAGALAND","circle":"North Eastern Circle","region":"North East - II Region"},{"pincode":"798621","office":"Mon S.O","district":"MON","state":"NAGALAND","circle":"North Eastern Circle","region":"North East - II Region"},{"pincode":"798623","office":"Paper Nagar S.O","district":"MOKOKCHUNG","state":"NAGALAND","circle":"North Eastern Circle","region":"North East - II Region"},{"pincode":"798620","office":"Zunheboto S.O","district":"ZUNHEBOTO","state":"NAGALAND","circle":"North Eastern Circle","region":"North East - II Region"},{"pincode":"798628","office":"Shamator SO","district":"KOHIMA","state":"NAGALAND","circle":"North Eastern Circle","region":"North East - II Region"},{"pincode":"797115","office":"Diphupar B.O","district":"DIMAPUR","state":"NAGALAND","circle":"North Eastern Circle","region":"North East - II Region"},{"pincode":"797115","office":"Suger Mill B.O","district":"DIMAPUR","state":"NAGALAND","circle":"North Eastern Circle","region":"North East - II Region"},{"pincode":"797115","office":"Ikishe B.O","district":"DIMAPUR","state":"NAGALAND","circle":"North Eastern Circle","region":"North East - II Region"},{"pincode":"797115","office":"Toulazouma","district":"DIMAPUR","state":"NAGALAND","circle":"North Eastern Circle","region":"North East - II Region"},{"pincode":"798603","office":"Angphang B.O","district":"MON","state":"NAGALAND","circle":"North Eastern Circle","region":"North East - II Region"},{"pincode":"798603","office":"Chingkao B.O","district":"MON","state":"NAGALAND","circle":"North Eastern Circle","region":"North East - II Region"},{"pincode":"797105","office":"Zhadima B.O","district":"KOHIMA","state":"NAGALAND","circle":"North Eastern Circle","region":"North East - II Region"},{"pincode":"797108","office":"Middle Khomi B.O","district":"PHEK","state":"NAGALAND","circle":"North Eastern Circle","region":"North East - II Region"},{"pincode":"797104","office":"Yorubami B.O","district":"PHEK","state":"NAGALAND","circle":"North Eastern Circle","region":"North East - II Region"},{"pincode":"797103","office":"Maikam B.O","district":"PEREN","state":"NAGALAND","circle":"North Eastern Circle","region":"North East - II Region"},{"pincode":"797118","office":"Thahekhu B.O","district":"DIMAPUR","state":"NAGALAND","circle":"North Eastern Circle","region":"North East - II Region"},{"pincode":"797112","office":"Doyapur B.O","district":"DIMAPUR","state":"NAGALAND","circle":"North Eastern Circle","region":"North East - II Region"},{"pincode":"797106","office":"Razaphema B.O","district":"DIMAPUR","state":"NAGALAND","circle":"North Eastern Circle","region":"North East - II Region"},{"pincode":"797112","office":"Yampha B.O","district":"WOKHA","state":"NAGALAND","circle":"North Eastern Circle","region":"North East - II Region"},{"pincode":"797112","office":"Seluophe BO","district":"DIMAPUR","state":"NAGALAND","circle":"North Eastern Circle","region":"North East - II Region"},{"pincode":"797111","office":"Longtsung B.O","district":"WOKHA","state":"NAGALAND","circle":"North Eastern Circle","region":"North East - II Region"},{"pincode":"797111","office":"Lotsu B.O","district":"WOKHA","state":"NAGALAND","circle":"North Eastern Circle","region":"North East - II Region"},{"pincode":"797111","office":"Moilan B.O","district":"WOKHA","state":"NAGALAND","circle":"North Eastern Circle","region":"North East - II Region"},{"pincode":"798615","office":"Longjang B.O","district":"MOKOKCHUNG","state":"NAGALAND","circle":"North Eastern Circle","region":"North East - II Region"},{"pincode":"798611","office":"Anatongere B.O","district":"KIPHIRE","state":"NAGALAND","circle":"North Eastern Circle","region":"North East - II Region"},{"pincode":"798611","office":"Longmatra B.O","district":"KIPHIRE","state":"NAGALAND","circle":"North Eastern Circle","region":"North East - II Region"},{"pincode":"798611","office":"Sitimi B.O","district":"KIPHIRE","state":"NAGALAND","circle":"North Eastern Circle","region":"North East - II Region"},{"pincode":"797120","office":"Lalmati B.O","district":"KOHIMA","state":"NAGALAND","circle":"North Eastern Circle","region":"North East - II Region"},{"pincode":"797120","office":"Phesama B.O","district":"KOHIMA","state":"NAGALAND","circle":"North Eastern Circle","region":"North East - II Region"},{"pincode":"797003","office":"Chedema B.O","district":"KOHIMA","state":"NAGALAND","circle":"North Eastern Circle","region":"North East - II Region"},{"pincode":"797003","office":"Rusoma B.O","district":"KOHIMA","state":"NAGALAND","circle":"North Eastern Circle","region":"North East - II Region"},{"pincode":"797003","office":"Kijumetouma","district":"KOHIMA","state":"NAGALAND","circle":"North Eastern Circle","region":"North East - II Region"},{"pincode":"798625","office":"Hukpang B.O","district":"LONGLENG","state":"NAGALAND","circle":"North Eastern Circle","region":"North East - II Region"},{"pincode":"798625","office":"Bhumnyu BO","district":"LONGLENG","state":"NAGALAND","circle":"North Eastern Circle","region":"North East - II Region"},{"pincode":"798625","office":"Yongshei","district":"LONGLENG","state":"NAGALAND","circle":"North Eastern Circle","region":"North East - II Region"},{"pincode":"798625","office":"Yongphang","district":"LONGLENG","state":"NAGALAND","circle":"North Eastern Circle","region":"North East - II Region"},{"pincode":"797106","office":"Piphema B.O","district":"DIMAPUR","state":"NAGALAND","circle":"North Eastern Circle","region":"North East - II Region"},{"pincode":"797114","office":"Reguri","district":"PHEK","state":"NAGALAND","circle":"North Eastern Circle","region":"North East - II Region"},{"pincode":"798601","office":"Changki B.O","district":"MOKOKCHUNG","state":"NAGALAND","circle":"North Eastern Circle","region":"North East - II Region"},{"pincode":"798601","office":"Kubza B.O","district":"MOKOKCHUNG","state":"NAGALAND","circle":"North Eastern Circle","region":"North East - II Region"},{"pincode":"798607","office":"Longkhum B.O","district":"MOKOKCHUNG","state":"NAGALAND","circle":"North Eastern Circle","region":"North East - II Region"},{"pincode":"798607","office":"Mangmentong B.O","district":"MOKOKCHUNG","state":"NAGALAND","circle":"North Eastern Circle","region":"North East - II Region"},{"pincode":"798601","office":"S. E. Colony B.O","district":"MOKOKCHUNG","state":"NAGALAND","circle":"North Eastern Circle","region":"North East - II Region"},{"pincode":"798621","office":"Pongkong B.O","district":"MON","state":"NAGALAND","circle":"North Eastern Circle","region":"North East - II Region"},{"pincode":"798604","office":"Alungtaki B.O","district":"MOKOKCHUNG","state":"NAGALAND","circle":"North Eastern Circle","region":"North East - II Region"},{"pincode":"798621","office":"Wakching B.O","district":"MON","state":"NAGALAND","circle":"North Eastern Circle","region":"North East - II Region"},{"pincode":"797113","office":"Duncan Basti B.O","district":"DIMAPUR","state":"NAGALAND","circle":"North Eastern Circle","region":"North East - II Region"},{"pincode":"797113","office":"Kacharigaon","district":"DIMAPUR","state":"NAGALAND","circle":"North Eastern Circle","region":"North East - II Region"},{"pincode":"798612","office":"Nokhu B.O","district":"Noklak","state":"NAGALAND","circle":"North Eastern Circle","region":"North East - II Region"},{"pincode":"798612","office":"Pangsha B.O","district":"Noklak","state":"NAGALAND","circle":"North Eastern Circle","region":"North East - II Region"},{"pincode":"797101","office":"Nchongram B.O","district":"PEREN","state":"NAGALAND","circle":"North Eastern Circle","region":"North East - II Region"},{"pincode":"797107","office":"Khezhakeno B.O","district":"PHEK","state":"NAGALAND","circle":"North Eastern Circle","region":"North East - II Region"},{"pincode":"797107","office":"Zuketsa B.O","district":"PHEK","state":"NAGALAND","circle":"North Eastern Circle","region":"North East - II Region"},{"pincode":"797107","office":"Chizami Town BO","district":"PHEK","state":"NAGALAND","circle":"North Eastern Circle","region":"North East - II Region"},{"pincode":"797108","office":"Khuzami B.O","district":"PHEK","state":"NAGALAND","circle":"North Eastern Circle","region":"North East - II Region"},{"pincode":"797109","office":"Ehunnu B.O","district":"KOHIMA","state":"NAGALAND","circle":"North Eastern Circle","region":"North East - II Region"},{"pincode":"797109","office":"Phenwhenyu B.O","district":"KOHIMA","state":"NAGALAND","circle":"North Eastern Circle","region":"North East - II Region"},{"pincode":"797109","office":"Tseminyu Old Town B.O","district":"KOHIMA","state":"NAGALAND","circle":"North Eastern Circle","region":"North East - II Region"},{"pincode":"798628","office":"Chessore B.O","district":"TUENSANG","state":"NAGALAND","circle":"North Eastern Circle","region":"North East - II Region"},{"pincode":"798612","office":"Chingmei B.O","district":"Noklak","state":"NAGALAND","circle":"North Eastern Circle","region":"North East - II Region"},{"pincode":"798612","office":"Thonokhunyu B.O","district":"Noklak","state":"NAGALAND","circle":"North Eastern Circle","region":"North East - II Region"},{"pincode":"798612","office":"Tuensang Village B.O","district":"TUENSANG","state":"NAGALAND","circle":"North Eastern Circle","region":"North East - II Region"},{"pincode":"798612","office":"Konya","district":"TUENSANG","state":"NAGALAND","circle":"North Eastern Circle","region":"North East - II Region"},{"pincode":"798612","office":"Aniashu","district":"TUENSANG","state":"NAGALAND","circle":"North Eastern Circle","region":"North East - II Region"},{"pincode":"798612","office":"Kenjong","district":"TUENSANG","state":"NAGALAND","circle":"North Eastern Circle","region":"North East - II Region"},{"pincode":"798618","office":"Barakangtsung B.O","district":"MOKOKCHUNG","state":"NAGALAND","circle":"North Eastern Circle","region":"North East - II Region"},{"pincode":"797111","office":"Baghty B.O","district":"WOKHA","state":"NAGALAND","circle":"North Eastern Circle","region":"North East - II Region"},{"pincode":"797111","office":"Chukitong B.O","district":"WOKHA","state":"NAGALAND","circle":"North Eastern Circle","region":"North East - II Region"},{"pincode":"797111","office":"N. Longidong B.O","district":"WOKHA","state":"NAGALAND","circle":"North Eastern Circle","region":"North East - II Region"},{"pincode":"797111","office":"Tsungtsutong B.O","district":"WOKHA","state":"NAGALAND","circle":"North Eastern Circle","region":"North East - II Region"},{"pincode":"797110","office":"New Jalukie B.O","district":"PEREN","state":"NAGALAND","circle":"North Eastern Circle","region":"North East - II Region"},{"pincode":"798620","office":"Atoizu B.O","district":"ZUNHEBOTO","state":"NAGALAND","circle":"North Eastern Circle","region":"North East - II Region"},{"pincode":"798620","office":"Hosephu B.O","district":"ZUNHEBOTO","state":"NAGALAND","circle":"North Eastern Circle","region":"North East - II Region"},{"pincode":"798620","office":"Kichilimi B.O","district":"ZUNHEBOTO","state":"NAGALAND","circle":"North Eastern Circle","region":"North East - II Region"},{"pincode":"798611","office":"Phisami B.O","district":"KIPHIRE","state":"NAGALAND","circle":"North Eastern Circle","region":"North East - II Region"},{"pincode":"798620","office":"Tukuliqa","district":"ZUNHEBOTO","state":"NAGALAND","circle":"North Eastern Circle","region":"North East - II Region"},{"pincode":"797115","office":"Artc S.O","district":"DIMAPUR","state":"NAGALAND","circle":"North Eastern Circle","region":"North East - II Region"},{"pincode":"797002","office":"Kohima Science College S.O","district":"KOHIMA","state":"NAGALAND","circle":"North Eastern Circle","region":"North East - II Region"},{"pincode":"797114","office":"Meluri S.O","district":"PHEK","state":"NAGALAND","circle":"North Eastern Circle","region":"North East - II Region"},{"pincode":"797109","office":"Tseminyu S.O","district":"KOHIMA","state":"NAGALAND","circle":"North Eastern Circle","region":"North East - II Region"},{"pincode":"797111","office":"Wokha S.O","district":"WOKHA","state":"NAGALAND","circle":"North Eastern Circle","region":"North East - II Region"},{"pincode":"797110","office":"Zalukie S.O","district":"PEREN","state":"NAGALAND","circle":"North Eastern Circle","region":"North East - II Region"},{"pincode":"797006","office":"Jakhama S.O","district":"KOHIMA","state":"NAGALAND","circle":"North Eastern Circle","region":"North East - II Region"},{"pincode":"798626","office":"Noklak SO","district":"KOHIMA","state":"NAGALAND","circle":"North Eastern Circle","region":"North East - II Region"},{"pincode":"797115","office":"Showba Old B.O","district":"DIMAPUR","state":"NAGALAND","circle":"North Eastern Circle","region":"North East - II Region"},{"pincode":"798613","office":"Yaongyimsen B.O","district":"MOKOKCHUNG","state":"NAGALAND","circle":"North Eastern Circle","region":"North East - II Region"},{"pincode":"797105","office":"Botsa B.O","district":"KOHIMA","state":"NAGALAND","circle":"North Eastern Circle","region":"North East - II Region"},{"pincode":"797105","office":"Tuophema B.O","district":"KOHIMA","state":"NAGALAND","circle":"North Eastern Circle","region":"North East - II Region"},{"pincode":"797104","office":"Chetheba B.O","district":"PHEK","state":"NAGALAND","circle":"North Eastern Circle","region":"North East - II Region"},{"pincode":"797104","office":"Thevophisumi B.O","district":"PHEK","state":"NAGALAND","circle":"North Eastern Circle","region":"North East - II Region"},{"pincode":"797103","office":"Khoponalla B.O","district":"DIMAPUR","state":"NAGALAND","circle":"North Eastern Circle","region":"North East - II Region"},{"pincode":"797116","office":"Kushiabill B.O","district":"DIMAPUR","state":"NAGALAND","circle":"North Eastern Circle","region":"North East - II Region"},{"pincode":"797112","office":"Nuiland B.O","district":"DIMAPUR","state":"NAGALAND","circle":"North Eastern Circle","region":"North East - II Region"},{"pincode":"798615","office":"Sungratsu B.O","district":"MOKOKCHUNG","state":"NAGALAND","circle":"North Eastern Circle","region":"North East - II Region"},{"pincode":"798611","office":"Kiusam","district":"KIPHIRE","state":"NAGALAND","circle":"North Eastern Circle","region":"North East - II Region"},{"pincode":"798611","office":"Zaonger","district":"KIPHIRE","state":"NAGALAND","circle":"North Eastern Circle","region":"North East - II Region"},{"pincode":"797006","office":"Khuzama B.O","district":"KOHIMA","state":"NAGALAND","circle":"North Eastern Circle","region":"North East - II Region"},{"pincode":"797006","office":"Mima B.O","district":"KOHIMA","state":"NAGALAND","circle":"North Eastern Circle","region":"North East - II Region"},{"pincode":"798616","office":"Chungtore B.O","district":"TUENSANG","state":"NAGALAND","circle":"North Eastern Circle","region":"North East - II Region"},{"pincode":"798625","office":"Sakchi B.O","district":"LONGLENG","state":"NAGALAND","circle":"North Eastern Circle","region":"North East - II Region"},{"pincode":"798625","office":"Mongtikong","district":"LONGLENG","state":"NAGALAND","circle":"North Eastern Circle","region":"North East - II Region"},{"pincode":"798627","office":"Akuluto B.O","district":"ZUNHEBOTO","state":"NAGALAND","circle":"North Eastern Circle","region":"North East - II Region"},{"pincode":"797106","office":"Pherima B.O","district":"DIMAPUR","state":"NAGALAND","circle":"North Eastern Circle","region":"North East - II Region"},{"pincode":"797114","office":"Wazhiho B.O","district":"PHEK","state":"NAGALAND","circle":"North Eastern Circle","region":"North East - II Region"},{"pincode":"797114","office":"Laruri","district":"PHEK","state":"NAGALAND","circle":"North Eastern Circle","region":"North East - II Region"},{"pincode":"798607","office":"Arree Old B.O","district":"WOKHA","state":"NAGALAND","circle":"North Eastern Circle","region":"North East - II Region"},{"pincode":"798601","office":"Nst Colony B.O","district":"MOKOKCHUNG","state":"NAGALAND","circle":"North Eastern Circle","region":"North East - II Region"},{"pincode":"798601","office":"Ongpangkong B.O","district":"MOKOKCHUNG","state":"NAGALAND","circle":"North Eastern Circle","region":"North East - II Region"},{"pincode":"798621","office":"Chui B.O","district":"MON","state":"NAGALAND","circle":"North Eastern Circle","region":"North East - II Region"},{"pincode":"798604","office":"Alungkima B.O","district":"MOKOKCHUNG","state":"NAGALAND","circle":"North Eastern Circle","region":"North East - II Region"},{"pincode":"798604","office":"Chungtia Yimsen B.O","district":"MOKOKCHUNG","state":"NAGALAND","circle":"North Eastern Circle","region":"North East - II Region"},{"pincode":"798604","office":"Mongchen B.O","district":"MOKOKCHUNG","state":"NAGALAND","circle":"North Eastern Circle","region":"North East - II Region"},{"pincode":"798622","office":"Kongon B.O","district":"MON","state":"NAGALAND","circle":"North Eastern Circle","region":"North East - II Region"},{"pincode":"797113","office":"Lengrijan B.O","district":"DIMAPUR","state":"NAGALAND","circle":"North Eastern Circle","region":"North East - II Region"},{"pincode":"798612","office":"Pessu B.O","district":"Noklak","state":"NAGALAND","circle":"North Eastern Circle","region":"North East - II Region"},{"pincode":"798623","office":"Anaki","district":"MOKOKCHUNG","state":"NAGALAND","circle":"North Eastern Circle","region":"North East - II Region"},{"pincode":"797101","office":"Mbaulwa B.O","district":"PEREN","state":"NAGALAND","circle":"North Eastern Circle","region":"North East - II Region"},{"pincode":"797107","office":"Thipuzumi B.O","district":"PHEK","state":"NAGALAND","circle":"North Eastern Circle","region":"North East - II Region"},{"pincode":"797108","office":"Old Phek B.O","district":"PHEK","state":"NAGALAND","circle":"North Eastern Circle","region":"North East - II Region"},{"pincode":"798602","office":"Yannu B.O","district":"MON","state":"NAGALAND","circle":"North Eastern Circle","region":"North East - II Region"},{"pincode":"798602","office":"Zaboka B.O","district":"MON","state":"NAGALAND","circle":"North Eastern Circle","region":"North East - II Region"},{"pincode":"797109","office":"Asukika B.O","district":"KOHIMA","state":"NAGALAND","circle":"North Eastern Circle","region":"North East - II Region"},{"pincode":"797109","office":"Nsunyu B.O","district":"KOHIMA","state":"NAGALAND","circle":"North Eastern Circle","region":"North East - II Region"},{"pincode":"797109","office":"Pughoboto B.O","district":"ZUNHEBOTO","state":"NAGALAND","circle":"North Eastern Circle","region":"North East - II Region"},{"pincode":"798612","office":"Panso B.O","district":"Noklak","state":"NAGALAND","circle":"North Eastern Circle","region":"North East - II Region"},{"pincode":"798612","office":"Sangsanyu B.O","district":"TUENSANG","state":"NAGALAND","circle":"North Eastern Circle","region":"North East - II Region"},{"pincode":"798612","office":"Saoshou","district":"TUENSANG","state":"NAGALAND","circle":"North Eastern Circle","region":"North East - II Region"},{"pincode":"798628","office":"Chasser","district":"TUENSANG","state":"NAGALAND","circle":"North Eastern Circle","region":"North East - II Region"},{"pincode":"798628","office":"Rurur AB","district":"TUENSANG","state":"NAGALAND","circle":"North Eastern Circle","region":"North East - II Region"},{"pincode":"798618","office":"Asangma B.O","district":"MOKOKCHUNG","state":"NAGALAND","circle":"North Eastern Circle","region":"North East - II Region"},{"pincode":"798618","office":"Wamaken B.O","district":"MOKOKCHUNG","state":"NAGALAND","circle":"North Eastern Circle","region":"North East - II Region"},{"pincode":"797111","office":"Humtsu B.O","district":"WOKHA","state":"NAGALAND","circle":"North Eastern Circle","region":"North East - II Region"},{"pincode":"797110","office":"Bongkholong B.O","district":"PEREN","state":"NAGALAND","circle":"North Eastern Circle","region":"North East - II Region"},{"pincode":"797110","office":"Gaili B.O","district":"PEREN","state":"NAGALAND","circle":"North Eastern Circle","region":"North East - II Region"},{"pincode":"798620","office":"Saghemi B.O","district":"ZUNHEBOTO","state":"NAGALAND","circle":"North Eastern Circle","region":"North East - II Region"},{"pincode":"798620","office":"Tokiye B.O","district":"ZUNHEBOTO","state":"NAGALAND","circle":"North Eastern Circle","region":"North East - II Region"},{"pincode":"798620","office":"Yehemi","district":"ZUNHEBOTO","state":"NAGALAND","circle":"North Eastern Circle","region":"North East - II Region"},{"pincode":"798620","office":"Yevishe","district":"ZUNHEBOTO","state":"NAGALAND","circle":"North Eastern Circle","region":"North East - II Region"},{"pincode":"798620","office":"Luthsumi","district":"ZUNHEBOTO","state":"NAGALAND","circle":"North Eastern Circle","region":"North East - II Region"},{"pincode":"798620","office":"Luvishe New","district":"ZUNHEBOTO","state":"NAGALAND","circle":"North Eastern Circle","region":"North East - II Region"},{"pincode":"798620","office":"Shesulimi","district":"ZUNHEBOTO","state":"NAGALAND","circle":"North Eastern Circle","region":"North East - II Region"},{"pincode":"798620","office":"Xuivi","district":"ZUNHEBOTO","state":"NAGALAND","circle":"North Eastern Circle","region":"North East - II Region"},{"pincode":"797001","office":"Kohima H.O","district":"KOHIMA","state":"NAGALAND","circle":"North Eastern Circle","region":"North East - II Region"},{"pincode":"798603","office":"Champang S.O","district":"MON","state":"NAGALAND","circle":"North Eastern Circle","region":"North East - II Region"},{"pincode":"798611","office":"Kiphire S.O","district":"KIPHIRE","state":"NAGALAND","circle":"North Eastern Circle","region":"North East - II Region"},{"pincode":"797003","office":"Kohima Village S.O","district":"KOHIMA","state":"NAGALAND","circle":"North Eastern Circle","region":"North East - II Region"},{"pincode":"798616","office":"Longkhim S.O","district":"TUENSANG","state":"NAGALAND","circle":"North Eastern Circle","region":"North East - II Region"},{"pincode":"797106","office":"Medziphema S.O","district":"DIMAPUR","state":"NAGALAND","circle":"North Eastern Circle","region":"North East - II Region"},{"pincode":"798604","office":"Mongkholemba S.O","district":"MOKOKCHUNG","state":"NAGALAND","circle":"North Eastern Circle","region":"North East - II Region"},{"pincode":"798622","office":"Naginimora S.O","district":"MON","state":"NAGALAND","circle":"North Eastern Circle","region":"North East - II Region"},{"pincode":"797113","office":"New Nepaligaon S.O","district":"DIMAPUR","state":"NAGALAND","circle":"North Eastern Circle","region":"North East - II Region"},{"pincode":"797004","office":"New Sectt Complex S.O","district":"KOHIMA","state":"NAGALAND","circle":"North Eastern Circle","region":"North East - II Region"},{"pincode":"797101","office":"Peren S.O","district":"PEREN","state":"NAGALAND","circle":"North Eastern Circle","region":"North East - II Region"},{"pincode":"797107","office":"Pfutsero S.O","district":"PHEK","state":"NAGALAND","circle":"North Eastern Circle","region":"North East - II Region"},{"pincode":"798602","office":"Tizit S.O","district":"MON","state":"NAGALAND","circle":"North Eastern Circle","region":"North East - II Region"},{"pincode":"798607","office":"Alichen S.O","district":"MOKOKCHUNG","state":"NAGALAND","circle":"North Eastern Circle","region":"North East - II Region"},{"pincode":"798620","office":"Asukuto B.O","district":"ZUNHEBOTO","state":"NAGALAND","circle":"North Eastern Circle","region":"North East - II Region"},{"pincode":"797115","office":"Daroga Pathar B.O","district":"DIMAPUR","state":"NAGALAND","circle":"North Eastern Circle","region":"North East - II Region"},{"pincode":"797115","office":"Eralibill B.O","district":"DIMAPUR","state":"NAGALAND","circle":"North Eastern Circle","region":"North East - II Region"},{"pincode":"797099","office":"Wozhu Old","district":"WOKHA","state":"NAGALAND","circle":"North Eastern Circle","region":"North East - II Region"},{"pincode":"798603","office":"Chenwetnyu B.O","district":"MON","state":"NAGALAND","circle":"North Eastern Circle","region":"North East - II Region"},{"pincode":"798603","office":"Jakpang B.O","district":"MON","state":"NAGALAND","circle":"North Eastern Circle","region":"North East - II Region"},{"pincode":"798603","office":"Ukha B.O","district":"MON","state":"NAGALAND","circle":"North Eastern Circle","region":"North East - II Region"},{"pincode":"798614","office":"Phangsang B.O","district":"MOKOKCHUNG","state":"NAGALAND","circle":"North Eastern Circle","region":"North East - II Region"},{"pincode":"797105","office":"Chiephobozou B.O","district":"KOHIMA","state":"NAGALAND","circle":"North Eastern Circle","region":"North East - II Region"},{"pincode":"797105","office":"Mishilimi B.O","district":"ZUNHEBOTO","state":"NAGALAND","circle":"North Eastern Circle","region":"North East - II Region"},{"pincode":"797105","office":"Viphoma","district":"KOHIMA","state":"NAGALAND","circle":"North Eastern Circle","region":"North East - II Region"},{"pincode":"797107","office":"Chizami Village B.O","district":"PHEK","state":"NAGALAND","circle":"North Eastern Circle","region":"North East - II Region"},{"pincode":"797107","office":"Thechulumi B.O","district":"PHEK","state":"NAGALAND","circle":"North Eastern Circle","region":"North East - II Region"},{"pincode":"797104","office":"Kilomi B.O","district":"ZUNHEBOTO","state":"NAGALAND","circle":"North Eastern Circle","region":"North East - II Region"},{"pincode":"797104","office":"Runguzumi B.O","district":"PHEK","state":"NAGALAND","circle":"North Eastern Circle","region":"North East - II Region"},{"pincode":"797104","office":"Thenizumi B.O","district":"PHEK","state":"NAGALAND","circle":"North Eastern Circle","region":"North East - II Region"},{"pincode":"797104","office":"Ruzazho","district":"PHEK","state":"NAGALAND","circle":"North Eastern Circle","region":"North East - II Region"},{"pincode":"798614","office":"Longkong B.O","district":"MOKOKCHUNG","state":"NAGALAND","circle":"North Eastern Circle","region":"North East - II Region"},{"pincode":"798614","office":"Yisemyong B.O","district":"MOKOKCHUNG","state":"NAGALAND","circle":"North Eastern Circle","region":"North East - II Region"},{"pincode":"797103","office":"P C College B.O","district":"DIMAPUR","state":"NAGALAND","circle":"North Eastern Circle","region":"North East - II Region"},{"pincode":"797117","office":"Pwd Colony B.O","district":"DIMAPUR","state":"NAGALAND","circle":"North Eastern Circle","region":"North East - II Region"},{"pincode":"797118","office":"Rangapahar B.O","district":"DIMAPUR","state":"NAGALAND","circle":"North Eastern Circle","region":"North East - II Region"},{"pincode":"797117","office":"Zeliangrong B.O","district":"DIMAPUR","state":"NAGALAND","circle":"North Eastern Circle","region":"North East - II Region"},{"pincode":"797116","office":"Kuhuboto B.O","district":"DIMAPUR","state":"NAGALAND","circle":"North Eastern Circle","region":"North East - II Region"},{"pincode":"797116","office":"Vihokhu B.O","district":"DIMAPUR","state":"NAGALAND","circle":"North Eastern Circle","region":"North East - II Region"},{"pincode":"797112","office":"Jalukiekam B.O","district":"PEREN","state":"NAGALAND","circle":"North Eastern Circle","region":"North East - II Region"},{"pincode":"797112","office":"Ralan B.O","district":"WOKHA","state":"NAGALAND","circle":"North Eastern Circle","region":"North East - II Region"},{"pincode":"797112","office":"Singrijan B.O","district":"DIMAPUR","state":"NAGALAND","circle":"North Eastern Circle","region":"North East - II Region"},{"pincode":"797111","office":"Aitepyong B.O","district":"WOKHA","state":"NAGALAND","circle":"North Eastern Circle","region":"North East - II Region"},{"pincode":"797111","office":"Pangti B.O","district":"WOKHA","state":"NAGALAND","circle":"North Eastern Circle","region":"North East - II Region"},{"pincode":"798611","office":"Amahatore B.O","district":"KIPHIRE","state":"NAGALAND","circle":"North Eastern Circle","region":"North East - II Region"},{"pincode":"798611","office":"Moya B.O","district":"KIPHIRE","state":"NAGALAND","circle":"North Eastern Circle","region":"North East - II Region"},{"pincode":"798611","office":"Pokhpur B.O","district":"KIPHIRE","state":"NAGALAND","circle":"North Eastern Circle","region":"North East - II Region"},{"pincode":"798611","office":"Siochang B.O","district":"KIPHIRE","state":"NAGALAND","circle":"North Eastern Circle","region":"North East - II Region"},{"pincode":"798611","office":"Thanamir","district":"KIPHIRE","state":"NAGALAND","circle":"North Eastern Circle","region":"North East - II Region"},{"pincode":"797002","office":"Jotsoma B.O","district":"KOHIMA","state":"NAGALAND","circle":"North Eastern Circle","region":"North East - II Region"},{"pincode":"797002","office":"Mezoma B.O","district":"KOHIMA","state":"NAGALAND","circle":"North Eastern Circle","region":"North East - II Region"},{"pincode":"798616","office":"Angangba B.O","district":"TUENSANG","state":"NAGALAND","circle":"North Eastern Circle","region":"North East - II Region"},{"pincode":"798616","office":"Chimonger B.O","district":"TUENSANG","state":"NAGALAND","circle":"North Eastern Circle","region":"North East - II Region"},{"pincode":"798625","office":"Nian B.O","district":"LONGLENG","state":"NAGALAND","circle":"North Eastern Circle","region":"North East - II Region"},{"pincode":"798625","office":"Phomching B.O","district":"LONGLENG","state":"NAGALAND","circle":"North Eastern Circle","region":"North East - II Region"},{"pincode":"797106","office":"Agri College B.O","district":"DIMAPUR","state":"NAGALAND","circle":"North Eastern Circle","region":"North East - II Region"},{"pincode":"797106","office":"Khaibung B.O","district":"DIMAPUR","state":"NAGALAND","circle":"North Eastern Circle","region":"North East - II Region"},{"pincode":"797106","office":"Maova B.O","district":"PEREN","state":"NAGALAND","circle":"North Eastern Circle","region":"North East - II Region"},{"pincode":"797106","office":"Sirhima B.O","district":"DIMAPUR","state":"NAGALAND","circle":"North Eastern Circle","region":"North East - II Region"},{"pincode":"797114","office":"Hutsu B.O","district":"PHEK","state":"NAGALAND","circle":"North Eastern Circle","region":"North East - II Region"},{"pincode":"797114","office":"Lephori B.O","district":"PHEK","state":"NAGALAND","circle":"North Eastern Circle","region":"North East - II Region"},{"pincode":"798601","office":"Aolijen B.O","district":"MOKOKCHUNG","state":"NAGALAND","circle":"North Eastern Circle","region":"North East - II Region"},{"pincode":"798601","office":"Ungma B.O","district":"MOKOKCHUNG","state":"NAGALAND","circle":"North Eastern Circle","region":"North East - II Region"},{"pincode":"798621","office":"Tang B.O","district":"MON","state":"NAGALAND","circle":"North Eastern Circle","region":"North East - II Region"},{"pincode":"798621","office":"Totak B.O","district":"MON","state":"NAGALAND","circle":"North Eastern Circle","region":"North East - II Region"},{"pincode":"798604","office":"Longnak B.O","district":"MOKOKCHUNG","state":"NAGALAND","circle":"North Eastern Circle","region":"North East - II Region"},{"pincode":"798604","office":"Waromung B.O","district":"MOKOKCHUNG","state":"NAGALAND","circle":"North Eastern Circle","region":"North East - II Region"},{"pincode":"798604","office":"Akumen","district":"MOKOKCHUNG","state":"NAGALAND","circle":"North Eastern Circle","region":"North East - II Region"},{"pincode":"797113","office":"Industrial Estate B.O","district":"DIMAPUR","state":"NAGALAND","circle":"North Eastern Circle","region":"North East - II Region"},{"pincode":"798623","office":"Yajang C","district":"MOKOKCHUNG","state":"NAGALAND","circle":"North Eastern Circle","region":"North East - II Region"},{"pincode":"797107","office":"Mesolumi B.O","district":"PHEK","state":"NAGALAND","circle":"North Eastern Circle","region":"North East - II Region"},{"pincode":"797107","office":"Phesachuduma B.O","district":"PHEK","state":"NAGALAND","circle":"North Eastern Circle","region":"North East - II Region"},{"pincode":"797107","office":"Porba B.O","district":"PHEK","state":"NAGALAND","circle":"North Eastern Circle","region":"North East - II Region"},{"pincode":"797107","office":"Tekhouba B.O","district":"PHEK","state":"NAGALAND","circle":"North Eastern Circle","region":"North East - II Region"},{"pincode":"797107","office":"Zeloma","district":"PHEK","state":"NAGALAND","circle":"North Eastern Circle","region":"North East - II Region"},{"pincode":"797109","office":"Kandinu B.O","district":"KOHIMA","state":"NAGALAND","circle":"North Eastern Circle","region":"North East - II Region"},{"pincode":"797109","office":"Tesophenyu B.O","district":"KOHIMA","state":"NAGALAND","circle":"North Eastern Circle","region":"North East - II Region"},{"pincode":"798628","office":"Shiponger B.O","district":"TUENSANG","state":"NAGALAND","circle":"North Eastern Circle","region":"North East - II Region"},{"pincode":"798628","office":"Sotokur B.O","district":"TUENSANG","state":"NAGALAND","circle":"North Eastern Circle","region":"North East - II Region"},{"pincode":"798612","office":"Noklak BO","district":"Noklak","state":"NAGALAND","circle":"North Eastern Circle","region":"North East - II Region"},{"pincode":"798612","office":"Hakchang","district":"TUENSANG","state":"NAGALAND","circle":"North Eastern Circle","region":"North East - II Region"},{"pincode":"798628","office":"Longtokur","district":"TUENSANG","state":"NAGALAND","circle":"North Eastern Circle","region":"North East - II Region"},{"pincode":"798612","office":"Taknyu","district":"TUENSANG","state":"NAGALAND","circle":"North Eastern Circle","region":"North East - II Region"},{"pincode":"798612","office":"Yimpang","district":"TUENSANG","state":"NAGALAND","circle":"North Eastern Circle","region":"North East - II Region"},{"pincode":"798618","office":"Molungkhimong B.O","district":"MOKOKCHUNG","state":"NAGALAND","circle":"North Eastern Circle","region":"North East - II Region"},{"pincode":"797111","office":"Englan B.O","district":"WOKHA","state":"NAGALAND","circle":"North Eastern Circle","region":"North East - II Region"},{"pincode":"797110","office":"Samjiuram B.O","district":"PEREN","state":"NAGALAND","circle":"North Eastern Circle","region":"North East - II Region"},{"pincode":"797110","office":"Ikiesingram","district":"PEREN","state":"NAGALAND","circle":"North Eastern Circle","region":"North East - II Region"},{"pincode":"798620","office":"Surumi B.O","district":"ZUNHEBOTO","state":"NAGALAND","circle":"North Eastern Circle","region":"North East - II Region"},{"pincode":"798620","office":"Lukhuyimi","district":"ZUNHEBOTO","state":"NAGALAND","circle":"North Eastern Circle","region":"North East - II Region"},{"pincode":"798620","office":"Khetoi","district":"ZUNHEBOTO","state":"NAGALAND","circle":"North Eastern Circle","region":"North East - II Region"},{"pincode":"797099","office":"Bhandari S.O","district":"WOKHA","state":"NAGALAND","circle":"North Eastern Circle","region":"North East - II Region"},{"pincode":"797105","office":"Chiechama S.O","district":"KOHIMA","state":"NAGALAND","circle":"North Eastern Circle","region":"North East - II Region"},{"pincode":"797104","office":"Chozuba S.O","district":"PHEK","state":"NAGALAND","circle":"North Eastern Circle","region":"North East - II Region"},{"pincode":"797108","office":"Phek S.O","district":"PHEK","state":"NAGALAND","circle":"North Eastern Circle","region":"North East - II Region"},{"pincode":"798618","office":"Tuli S.O","district":"MOKOKCHUNG","state":"NAGALAND","circle":"North Eastern Circle","region":"North East - II Region"},{"pincode":"798617","office":"Pungro","district":"KOHIMA","state":"NAGALAND","circle":"North Eastern Circle","region":"North East - II Region"}]