[{"pincode":"673310","office":"Naluthara BO","district":"MAHE","state":"PUDUCHERRY","circle":"Kerala Circle","region":"Calicut Region"},{"pincode":"673310","office":"Pallur BO","district":"MAHE","state":"PUDUCHERRY","circle":"Kerala Circle","region":"Calicut Region"},{"pincode":"605007","office":"Nallavadu BO","district":"PONDICHERRY","state":"PUDUCHERRY","circle":"Tamilnadu Circle","region":"Chennai City Region"},{"pincode":"605007","office":"Veerampattinam BO","district":"PONDICHERRY","state":"PUDUCHERRY","circle":"Tamilnadu Circle","region":"Chennai City Region"},{"pincode":"607402","office":"Seliyamedu BO","district":"PONDICHERRY","state":"PUDUCHERRY","circle":"Tamilnadu Circle","region":"Chennai City Region"},{"pincode":"605010","office":"Olugarai BO","district":"PONDICHERRY","state":"PUDUCHERRY","circle":"Tamilnadu Circle","region":"Chennai City Region"},{"pincode":"605009","office":"Mouttoupalayam BO","district":"PONDICHERRY","state":"PUDUCHERRY","circle":"Tamilnadu Circle","region":"Chennai City Region"},{"pincode":"605501","office":"Vadhanur BO","district":"PONDICHERRY","state":"PUDUCHERRY","circle":"Tamilnadu Circle","region":"Chennai City Region"},{"pincode":"605110","office":"Arumparthapuram BO","district":"PONDICHERRY","state":"PUDUCHERRY","circle":"Tamilnadu Circle","region":"Chennai City Region"},{"pincode":"605110","office":"Mangalam BO","district":"PONDICHERRY","state":"PUDUCHERRY","circle":"Tamilnadu Circle","region":"Chennai City Region"},{"pincode":"605110","office":"Sulthanpet BO","district":"PONDICHERRY","state":"PUDUCHERRY","circle":"Tamilnadu Circle","region":"Chennai City Region"},{"pincode":"605102","office":"Ariyur BO","district":"PONDICHERRY","state":"PUDUCHERRY","circle":"Tamilnadu Circle","region":"Chennai City Region"},{"pincode":"605107","office":"Thirubuvanai BO","district":"PONDICHERRY","state":"PUDUCHERRY","circle":"Tamilnadu Circle","region":"Chennai City Region"},{"pincode":"609603","office":"Nallathur B.O","district":"KARAIKAL","state":"PUDUCHERRY","circle":"Tamilnadu Circle","region":"Central Region Trichirapalli"},{"pincode":"609605","office":"Karaikoilpathu B.O","district":"KARAIKAL","state":"PUDUCHERRY","circle":"Tamilnadu Circle","region":"Central Region Trichirapalli"},{"pincode":"609607","office":"Vizhithiyur B.O","district":"KARAIKAL","state":"PUDUCHERRY","circle":"Tamilnadu Circle","region":"Central Region Trichirapalli"},{"pincode":"607402","office":"Bahoor SO","district":"PONDICHERRY","state":"PUDUCHERRY","circle":"Tamilnadu Circle","region":"Chennai City Region"},{"pincode":"605106","office":"Nettapakkam SO","district":"PONDICHERRY","state":"PUDUCHERRY","circle":"Tamilnadu Circle","region":"Chennai City Region"},{"pincode":"605002","office":"Sri Aurobindo Ashram SO","district":"PONDICHERRY","state":"PUDUCHERRY","circle":"Tamilnadu Circle","region":"Chennai City Region"},{"pincode":"609601","office":"Ambagarathur S.O","district":"KARAIKAL","state":"PUDUCHERRY","circle":"Tamilnadu Circle","region":"Central Region Trichirapalli"},{"pincode":"609604","office":"Neravy S.O","district":"KARAIKAL","state":"PUDUCHERRY","circle":"Tamilnadu Circle","region":"Central Region Trichirapalli"},{"pincode":"605007","office":"Abishegapakkam BO","district":"PONDICHERRY","state":"PUDUCHERRY","circle":"Tamilnadu Circle","region":"Chennai City Region"},{"pincode":"605007","office":"Poornankuppam BO","district":"PONDICHERRY","state":"PUDUCHERRY","circle":"Tamilnadu Circle","region":"Chennai City Region"},{"pincode":"605007","office":"Thimmappanaickenpalayam BO","district":"PONDICHERRY","state":"PUDUCHERRY","circle":"Tamilnadu Circle","region":"Chennai City Region"},{"pincode":"605106","office":"Kariyamanikam BO","district":"PONDICHERRY","state":"PUDUCHERRY","circle":"Tamilnadu Circle","region":"Chennai City Region"},{"pincode":"605009","office":"Moutrepalayam BO","district":"PONDICHERRY","state":"PUDUCHERRY","circle":"Tamilnadu Circle","region":"Chennai City Region"},{"pincode":"605501","office":"Mannadipattu BO","district":"PONDICHERRY","state":"PUDUCHERRY","circle":"Tamilnadu Circle","region":"Chennai City Region"},{"pincode":"605110","office":"Korkadu BO","district":"PONDICHERRY","state":"PUDUCHERRY","circle":"Tamilnadu Circle","region":"Chennai City Region"},{"pincode":"605107","office":"Puranasingapalayam BO","district":"PONDICHERRY","state":"PUDUCHERRY","circle":"Tamilnadu Circle","region":"Chennai City Region"},{"pincode":"605502","office":"Coudapakkam BO","district":"PONDICHERRY","state":"PUDUCHERRY","circle":"Tamilnadu Circle","region":"Chennai City Region"},{"pincode":"609606","office":"T.R.Pattinam South B.O","district":"KARAIKAL","state":"PUDUCHERRY","circle":"Tamilnadu Circle","region":"Central Region Trichirapalli"},{"pincode":"605007","office":"Ariyankuppam SO","district":"PONDICHERRY","state":"PUDUCHERRY","circle":"Tamilnadu Circle","region":"Chennai City Region"},{"pincode":"605003","office":"Muthialpet SO","district":"PONDICHERRY","state":"PUDUCHERRY","circle":"Tamilnadu Circle","region":"Chennai City Region"},{"pincode":"605013","office":"SaramPy SO","district":"PONDICHERRY","state":"PUDUCHERRY","circle":"Tamilnadu Circle","region":"Chennai City Region"},{"pincode":"605009","office":"Thattanchavady SO","district":"PONDICHERRY","state":"PUDUCHERRY","circle":"Tamilnadu Circle","region":"Chennai City Region"},{"pincode":"605011","office":"Venkata Nagar SO","district":"PONDICHERRY","state":"PUDUCHERRY","circle":"Tamilnadu Circle","region":"Chennai City Region"},{"pincode":"605110","office":"Villiyanur SO","district":"PONDICHERRY","state":"PUDUCHERRY","circle":"Tamilnadu Circle","region":"Chennai City Region"},{"pincode":"533464","office":"Yanam S.O","district":"YANAM","state":"PUDUCHERRY","circle":"Andhra Pradesh Circle","region":"Visakhapatnam Region"},{"pincode":"673310","office":"Mahe SO","district":"MAHE","state":"PUDUCHERRY","circle":"Kerala Circle","region":"Calicut Region"},{"pincode":"609602","office":"Karaikal S.O","district":"KARAIKAL","state":"PUDUCHERRY","circle":"Tamilnadu Circle","region":"Central Region Trichirapalli"},{"pincode":"609609","office":"Kottuchery S.O","district":"KARAIKAL","state":"PUDUCHERRY","circle":"Tamilnadu Circle","region":"Central Region Trichirapalli"},{"pincode":"609603","office":"Nedungadu S.O","district":"KARAIKAL","state":"PUDUCHERRY","circle":"Tamilnadu Circle","region":"Central Region Trichirapalli"},{"pincode":"607402","office":"Courouvinatham BO","district":"PONDICHERRY","state":"PUDUCHERRY","circle":"Tamilnadu Circle","region":"Chennai City Region"},{"pincode":"605106","office":"Embalam BO","district":"PONDICHERRY","state":"PUDUCHERRY","circle":"Tamilnadu Circle","region":"Chennai City Region"},{"pincode":"605501","office":"Sorapattu BO","district":"PONDICHERRY","state":"PUDUCHERRY","circle":"Tamilnadu Circle","region":"Chennai City Region"},{"pincode":"605110","office":"Odiampattu BO","district":"PONDICHERRY","state":"PUDUCHERRY","circle":"Tamilnadu Circle","region":"Chennai City Region"},{"pincode":"605105","office":"Maducore BO","district":"PONDICHERRY","state":"PUDUCHERRY","circle":"Tamilnadu Circle","region":"Chennai City Region"},{"pincode":"605107","office":"Madagadipet BO","district":"PONDICHERRY","state":"PUDUCHERRY","circle":"Tamilnadu Circle","region":"Chennai City Region"},{"pincode":"605502","office":"Katterikuppam BO","district":"PONDICHERRY","state":"PUDUCHERRY","circle":"Tamilnadu Circle","region":"Chennai City Region"},{"pincode":"609603","office":"Melakasakudi B.O","district":"KARAIKAL","state":"PUDUCHERRY","circle":"Tamilnadu Circle","region":"Central Region Trichirapalli"},{"pincode":"609605","office":"Karaikalmedu B.O","district":"KARAIKAL","state":"PUDUCHERRY","circle":"Tamilnadu Circle","region":"Central Region Trichirapalli"},{"pincode":"609607","office":"Sellur B.O","district":"KARAIKAL","state":"PUDUCHERRY","circle":"Tamilnadu Circle","region":"Central Region Trichirapalli"},{"pincode":"605004","office":"Mudaliarpet SO","district":"PONDICHERRY","state":"PUDUCHERRY","circle":"Tamilnadu Circle","region":"Chennai City Region"},{"pincode":"605501","office":"Tirukkanur SO","district":"PONDICHERRY","state":"PUDUCHERRY","circle":"Tamilnadu Circle","region":"Chennai City Region"},{"pincode":"605004","office":"Pondicherry Courts SO","district":"PONDICHERRY","state":"PUDUCHERRY","circle":"Tamilnadu Circle","region":"Chennai City Region"},{"pincode":"609602","office":"Karaikal South S.O","district":"KARAIKAL","state":"PUDUCHERRY","circle":"Tamilnadu Circle","region":"Central Region Trichirapalli"},{"pincode":"609605","office":"Thalatheru S.O","district":"KARAIKAL","state":"PUDUCHERRY","circle":"Tamilnadu Circle","region":"Central Region Trichirapalli"},{"pincode":"609606","office":"Tirumalairayanpattinam S.O","district":"KARAIKAL","state":"PUDUCHERRY","circle":"Tamilnadu Circle","region":"Central Region Trichirapalli"},{"pincode":"605007","office":"Karikkalampakkam BO","district":"PONDICHERRY","state":"PUDUCHERRY","circle":"Tamilnadu Circle","region":"Chennai City Region"},{"pincode":"607402","office":"Manamedu BO","district":"PONDICHERRY","state":"PUDUCHERRY","circle":"Tamilnadu Circle","region":"Chennai City Region"},{"pincode":"605004","office":"Mouroungapakkam BO","district":"PONDICHERRY","state":"PUDUCHERRY","circle":"Tamilnadu Circle","region":"Chennai City Region"},{"pincode":"605106","office":"Karayamputhur BO","district":"PONDICHERRY","state":"PUDUCHERRY","circle":"Tamilnadu Circle","region":"Chennai City Region"},{"pincode":"605106","office":"Kijour BO","district":"PONDICHERRY","state":"PUDUCHERRY","circle":"Tamilnadu Circle","region":"Chennai City Region"},{"pincode":"605009","office":"Vimacoundanpalayam BO","district":"PONDICHERRY","state":"PUDUCHERRY","circle":"Tamilnadu Circle","region":"Chennai City Region"},{"pincode":"605501","office":"Sellipet BO","district":"PONDICHERRY","state":"PUDUCHERRY","circle":"Tamilnadu Circle","region":"Chennai City Region"},{"pincode":"607403","office":"Pillayarkuppam BO","district":"PONDICHERRY","state":"PUDUCHERRY","circle":"Tamilnadu Circle","region":"Chennai City Region"},{"pincode":"605107","office":"Lingareddipalayam BO","district":"PONDICHERRY","state":"PUDUCHERRY","circle":"Tamilnadu Circle","region":"Chennai City Region"},{"pincode":"609602","office":"Dharmapuram B.O","district":"KARAIKAL","state":"PUDUCHERRY","circle":"Tamilnadu Circle","region":"Central Region Trichirapalli"},{"pincode":"609609","office":"Tiruvettakudi B.O","district":"KARAIKAL","state":"PUDUCHERRY","circle":"Tamilnadu Circle","region":"Central Region Trichirapalli"},{"pincode":"609609","office":"Varichikudi B.O","district":"KARAIKAL","state":"PUDUCHERRY","circle":"Tamilnadu Circle","region":"Central Region Trichirapalli"},{"pincode":"609603","office":"Kurumbagaram B.O","district":"KARAIKAL","state":"PUDUCHERRY","circle":"Tamilnadu Circle","region":"Central Region Trichirapalli"},{"pincode":"609604","office":"Akkaraivattam B.O","district":"KARAIKAL","state":"PUDUCHERRY","circle":"Tamilnadu Circle","region":"Central Region Trichirapalli"},{"pincode":"605008","office":"Lawspet SO","district":"PONDICHERRY","state":"PUDUCHERRY","circle":"Tamilnadu Circle","region":"Chennai City Region"},{"pincode":"605005","office":"Nellithope SO","district":"PONDICHERRY","state":"PUDUCHERRY","circle":"Tamilnadu Circle","region":"Chennai City Region"},{"pincode":"605014","office":"Pondicherry University SO","district":"PONDICHERRY","state":"PUDUCHERRY","circle":"Tamilnadu Circle","region":"Chennai City Region"},{"pincode":"607403","office":"Kirumambakkam","district":"PONDICHERRY","state":"PUDUCHERRY","circle":"Tamilnadu Circle","region":"Chennai City Region"},{"pincode":"609602","office":"Karaikal Bazaar S.O","district":"KARAIKAL","state":"PUDUCHERRY","circle":"Tamilnadu Circle","region":"Central Region Trichirapalli"},{"pincode":"673310","office":"Pandakkal BO","district":"MAHE","state":"PUDUCHERRY","circle":"Kerala Circle","region":"Calicut Region"},{"pincode":"607402","office":"Manapet BO","district":"PONDICHERRY","state":"PUDUCHERRY","circle":"Tamilnadu Circle","region":"Chennai City Region"},{"pincode":"605004","office":"Thengaithittu BO","district":"PONDICHERRY","state":"PUDUCHERRY","circle":"Tamilnadu Circle","region":"Chennai City Region"},{"pincode":"605014","office":"Calapet BO","district":"PONDICHERRY","state":"PUDUCHERRY","circle":"Tamilnadu Circle","region":"Chennai City Region"},{"pincode":"605111","office":"Sedarapet BO","district":"PONDICHERRY","state":"PUDUCHERRY","circle":"Tamilnadu Circle","region":"Chennai City Region"},{"pincode":"605102","office":"Thiruvandarkoil BO","district":"PONDICHERRY","state":"PUDUCHERRY","circle":"Tamilnadu Circle","region":"Chennai City Region"},{"pincode":"605502","office":"Suthukeni BO","district":"PONDICHERRY","state":"PUDUCHERRY","circle":"Tamilnadu Circle","region":"Chennai City Region"},{"pincode":"605502","office":"Thondamanatham BO","district":"PONDICHERRY","state":"PUDUCHERRY","circle":"Tamilnadu Circle","region":"Chennai City Region"},{"pincode":"609601","office":"Nallambal B.O","district":"KARAIKAL","state":"PUDUCHERRY","circle":"Tamilnadu Circle","region":"Central Region Trichirapalli"},{"pincode":"609601","office":"Seithur B.O","district":"KARAIKAL","state":"PUDUCHERRY","circle":"Tamilnadu Circle","region":"Central Region Trichirapalli"},{"pincode":"609602","office":"Madagadi B.O","district":"KARAIKAL","state":"PUDUCHERRY","circle":"Tamilnadu Circle","region":"Central Region Trichirapalli"},{"pincode":"609607","office":"Karukkangudi B.O","district":"KARAIKAL","state":"PUDUCHERRY","circle":"Tamilnadu Circle","region":"Central Region Trichirapalli"},{"pincode":"609607","office":"Surakudi B.O","district":"KARAIKAL","state":"PUDUCHERRY","circle":"Tamilnadu Circle","region":"Central Region Trichirapalli"},{"pincode":"605001","office":"Pondicherry HO","district":"PONDICHERRY","state":"PUDUCHERRY","circle":"Tamilnadu Circle","region":"Chennai City Region"},{"pincode":"605006","office":"Dhanvantri Nagar SO","district":"PONDICHERRY","state":"PUDUCHERRY","circle":"Tamilnadu Circle","region":"Chennai City Region"},{"pincode":"605010","office":"Reddiarpalayam SO","district":"PONDICHERRY","state":"PUDUCHERRY","circle":"Tamilnadu Circle","region":"Chennai City Region"},{"pincode":"605001","office":"Pondicherry Bazaar SO","district":"PONDICHERRY","state":"PUDUCHERRY","circle":"Tamilnadu Circle","region":"Chennai City Region"},{"pincode":"609607","office":"Tirunallar S.O","district":"KARAIKAL","state":"PUDUCHERRY","circle":"Tamilnadu Circle","region":"Central Region Trichirapalli"}]