[{"pincode":"737120","office":"Shipgyare BO","district":"NORTH DISTRICT","state":"SIKKIM","circle":"West Bengal Circle","region":"DivReportingCircle"},{"pincode":"737107","office":"Lumlingthyang BO","district":"EAST DISTRICT","state":"SIKKIM","circle":"West Bengal Circle","region":"DivReportingCircle"},{"pincode":"737111","office":"Arithang BO","district":"WEST DISTRICT","state":"SIKKIM","circle":"West Bengal Circle","region":"DivReportingCircle"},{"pincode":"737111","office":"Bhaluthang BO","district":"WEST DISTRICT","state":"SIKKIM","circle":"West Bengal Circle","region":"DivReportingCircle"},{"pincode":"737111","office":"Chingthang BO","district":"WEST DISTRICT","state":"SIKKIM","circle":"West Bengal Circle","region":"DivReportingCircle"},{"pincode":"737111","office":"Gerathang BO","district":"WEST DISTRICT","state":"SIKKIM","circle":"West Bengal Circle","region":"DivReportingCircle"},{"pincode":"737111","office":"Yangthang BO","district":"WEST DISTRICT","state":"SIKKIM","circle":"West Bengal Circle","region":"DivReportingCircle"},{"pincode":"737116","office":"Sakyong-Pentong","district":"NORTH DISTRICT","state":"SIKKIM","circle":"West Bengal Circle","region":"DivReportingCircle"},{"pincode":"737128","office":"Rateypani BO","district":"SOUTH DISTRICT","state":"SIKKIM","circle":"West Bengal Circle","region":"DivReportingCircle"},{"pincode":"737128","office":"Sadam BO","district":"SOUTH DISTRICT","state":"SIKKIM","circle":"West Bengal Circle","region":"DivReportingCircle"},{"pincode":"737126","office":"Mic Khola BO","district":"SOUTH DISTRICT","state":"SIKKIM","circle":"West Bengal Circle","region":"DivReportingCircle"},{"pincode":"737126","office":"Pabong BO","district":"SOUTH DISTRICT","state":"SIKKIM","circle":"West Bengal Circle","region":"DivReportingCircle"},{"pincode":"737121","office":"Budang BO","district":"WEST DISTRICT","state":"SIKKIM","circle":"West Bengal Circle","region":"DivReportingCircle"},{"pincode":"737121","office":"Majitar BO","district":"SOUTH DISTRICT","state":"SIKKIM","circle":"West Bengal Circle","region":"DivReportingCircle"},{"pincode":"737121","office":"Pipalay BO","district":"WEST DISTRICT","state":"SIKKIM","circle":"West Bengal Circle","region":"DivReportingCircle"},{"pincode":"737121","office":"Sanganath BO","district":"WEST DISTRICT","state":"SIKKIM","circle":"West Bengal Circle","region":"DivReportingCircle"},{"pincode":"737121","office":"Sri Badam BO","district":"WEST DISTRICT","state":"SIKKIM","circle":"West Bengal Circle","region":"DivReportingCircle"},{"pincode":"737121","office":"Suldung BO","district":"WEST DISTRICT","state":"SIKKIM","circle":"West Bengal Circle","region":"DivReportingCircle"},{"pincode":"737113","office":"Khechuperi BO","district":"WEST DISTRICT","state":"SIKKIM","circle":"West Bengal Circle","region":"DivReportingCircle"},{"pincode":"737113","office":"Namphu BO","district":"WEST DISTRICT","state":"SIKKIM","circle":"West Bengal Circle","region":"DivReportingCircle"},{"pincode":"737113","office":"Radhu Khandu BO","district":"WEST DISTRICT","state":"SIKKIM","circle":"West Bengal Circle","region":"DivReportingCircle"},{"pincode":"737113","office":"Uttarey BO","district":"WEST DISTRICT","state":"SIKKIM","circle":"West Bengal Circle","region":"DivReportingCircle"},{"pincode":"737113","office":"Yuksom BO","district":"WEST DISTRICT","state":"SIKKIM","circle":"West Bengal Circle","region":"DivReportingCircle"},{"pincode":"737131","office":"Chujachen BO","district":"Pakyong","state":"SIKKIM","circle":"West Bengal Circle","region":"DivReportingCircle"},{"pincode":"737131","office":"Latuk BO","district":"Pakyong","state":"SIKKIM","circle":"West Bengal Circle","region":"DivReportingCircle"},{"pincode":"737132","office":"Maney Dara BO","district":"SOUTH DISTRICT","state":"SIKKIM","circle":"West Bengal Circle","region":"DivReportingCircle"},{"pincode":"737132","office":"Namthang BO","district":"SOUTH DISTRICT","state":"SIKKIM","circle":"West Bengal Circle","region":"DivReportingCircle"},{"pincode":"737135","office":"Rumtek BO","district":"EAST DISTRICT","state":"SIKKIM","circle":"West Bengal Circle","region":"DivReportingCircle"},{"pincode":"737139","office":"Barfung BO","district":"SOUTH DISTRICT","state":"SIKKIM","circle":"West Bengal Circle","region":"DivReportingCircle"},{"pincode":"737139","office":"Berang BO","district":"SOUTH DISTRICT","state":"SIKKIM","circle":"West Bengal Circle","region":"DivReportingCircle"},{"pincode":"737139","office":"Tinkitam BO","district":"SOUTH DISTRICT","state":"SIKKIM","circle":"West Bengal Circle","region":"DivReportingCircle"},{"pincode":"737133","office":"Rorathang BO","district":"Pakyong","state":"SIKKIM","circle":"West Bengal Circle","region":"DivReportingCircle"},{"pincode":"737133","office":"Taza BO","district":"Pakyong","state":"SIKKIM","circle":"West Bengal Circle","region":"DivReportingCircle"},{"pincode":"737133","office":"Upper Dalapchand BO","district":"Pakyong","state":"SIKKIM","circle":"West Bengal Circle","region":"DivReportingCircle"},{"pincode":"737134","office":"Lingzey BO","district":"EAST DISTRICT","state":"SIKKIM","circle":"West Bengal Circle","region":"DivReportingCircle"},{"pincode":"737134","office":"Namphing BO","district":"SOUTH DISTRICT","state":"SIKKIM","circle":"West Bengal Circle","region":"DivReportingCircle"},{"pincode":"737134","office":"Sakhu Busty BO","district":"EAST DISTRICT","state":"SIKKIM","circle":"West Bengal Circle","region":"DivReportingCircle"},{"pincode":"737134","office":"Sangkhola BO","district":"EAST DISTRICT","state":"SIKKIM","circle":"West Bengal Circle","region":"DivReportingCircle"},{"pincode":"737134","office":"Tumin BO","district":"EAST DISTRICT","state":"SIKKIM","circle":"West Bengal Circle","region":"DivReportingCircle"},{"pincode":"737134","office":"West Pendam BO","district":"EAST DISTRICT","state":"SIKKIM","circle":"West Bengal Circle","region":"DivReportingCircle"},{"pincode":"737134","office":"Yangyang BO","district":"SOUTH DISTRICT","state":"SIKKIM","circle":"West Bengal Circle","region":"DivReportingCircle"},{"pincode":"737102","office":"Dhajey BO","district":"EAST DISTRICT","state":"SIKKIM","circle":"West Bengal Circle","region":"DivReportingCircle"},{"pincode":"737102","office":"Lingdum BO","district":"EAST DISTRICT","state":"SIKKIM","circle":"West Bengal Circle","region":"DivReportingCircle"},{"pincode":"737107","office":"Dikchu SO","district":"EAST DISTRICT","state":"SIKKIM","circle":"West Bengal Circle","region":"DivReportingCircle"},{"pincode":"737136","office":"Majitar SO","district":"EAST DISTRICT","state":"SIKKIM","circle":"West Bengal Circle","region":"DivReportingCircle"},{"pincode":"737128","office":"Melli Bazar SO","district":"SOUTH DISTRICT","state":"SIKKIM","circle":"West Bengal Circle","region":"DivReportingCircle"},{"pincode":"737126","office":"Namchi SO","district":"SOUTH DISTRICT","state":"SIKKIM","circle":"West Bengal Circle","region":"DivReportingCircle"},{"pincode":"737113","office":"Pelling SO","district":"WEST DISTRICT","state":"SIKKIM","circle":"West Bengal Circle","region":"DivReportingCircle"},{"pincode":"737131","office":"Rangli Bazar SO","district":"Pakyong","state":"SIKKIM","circle":"West Bengal Circle","region":"DivReportingCircle"},{"pincode":"737134","office":"Singtam SO","district":"EAST DISTRICT","state":"SIKKIM","circle":"West Bengal Circle","region":"DivReportingCircle"},{"pincode":"737120","office":"Lachen BO","district":"NORTH DISTRICT","state":"SIKKIM","circle":"West Bengal Circle","region":"DivReportingCircle"},{"pincode":"737107","office":"Gor BO","district":"NORTH DISTRICT","state":"SIKKIM","circle":"West Bengal Circle","region":"DivReportingCircle"},{"pincode":"737107","office":"Raley Khesey BO","district":"EAST DISTRICT","state":"SIKKIM","circle":"West Bengal Circle","region":"DivReportingCircle"},{"pincode":"737107","office":"Samdong BO","district":"EAST DISTRICT","state":"SIKKIM","circle":"West Bengal Circle","region":"DivReportingCircle"},{"pincode":"737111","office":"Legship BO","district":"WEST DISTRICT","state":"SIKKIM","circle":"West Bengal Circle","region":"DivReportingCircle"},{"pincode":"737111","office":"Lingchom BO","district":"WEST DISTRICT","state":"SIKKIM","circle":"West Bengal Circle","region":"DivReportingCircle"},{"pincode":"737111","office":"Tashiding BO","district":"WEST DISTRICT","state":"SIKKIM","circle":"West Bengal Circle","region":"DivReportingCircle"},{"pincode":"737111","office":"Yangtey BO","district":"WEST DISTRICT","state":"SIKKIM","circle":"West Bengal Circle","region":"DivReportingCircle"},{"pincode":"737116","office":"Lingdem BO","district":"NORTH DISTRICT","state":"SIKKIM","circle":"West Bengal Circle","region":"DivReportingCircle"},{"pincode":"737116","office":"Lower Dzongu BO","district":"NORTH DISTRICT","state":"SIKKIM","circle":"West Bengal Circle","region":"DivReportingCircle"},{"pincode":"737116","office":"Namok BO","district":"NORTH DISTRICT","state":"SIKKIM","circle":"West Bengal Circle","region":"DivReportingCircle"},{"pincode":"737116","office":"Tingchim BO","district":"NORTH DISTRICT","state":"SIKKIM","circle":"West Bengal Circle","region":"DivReportingCircle"},{"pincode":"737116","office":"Tingvong BO","district":"NORTH DISTRICT","state":"SIKKIM","circle":"West Bengal Circle","region":"DivReportingCircle"},{"pincode":"737116","office":"Phensong BO","district":"NORTH DISTRICT","state":"SIKKIM","circle":"West Bengal Circle","region":"DivReportingCircle"},{"pincode":"737128","office":"Manpur BO","district":"SOUTH DISTRICT","state":"SIKKIM","circle":"West Bengal Circle","region":"DivReportingCircle"},{"pincode":"737128","office":"Sumbuk BO","district":"SOUTH DISTRICT","state":"SIKKIM","circle":"West Bengal Circle","region":"DivReportingCircle"},{"pincode":"737126","office":"Kitam BO","district":"SOUTH DISTRICT","state":"SIKKIM","circle":"West Bengal Circle","region":"DivReportingCircle"},{"pincode":"737126","office":"Maniram BO","district":"SOUTH DISTRICT","state":"SIKKIM","circle":"West Bengal Circle","region":"DivReportingCircle"},{"pincode":"737126","office":"Perbing BO","district":"SOUTH DISTRICT","state":"SIKKIM","circle":"West Bengal Circle","region":"DivReportingCircle"},{"pincode":"737126","office":"Phalidara BO","district":"SOUTH DISTRICT","state":"SIKKIM","circle":"West Bengal Circle","region":"DivReportingCircle"},{"pincode":"737126","office":"Singhithang BO","district":"SOUTH DISTRICT","state":"SIKKIM","circle":"West Bengal Circle","region":"DivReportingCircle"},{"pincode":"737126","office":"Sorok BO","district":"SOUTH DISTRICT","state":"SIKKIM","circle":"West Bengal Circle","region":"DivReportingCircle"},{"pincode":"737126","office":"Wok BO","district":"SOUTH DISTRICT","state":"SIKKIM","circle":"West Bengal Circle","region":"DivReportingCircle"},{"pincode":"737121","office":"Buriakhop BO","district":"WEST DISTRICT","state":"SIKKIM","circle":"West Bengal Circle","region":"DivReportingCircle"},{"pincode":"737121","office":"Chakung BO","district":"WEST DISTRICT","state":"SIKKIM","circle":"West Bengal Circle","region":"DivReportingCircle"},{"pincode":"737121","office":"Okharey BO","district":"WEST DISTRICT","state":"SIKKIM","circle":"West Bengal Circle","region":"DivReportingCircle"},{"pincode":"737121","office":"Soreng BO","district":"WEST DISTRICT","state":"SIKKIM","circle":"West Bengal Circle","region":"DivReportingCircle"},{"pincode":"737121","office":"Tharpu BO","district":"WEST DISTRICT","state":"SIKKIM","circle":"West Bengal Circle","region":"DivReportingCircle"},{"pincode":"737106","office":"Karthok BO","district":"Pakyong","state":"SIKKIM","circle":"West Bengal Circle","region":"DivReportingCircle"},{"pincode":"737106","office":"Linkey BO","district":"Pakyong","state":"SIKKIM","circle":"West Bengal Circle","region":"DivReportingCircle"},{"pincode":"737106","office":"Pacheykhani BO","district":"Pakyong","state":"SIKKIM","circle":"West Bengal Circle","region":"DivReportingCircle"},{"pincode":"737113","office":"Bermiok BO","district":"Soreng","state":"SIKKIM","circle":"West Bengal Circle","region":"DivReportingCircle"},{"pincode":"737113","office":"Darap BO","district":"WEST DISTRICT","state":"SIKKIM","circle":"West Bengal Circle","region":"DivReportingCircle"},{"pincode":"737103","office":"Bhusuk BO","district":"EAST DISTRICT","state":"SIKKIM","circle":"West Bengal Circle","region":"DivReportingCircle"},{"pincode":"737103","office":"Bojoghari BO","district":"NORTH DISTRICT","state":"SIKKIM","circle":"West Bengal Circle","region":"DivReportingCircle"},{"pincode":"737103","office":"Lingdok BO","district":"NORTH DISTRICT","state":"SIKKIM","circle":"West Bengal Circle","region":"DivReportingCircle"},{"pincode":"737131","office":"Dalapchand BO","district":"Pakyong","state":"SIKKIM","circle":"West Bengal Circle","region":"DivReportingCircle"},{"pincode":"737131","office":"North Regu BO","district":"Pakyong","state":"SIKKIM","circle":"West Bengal Circle","region":"DivReportingCircle"},{"pincode":"737132","office":"East Pendam BO","district":"Pakyong","state":"SIKKIM","circle":"West Bengal Circle","region":"DivReportingCircle"},{"pincode":"737132","office":"Kateng Bokrang BO","district":"SOUTH DISTRICT","state":"SIKKIM","circle":"West Bengal Circle","region":"DivReportingCircle"},{"pincode":"737132","office":"Mamring BO","district":"SOUTH DISTRICT","state":"SIKKIM","circle":"West Bengal Circle","region":"DivReportingCircle"},{"pincode":"737132","office":"Turung BO","district":"SOUTH DISTRICT","state":"SIKKIM","circle":"West Bengal Circle","region":"DivReportingCircle"},{"pincode":"737135","office":"Samlickmarchak BO","district":"EAST DISTRICT","state":"SIKKIM","circle":"West Bengal Circle","region":"DivReportingCircle"},{"pincode":"737135","office":"Upper Martam BO","district":"EAST DISTRICT","state":"SIKKIM","circle":"West Bengal Circle","region":"DivReportingCircle"},{"pincode":"737139","office":"Phamtam BO","district":"SOUTH DISTRICT","state":"SIKKIM","circle":"West Bengal Circle","region":"DivReportingCircle"},{"pincode":"737133","office":"Aritar BO","district":"Pakyong","state":"SIKKIM","circle":"West Bengal Circle","region":"DivReportingCircle"},{"pincode":"737133","office":"Shivalaya Mandir Lingsey BO","district":"Pakyong","state":"SIKKIM","circle":"West Bengal Circle","region":"DivReportingCircle"},{"pincode":"737134","office":"Lingmoo BO","district":"SOUTH DISTRICT","state":"SIKKIM","circle":"West Bengal Circle","region":"DivReportingCircle"},{"pincode":"737102","office":"Kyanglasha BO","district":"EAST DISTRICT","state":"SIKKIM","circle":"West Bengal Circle","region":"DivReportingCircle"},{"pincode":"737102","office":"Pabyiok BO","district":"EAST DISTRICT","state":"SIKKIM","circle":"West Bengal Circle","region":"DivReportingCircle"},{"pincode":"737111","office":"Gayzing SO","district":"WEST DISTRICT","state":"SIKKIM","circle":"West Bengal Circle","region":"DivReportingCircle"},{"pincode":"737135","office":"Ranipool SO","district":"EAST DISTRICT","state":"SIKKIM","circle":"West Bengal Circle","region":"DivReportingCircle"},{"pincode":"737102","office":"SMUSikkim Manipal University","district":"EAST DISTRICT","state":"SIKKIM","circle":"West Bengal Circle","region":"DivReportingCircle"},{"pincode":"737120","office":"Lachung BO","district":"NORTH DISTRICT","state":"SIKKIM","circle":"West Bengal Circle","region":"DivReportingCircle"},{"pincode":"737111","office":"Karjee BO","district":"WEST DISTRICT","state":"SIKKIM","circle":"West Bengal Circle","region":"DivReportingCircle"},{"pincode":"737116","office":"Lingthem BO","district":"NORTH DISTRICT","state":"SIKKIM","circle":"West Bengal Circle","region":"DivReportingCircle"},{"pincode":"737116","office":"Manul BO","district":"NORTH DISTRICT","state":"SIKKIM","circle":"West Bengal Circle","region":"DivReportingCircle"},{"pincode":"737116","office":"Phamtam BO","district":"NORTH DISTRICT","state":"SIKKIM","circle":"West Bengal Circle","region":"DivReportingCircle"},{"pincode":"737116","office":"Phudong BO","district":"NORTH DISTRICT","state":"SIKKIM","circle":"West Bengal Circle","region":"DivReportingCircle"},{"pincode":"737128","office":"Lungchuk BO","district":"SOUTH DISTRICT","state":"SIKKIM","circle":"West Bengal Circle","region":"DivReportingCircle"},{"pincode":"737128","office":"Melli Dara BO","district":"SOUTH DISTRICT","state":"SIKKIM","circle":"West Bengal Circle","region":"DivReportingCircle"},{"pincode":"737128","office":"Payiong BO","district":"SOUTH DISTRICT","state":"SIKKIM","circle":"West Bengal Circle","region":"DivReportingCircle"},{"pincode":"737126","office":"Assangthang BO","district":"SOUTH DISTRICT","state":"SIKKIM","circle":"West Bengal Circle","region":"DivReportingCircle"},{"pincode":"737126","office":"Poklok BO","district":"SOUTH DISTRICT","state":"SIKKIM","circle":"West Bengal Circle","region":"DivReportingCircle"},{"pincode":"737126","office":"Shalghari BO","district":"SOUTH DISTRICT","state":"SIKKIM","circle":"West Bengal Circle","region":"DivReportingCircle"},{"pincode":"737121","office":"Chumbong BO","district":"WEST DISTRICT","state":"SIKKIM","circle":"West Bengal Circle","region":"DivReportingCircle"},{"pincode":"737121","office":"Malbasey BO","district":"WEST DISTRICT","state":"SIKKIM","circle":"West Bengal Circle","region":"DivReportingCircle"},{"pincode":"737121","office":"Reshi BO","district":"WEST DISTRICT","state":"SIKKIM","circle":"West Bengal Circle","region":"DivReportingCircle"},{"pincode":"737121","office":"Timburbong BO","district":"WEST DISTRICT","state":"SIKKIM","circle":"West Bengal Circle","region":"DivReportingCircle"},{"pincode":"737106","office":"Bering BO","district":"Pakyong","state":"SIKKIM","circle":"West Bengal Circle","region":"DivReportingCircle"},{"pincode":"737106","office":"Changayshanti BO","district":"Pakyong","state":"SIKKIM","circle":"West Bengal Circle","region":"DivReportingCircle"},{"pincode":"737113","office":"Kaluk BO","district":"Soreng","state":"SIKKIM","circle":"West Bengal Circle","region":"DivReportingCircle"},{"pincode":"737113","office":"Mechi Aching BO","district":"WEST DISTRICT","state":"SIKKIM","circle":"West Bengal Circle","region":"DivReportingCircle"},{"pincode":"737131","office":"South Regu BO","district":"Pakyong","state":"SIKKIM","circle":"West Bengal Circle","region":"DivReportingCircle"},{"pincode":"737132","office":"Upper Pendam BO","district":"Pakyong","state":"SIKKIM","circle":"West Bengal Circle","region":"DivReportingCircle"},{"pincode":"737135","office":"Ahoo Busty BO","district":"EAST DISTRICT","state":"SIKKIM","circle":"West Bengal Circle","region":"DivReportingCircle"},{"pincode":"737139","office":"Ralang BO","district":"SOUTH DISTRICT","state":"SIKKIM","circle":"West Bengal Circle","region":"DivReportingCircle"},{"pincode":"737139","office":"Sangmoo BO","district":"SOUTH DISTRICT","state":"SIKKIM","circle":"West Bengal Circle","region":"DivReportingCircle"},{"pincode":"737139","office":"Tingmoo BO","district":"SOUTH DISTRICT","state":"SIKKIM","circle":"West Bengal Circle","region":"DivReportingCircle"},{"pincode":"737133","office":"Sudunglakha BO","district":"Pakyong","state":"SIKKIM","circle":"West Bengal Circle","region":"DivReportingCircle"},{"pincode":"737134","office":"Bardang BO","district":"EAST DISTRICT","state":"SIKKIM","circle":"West Bengal Circle","region":"DivReportingCircle"},{"pincode":"737134","office":"Bermiok BO","district":"SOUTH DISTRICT","state":"SIKKIM","circle":"West Bengal Circle","region":"DivReportingCircle"},{"pincode":"737134","office":"Beyong BO","district":"EAST DISTRICT","state":"SIKKIM","circle":"West Bengal Circle","region":"DivReportingCircle"},{"pincode":"737134","office":"Kokalay BO","district":"EAST DISTRICT","state":"SIKKIM","circle":"West Bengal Circle","region":"DivReportingCircle"},{"pincode":"737134","office":"Sinchuthang BO","district":"EAST DISTRICT","state":"SIKKIM","circle":"West Bengal Circle","region":"DivReportingCircle"},{"pincode":"737102","office":"Sherathang BO","district":"EAST DISTRICT","state":"SIKKIM","circle":"West Bengal Circle","region":"DivReportingCircle"},{"pincode":"737102","office":"Deorali SO","district":"EAST DISTRICT","state":"SIKKIM","circle":"West Bengal Circle","region":"DivReportingCircle"},{"pincode":"737107","office":"Rakdong BO","district":"EAST DISTRICT","state":"SIKKIM","circle":"West Bengal Circle","region":"DivReportingCircle"},{"pincode":"737111","office":"Rangship BO","district":"WEST DISTRICT","state":"SIKKIM","circle":"West Bengal Circle","region":"DivReportingCircle"},{"pincode":"737111","office":"Rinchenpong BO","district":"WEST DISTRICT","state":"SIKKIM","circle":"West Bengal Circle","region":"DivReportingCircle"},{"pincode":"737111","office":"Sinek BO","district":"WEST DISTRICT","state":"SIKKIM","circle":"West Bengal Circle","region":"DivReportingCircle"},{"pincode":"737116","office":"Men Rong Rong BO","district":"NORTH DISTRICT","state":"SIKKIM","circle":"West Bengal Circle","region":"DivReportingCircle"},{"pincode":"737116","office":"Ramthang BO","district":"NORTH DISTRICT","state":"SIKKIM","circle":"West Bengal Circle","region":"DivReportingCircle"},{"pincode":"737116","office":"Singhik BO","district":"NORTH DISTRICT","state":"SIKKIM","circle":"West Bengal Circle","region":"DivReportingCircle"},{"pincode":"737116","office":"Kabi BO","district":"NORTH DISTRICT","state":"SIKKIM","circle":"West Bengal Circle","region":"DivReportingCircle"},{"pincode":"737128","office":"Kerabari BO","district":"SOUTH DISTRICT","state":"SIKKIM","circle":"West Bengal Circle","region":"DivReportingCircle"},{"pincode":"737126","office":"Nandugaon BO","district":"SOUTH DISTRICT","state":"SIKKIM","circle":"West Bengal Circle","region":"DivReportingCircle"},{"pincode":"737126","office":"Rong BO","district":"SOUTH DISTRICT","state":"SIKKIM","circle":"West Bengal Circle","region":"DivReportingCircle"},{"pincode":"737121","office":"Zoom BO","district":"WEST DISTRICT","state":"SIKKIM","circle":"West Bengal Circle","region":"DivReportingCircle"},{"pincode":"737113","office":"Singrangpung","district":"WEST DISTRICT","state":"SIKKIM","circle":"West Bengal Circle","region":"DivReportingCircle"},{"pincode":"737113","office":"Dentam BO","district":"WEST DISTRICT","state":"SIKKIM","circle":"West Bengal Circle","region":"DivReportingCircle"},{"pincode":"737113","office":"Thingling BO","district":"WEST DISTRICT","state":"SIKKIM","circle":"West Bengal Circle","region":"DivReportingCircle"},{"pincode":"737131","office":"Phadamchen BO","district":"Pakyong","state":"SIKKIM","circle":"West Bengal Circle","region":"DivReportingCircle"},{"pincode":"737131","office":"Rolep BO","district":"Pakyong","state":"SIKKIM","circle":"West Bengal Circle","region":"DivReportingCircle"},{"pincode":"737135","office":"Middle Camp BO","district":"EAST DISTRICT","state":"SIKKIM","circle":"West Bengal Circle","region":"DivReportingCircle"},{"pincode":"737135","office":"Rauteyrumtek BO","district":"EAST DISTRICT","state":"SIKKIM","circle":"West Bengal Circle","region":"DivReportingCircle"},{"pincode":"737133","office":"Amba BO","district":"Pakyong","state":"SIKKIM","circle":"West Bengal Circle","region":"DivReportingCircle"},{"pincode":"737133","office":"Upper Khamdong BO","district":"Pakyong","state":"SIKKIM","circle":"West Bengal Circle","region":"DivReportingCircle"},{"pincode":"737134","office":"Dipudara Nhpc Complex BO","district":"EAST DISTRICT","state":"SIKKIM","circle":"West Bengal Circle","region":"DivReportingCircle"},{"pincode":"737134","office":"Khamdong BO","district":"EAST DISTRICT","state":"SIKKIM","circle":"West Bengal Circle","region":"DivReportingCircle"},{"pincode":"737139","office":"Lunsing BO","district":"SOUTH DISTRICT","state":"SIKKIM","circle":"West Bengal Circle","region":"DivReportingCircle"},{"pincode":"737134","office":"Tarku BO","district":"SOUTH DISTRICT","state":"SIKKIM","circle":"West Bengal Circle","region":"DivReportingCircle"},{"pincode":"737102","office":"Samdur BO","district":"EAST DISTRICT","state":"SIKKIM","circle":"West Bengal Circle","region":"DivReportingCircle"},{"pincode":"737120","office":"Chungthang SO","district":"NORTH DISTRICT","state":"SIKKIM","circle":"West Bengal Circle","region":"DivReportingCircle"},{"pincode":"737116","office":"Mangan SO","district":"NORTH DISTRICT","state":"SIKKIM","circle":"West Bengal Circle","region":"DivReportingCircle"},{"pincode":"737106","office":"Pakyong SO","district":"Pakyong","state":"SIKKIM","circle":"West Bengal Circle","region":"DivReportingCircle"},{"pincode":"737103","office":"Rajbhawan SO East Sikkim","district":"EAST DISTRICT","state":"SIKKIM","circle":"West Bengal Circle","region":"DivReportingCircle"},{"pincode":"737133","office":"Rhenock SO","district":"Pakyong","state":"SIKKIM","circle":"West Bengal Circle","region":"DivReportingCircle"},{"pincode":"737101","office":"Sichey Gaon SO","district":"EAST DISTRICT","state":"SIKKIM","circle":"West Bengal Circle","region":"DivReportingCircle"},{"pincode":"737120","office":"Naga BO","district":"NORTH DISTRICT","state":"SIKKIM","circle":"West Bengal Circle","region":"DivReportingCircle"},{"pincode":"737116","office":"Rangrang BO","district":"NORTH DISTRICT","state":"SIKKIM","circle":"West Bengal Circle","region":"DivReportingCircle"},{"pincode":"737116","office":"Sangkalan BO","district":"NORTH DISTRICT","state":"SIKKIM","circle":"West Bengal Circle","region":"DivReportingCircle"},{"pincode":"737128","office":"Turuk BO","district":"SOUTH DISTRICT","state":"SIKKIM","circle":"West Bengal Circle","region":"DivReportingCircle"},{"pincode":"737126","office":"Damthang BO","district":"SOUTH DISTRICT","state":"SIKKIM","circle":"West Bengal Circle","region":"DivReportingCircle"},{"pincode":"737121","office":"Arubotay BO","district":"WEST DISTRICT","state":"SIKKIM","circle":"West Bengal Circle","region":"DivReportingCircle"},{"pincode":"737121","office":"Sanchabarey Daramdim BO","district":"WEST DISTRICT","state":"SIKKIM","circle":"West Bengal Circle","region":"DivReportingCircle"},{"pincode":"737121","office":"Sombaria BO","district":"WEST DISTRICT","state":"SIKKIM","circle":"West Bengal Circle","region":"DivReportingCircle"},{"pincode":"737121","office":"Takuthang BO","district":"WEST DISTRICT","state":"SIKKIM","circle":"West Bengal Circle","region":"DivReportingCircle"},{"pincode":"737121","office":"Tikpur BO","district":"WEST DISTRICT","state":"SIKKIM","circle":"West Bengal Circle","region":"DivReportingCircle"},{"pincode":"737106","office":"Namcheybong BO","district":"Pakyong","state":"SIKKIM","circle":"West Bengal Circle","region":"DivReportingCircle"},{"pincode":"737106","office":"Tshalamthang BO","district":"Pakyong","state":"SIKKIM","circle":"West Bengal Circle","region":"DivReportingCircle"},{"pincode":"737106","office":"Pachey Sansung BO","district":"Pakyong","state":"SIKKIM","circle":"West Bengal Circle","region":"DivReportingCircle"},{"pincode":"737113","office":"Hee Gaon BO","district":"Soreng","state":"SIKKIM","circle":"West Bengal Circle","region":"DivReportingCircle"},{"pincode":"737113","office":"Karmatar BO","district":"WEST DISTRICT","state":"SIKKIM","circle":"West Bengal Circle","region":"DivReportingCircle"},{"pincode":"737113","office":"Rimbi BO","district":"WEST DISTRICT","state":"SIKKIM","circle":"West Bengal Circle","region":"DivReportingCircle"},{"pincode":"737103","office":"Luing BO","district":"EAST DISTRICT","state":"SIKKIM","circle":"West Bengal Circle","region":"DivReportingCircle"},{"pincode":"737103","office":"Penlong BO","district":"NORTH DISTRICT","state":"SIKKIM","circle":"West Bengal Circle","region":"DivReportingCircle"},{"pincode":"737103","office":"Chongey BO","district":"EAST DISTRICT","state":"SIKKIM","circle":"West Bengal Circle","region":"DivReportingCircle"},{"pincode":"737131","office":"Lingtam BO","district":"Pakyong","state":"SIKKIM","circle":"West Bengal Circle","region":"DivReportingCircle"},{"pincode":"737106","office":"Parkha BO","district":"Pakyong","state":"SIKKIM","circle":"West Bengal Circle","region":"DivReportingCircle"},{"pincode":"737132","office":"Duga BO","district":"Pakyong","state":"SIKKIM","circle":"West Bengal Circle","region":"DivReportingCircle"},{"pincode":"737135","office":"Assam Lingzey BO","district":"EAST DISTRICT","state":"SIKKIM","circle":"West Bengal Circle","region":"DivReportingCircle"},{"pincode":"737135","office":"Nandok BO","district":"EAST DISTRICT","state":"SIKKIM","circle":"West Bengal Circle","region":"DivReportingCircle"},{"pincode":"737135","office":"Raymindu BO","district":"EAST DISTRICT","state":"SIKKIM","circle":"West Bengal Circle","region":"DivReportingCircle"},{"pincode":"737139","office":"Ben BO","district":"SOUTH DISTRICT","state":"SIKKIM","circle":"West Bengal Circle","region":"DivReportingCircle"},{"pincode":"737139","office":"Kewzing BO","district":"SOUTH DISTRICT","state":"SIKKIM","circle":"West Bengal Circle","region":"DivReportingCircle"},{"pincode":"737139","office":"Sada","district":"SOUTH DISTRICT","state":"SIKKIM","circle":"West Bengal Circle","region":"DivReportingCircle"},{"pincode":"737134","office":"Gangkha Busty BO","district":"EAST DISTRICT","state":"SIKKIM","circle":"West Bengal Circle","region":"DivReportingCircle"},{"pincode":"737134","office":"Lingee BO","district":"EAST DISTRICT","state":"SIKKIM","circle":"West Bengal Circle","region":"DivReportingCircle"},{"pincode":"737134","office":"Nazitam BO","district":"EAST DISTRICT","state":"SIKKIM","circle":"West Bengal Circle","region":"DivReportingCircle"},{"pincode":"737134","office":"Neya BO","district":"SOUTH DISTRICT","state":"SIKKIM","circle":"West Bengal Circle","region":"DivReportingCircle"},{"pincode":"737134","office":"SANG BO","district":"EAST DISTRICT","state":"SIKKIM","circle":"West Bengal Circle","region":"DivReportingCircle"},{"pincode":"737134","office":"Sumin BO","district":"EAST DISTRICT","state":"SIKKIM","circle":"West Bengal Circle","region":"DivReportingCircle"},{"pincode":"737134","office":"Temi Tarku BO","district":"SOUTH DISTRICT","state":"SIKKIM","circle":"West Bengal Circle","region":"DivReportingCircle"},{"pincode":"737134","office":"Makha BO","district":"EAST DISTRICT","state":"SIKKIM","circle":"West Bengal Circle","region":"DivReportingCircle"},{"pincode":"737102","office":"Kupup BO","district":"EAST DISTRICT","state":"SIKKIM","circle":"West Bengal Circle","region":"DivReportingCircle"},{"pincode":"737101","office":"Gangtok HO","district":"EAST DISTRICT","state":"SIKKIM","circle":"West Bengal Circle","region":"DivReportingCircle"},{"pincode":"737121","office":"Naya Bazar SO West Sikkim","district":"WEST DISTRICT","state":"SIKKIM","circle":"West Bengal Circle","region":"DivReportingCircle"},{"pincode":"737132","office":"Rangpo SO","district":"Pakyong","state":"SIKKIM","circle":"West Bengal Circle","region":"DivReportingCircle"},{"pincode":"737139","office":"Ravangla SO","district":"SOUTH DISTRICT","state":"SIKKIM","circle":"West Bengal Circle","region":"DivReportingCircle"},{"pincode":"737102","office":"Tadong SO","district":"EAST DISTRICT","state":"SIKKIM","circle":"West Bengal Circle","region":"DivReportingCircle"},{"pincode":"737103","office":"Tashiling SO","district":"EAST DISTRICT","state":"SIKKIM","circle":"West Bengal Circle","region":"DivReportingCircle"}]