[{"pincode":"396210","office":"Bhimpore BO","district":"DAMAN","state":"THE DADRA AND NAGAR HAVELI AND DAMAN AND DIU","circle":"Gujarat Circle","region":"Vadodara Region"},{"pincode":"396210","office":"Dunetha BO","district":"DAMAN","state":"THE DADRA AND NAGAR HAVELI AND DAMAN AND DIU","circle":"Gujarat Circle","region":"Vadodara Region"},{"pincode":"396210","office":"Kadaiya BO","district":"DAMAN","state":"THE DADRA AND NAGAR HAVELI AND DAMAN AND DIU","circle":"Gujarat Circle","region":"Vadodara Region"},{"pincode":"396210","office":"Varkund BO","district":"DAMAN","state":"THE DADRA AND NAGAR HAVELI AND DAMAN AND DIU","circle":"Gujarat Circle","region":"Vadodara Region"},{"pincode":"396240","office":"Chinchpada BO","district":"DADRA AND NAGAR HAVELI","state":"THE DADRA AND NAGAR HAVELI AND DAMAN AND DIU","circle":"Gujarat Circle","region":"Vadodara Region"},{"pincode":"396240","office":"Rakholi BO","district":"DADRA AND NAGAR HAVELI","state":"THE DADRA AND NAGAR HAVELI AND DAMAN AND DIU","circle":"Gujarat Circle","region":"Vadodara Region"},{"pincode":"396235","office":"Athal BO","district":"DADRA AND NAGAR HAVELI","state":"THE DADRA AND NAGAR HAVELI AND DAMAN AND DIU","circle":"Gujarat Circle","region":"Vadodara Region"},{"pincode":"396230","office":"Amboli BO","district":"DADRA AND NAGAR HAVELI","state":"THE DADRA AND NAGAR HAVELI AND DAMAN AND DIU","circle":"Gujarat Circle","region":"Vadodara Region"},{"pincode":"396230","office":"Mota Randha BO","district":"DADRA AND NAGAR HAVELI","state":"THE DADRA AND NAGAR HAVELI AND DAMAN AND DIU","circle":"Gujarat Circle","region":"Vadodara Region"},{"pincode":"396230","office":"Rudana BO","district":"DADRA AND NAGAR HAVELI","state":"THE DADRA AND NAGAR HAVELI AND DAMAN AND DIU","circle":"Gujarat Circle","region":"Vadodara Region"},{"pincode":"396230","office":"Velugam BO","district":"DADRA AND NAGAR HAVELI","state":"THE DADRA AND NAGAR HAVELI AND DAMAN AND DIU","circle":"Gujarat Circle","region":"Vadodara Region"},{"pincode":"362570","office":"Wanakbara SO","district":"DIU","state":"THE DADRA AND NAGAR HAVELI AND DAMAN AND DIU","circle":"Gujarat Circle","region":"Rajkot Region"},{"pincode":"396193","office":"Dadra SO","district":"DADRA AND NAGAR HAVELI","state":"THE DADRA AND NAGAR HAVELI AND DAMAN AND DIU","circle":"Gujarat Circle","region":"Vadodara Region"},{"pincode":"396215","office":"Daman IE SO","district":"DAMAN","state":"THE DADRA AND NAGAR HAVELI AND DAMAN AND DIU","circle":"Gujarat Circle","region":"Vadodara Region"},{"pincode":"362570","office":"Bucharvada BO","district":"DIU","state":"THE DADRA AND NAGAR HAVELI AND DAMAN AND DIU","circle":"Gujarat Circle","region":"Rajkot Region"},{"pincode":"396215","office":"Dabhel BO","district":"DAMAN","state":"THE DADRA AND NAGAR HAVELI AND DAMAN AND DIU","circle":"Gujarat Circle","region":"Vadodara Region"},{"pincode":"396210","office":"Nani Vankad BO","district":"DAMAN","state":"THE DADRA AND NAGAR HAVELI AND DAMAN AND DIU","circle":"Gujarat Circle","region":"Vadodara Region"},{"pincode":"396240","office":"Chikhli BO","district":"DADRA AND NAGAR HAVELI","state":"THE DADRA AND NAGAR HAVELI AND DAMAN AND DIU","circle":"Gujarat Circle","region":"Vadodara Region"},{"pincode":"396240","office":"Surangi BO","district":"DADRA AND NAGAR HAVELI","state":"THE DADRA AND NAGAR HAVELI AND DAMAN AND DIU","circle":"Gujarat Circle","region":"Vadodara Region"},{"pincode":"396230","office":"Mandoni BO","district":"DADRA AND NAGAR HAVELI","state":"THE DADRA AND NAGAR HAVELI AND DAMAN AND DIU","circle":"Gujarat Circle","region":"Vadodara Region"},{"pincode":"396230","office":"Parzai BO","district":"DADRA AND NAGAR HAVELI","state":"THE DADRA AND NAGAR HAVELI AND DAMAN AND DIU","circle":"Gujarat Circle","region":"Vadodara Region"},{"pincode":"396210","office":"Daman SO","district":"DAMAN","state":"THE DADRA AND NAGAR HAVELI AND DAMAN AND DIU","circle":"Gujarat Circle","region":"Vadodara Region"},{"pincode":"396240","office":"Saily BO","district":"DADRA AND NAGAR HAVELI","state":"THE DADRA AND NAGAR HAVELI AND DAMAN AND DIU","circle":"Gujarat Circle","region":"Vadodara Region"},{"pincode":"396240","office":"Vasona BO","district":"DADRA AND NAGAR HAVELI","state":"THE DADRA AND NAGAR HAVELI AND DAMAN AND DIU","circle":"Gujarat Circle","region":"Vadodara Region"},{"pincode":"396230","office":"Amli BO","district":"DADRA AND NAGAR HAVELI","state":"THE DADRA AND NAGAR HAVELI AND DAMAN AND DIU","circle":"Gujarat Circle","region":"Vadodara Region"},{"pincode":"396230","office":"Chisda BO","district":"DADRA AND NAGAR HAVELI","state":"THE DADRA AND NAGAR HAVELI AND DAMAN AND DIU","circle":"Gujarat Circle","region":"Vadodara Region"},{"pincode":"396230","office":"Dudhani BO","district":"DADRA AND NAGAR HAVELI","state":"THE DADRA AND NAGAR HAVELI AND DAMAN AND DIU","circle":"Gujarat Circle","region":"Vadodara Region"},{"pincode":"396230","office":"Karachgam BO","district":"DADRA AND NAGAR HAVELI","state":"THE DADRA AND NAGAR HAVELI AND DAMAN AND DIU","circle":"Gujarat Circle","region":"Vadodara Region"},{"pincode":"396230","office":"Khutli BO","district":"DADRA AND NAGAR HAVELI","state":"THE DADRA AND NAGAR HAVELI AND DAMAN AND DIU","circle":"Gujarat Circle","region":"Vadodara Region"},{"pincode":"396235","office":"Naroli SO","district":"DADRA AND NAGAR HAVELI","state":"THE DADRA AND NAGAR HAVELI AND DAMAN AND DIU","circle":"Gujarat Circle","region":"Vadodara Region"},{"pincode":"396215","office":"Kachigam BO","district":"DAMAN","state":"THE DADRA AND NAGAR HAVELI AND DAMAN AND DIU","circle":"Gujarat Circle","region":"Vadodara Region"},{"pincode":"396220","office":"Dholar BO","district":"DAMAN","state":"THE DADRA AND NAGAR HAVELI AND DAMAN AND DIU","circle":"Gujarat Circle","region":"Vadodara Region"},{"pincode":"396235","office":"Kharadpada BO","district":"DADRA AND NAGAR HAVELI","state":"THE DADRA AND NAGAR HAVELI AND DAMAN AND DIU","circle":"Gujarat Circle","region":"Vadodara Region"},{"pincode":"396230","office":"Karchond BO","district":"DADRA AND NAGAR HAVELI","state":"THE DADRA AND NAGAR HAVELI AND DAMAN AND DIU","circle":"Gujarat Circle","region":"Vadodara Region"},{"pincode":"396230","office":"Masat BO","district":"DADRA AND NAGAR HAVELI","state":"THE DADRA AND NAGAR HAVELI AND DAMAN AND DIU","circle":"Gujarat Circle","region":"Vadodara Region"},{"pincode":"396230","office":"Samarvarni BO","district":"DADRA AND NAGAR HAVELI","state":"THE DADRA AND NAGAR HAVELI AND DAMAN AND DIU","circle":"Gujarat Circle","region":"Vadodara Region"},{"pincode":"396220","office":"Moti Daman SO","district":"DAMAN","state":"THE DADRA AND NAGAR HAVELI AND DAMAN AND DIU","circle":"Gujarat Circle","region":"Vadodara Region"},{"pincode":"396210","office":"Marvad BO","district":"DAMAN","state":"THE DADRA AND NAGAR HAVELI AND DAMAN AND DIU","circle":"Gujarat Circle","region":"Vadodara Region"},{"pincode":"396240","office":"Dapada BO","district":"DADRA AND NAGAR HAVELI","state":"THE DADRA AND NAGAR HAVELI AND DAMAN AND DIU","circle":"Gujarat Circle","region":"Vadodara Region"},{"pincode":"396220","office":"Magarwada BO","district":"DAMAN","state":"THE DADRA AND NAGAR HAVELI AND DAMAN AND DIU","circle":"Gujarat Circle","region":"Vadodara Region"},{"pincode":"396230","office":"Athola BO","district":"DADRA AND NAGAR HAVELI","state":"THE DADRA AND NAGAR HAVELI AND DAMAN AND DIU","circle":"Gujarat Circle","region":"Vadodara Region"},{"pincode":"396230","office":"Bedpa BO","district":"DADRA AND NAGAR HAVELI","state":"THE DADRA AND NAGAR HAVELI AND DAMAN AND DIU","circle":"Gujarat Circle","region":"Vadodara Region"},{"pincode":"396230","office":"Khadoli BO","district":"DADRA AND NAGAR HAVELI","state":"THE DADRA AND NAGAR HAVELI AND DAMAN AND DIU","circle":"Gujarat Circle","region":"Vadodara Region"},{"pincode":"396230","office":"Khanvel BO","district":"DADRA AND NAGAR HAVELI","state":"THE DADRA AND NAGAR HAVELI AND DAMAN AND DIU","circle":"Gujarat Circle","region":"Vadodara Region"},{"pincode":"396230","office":"Kherdi BO","district":"DADRA AND NAGAR HAVELI","state":"THE DADRA AND NAGAR HAVELI AND DAMAN AND DIU","circle":"Gujarat Circle","region":"Vadodara Region"},{"pincode":"396230","office":"Selti BO","district":"DADRA AND NAGAR HAVELI","state":"THE DADRA AND NAGAR HAVELI AND DAMAN AND DIU","circle":"Gujarat Circle","region":"Vadodara Region"},{"pincode":"396230","office":"Sili BO","district":"DADRA AND NAGAR HAVELI","state":"THE DADRA AND NAGAR HAVELI AND DAMAN AND DIU","circle":"Gujarat Circle","region":"Vadodara Region"},{"pincode":"396230","office":"Umarkui BO","district":"DADRA AND NAGAR HAVELI","state":"THE DADRA AND NAGAR HAVELI AND DAMAN AND DIU","circle":"Gujarat Circle","region":"Vadodara Region"},{"pincode":"362520","office":"Diu SO","district":"DIU","state":"THE DADRA AND NAGAR HAVELI AND DAMAN AND DIU","circle":"Gujarat Circle","region":"Rajkot Region"},{"pincode":"362540","office":"Ghoghla SO","district":"DIU","state":"THE DADRA AND NAGAR HAVELI AND DAMAN AND DIU","circle":"Gujarat Circle","region":"Rajkot Region"},{"pincode":"362520","office":"Diu Bazar ND TSO","district":"DIU","state":"THE DADRA AND NAGAR HAVELI AND DAMAN AND DIU","circle":"Gujarat Circle","region":"Rajkot Region"},{"pincode":"396230","office":"Silvassa SO","district":"DADRA AND NAGAR HAVELI","state":"THE DADRA AND NAGAR HAVELI AND DAMAN AND DIU","circle":"Gujarat Circle","region":"Vadodara Region"}]