[{"pincode":"799009","office":"Lankamura B.O","district":"West Tripura","state":"TRIPURA","circle":"North Eastern Circle","region":"North East - I Region"},{"pincode":"799004","office":"Aralia B.O","district":"West Tripura","state":"TRIPURA","circle":"North Eastern Circle","region":"North East - I Region"},{"pincode":"799003","office":"Ishanchandranagar B.O","district":"West Tripura","state":"TRIPURA","circle":"North Eastern Circle","region":"North East - I Region"},{"pincode":"799003","office":"Madhuban B.O","district":"West Tripura","state":"TRIPURA","circle":"North Eastern Circle","region":"North East - I Region"},{"pincode":"799045","office":"Champaknagar B.O","district":"West Tripura","state":"TRIPURA","circle":"North Eastern Circle","region":"North East - I Region"},{"pincode":"799102","office":"Kalkalia B.O","district":"Sepahijala","state":"TRIPURA","circle":"North Eastern Circle","region":"North East - I Region"},{"pincode":"799102","office":"Lalsingmura B.O","district":"Sepahijala","state":"TRIPURA","circle":"North Eastern Circle","region":"North East - I Region"},{"pincode":"799102","office":"Nabinagar B.O","district":"Sepahijala","state":"TRIPURA","circle":"North Eastern Circle","region":"North East - I Region"},{"pincode":"799102","office":"No.2 Chandranagar B.O","district":"Sepahijala","state":"TRIPURA","circle":"North Eastern Circle","region":"North East - I Region"},{"pincode":"799102","office":"Purba Laxmi Bill B.O","district":"Sepahijala","state":"TRIPURA","circle":"North Eastern Circle","region":"North East - I Region"},{"pincode":"799102","office":"South Nehalchandranagar B.O","district":"Sepahijala","state":"TRIPURA","circle":"North Eastern Circle","region":"North East - I Region"},{"pincode":"799102","office":"Veluarchar B.O","district":"Sepahijala","state":"TRIPURA","circle":"North Eastern Circle","region":"North East - I Region"},{"pincode":"799102","office":"West Laxmibill B.O","district":"Sepahijala","state":"TRIPURA","circle":"North Eastern Circle","region":"North East - I Region"},{"pincode":"799210","office":"Chechuria B.O","district":"West Tripura","state":"TRIPURA","circle":"North Eastern Circle","region":"North East - I Region"},{"pincode":"799008","office":"Khasnoagaon B.O","district":"West Tripura","state":"TRIPURA","circle":"North Eastern Circle","region":"North East - I Region"},{"pincode":"799008","office":"Mariamnagar B.O","district":"West Tripura","state":"TRIPURA","circle":"North Eastern Circle","region":"North East - I Region"},{"pincode":"799008","office":"Neepco B.O","district":"West Tripura","state":"TRIPURA","circle":"North Eastern Circle","region":"North East - I Region"},{"pincode":"799006","office":"Bankumari E/SB B.O","district":"West Tripura","state":"TRIPURA","circle":"North Eastern Circle","region":"North East - I Region"},{"pincode":"799006","office":"Nandannagar B.O","district":"West Tripura","state":"TRIPURA","circle":"North Eastern Circle","region":"North East - I Region"},{"pincode":"799002","office":"AgartalaGuard Post B.O","district":"West Tripura","state":"TRIPURA","circle":"North Eastern Circle","region":"North East - I Region"},{"pincode":"799002","office":"Border Rampur B.O","district":"West Tripura","state":"TRIPURA","circle":"North Eastern Circle","region":"North East - I Region"},{"pincode":"799035","office":"Burakha Landless Colony B.O","district":"West Tripura","state":"TRIPURA","circle":"North Eastern Circle","region":"North East - I Region"},{"pincode":"799130","office":"Kanchanmala B.O","district":"West Tripura","state":"TRIPURA","circle":"North Eastern Circle","region":"North East - I Region"},{"pincode":"799130","office":"Pandavpur B.O","district":"West Tripura","state":"TRIPURA","circle":"North Eastern Circle","region":"North East - I Region"},{"pincode":"799130","office":"Pravapur B.O","district":"West Tripura","state":"TRIPURA","circle":"North Eastern Circle","region":"North East - I Region"},{"pincode":"799212","office":"Darogamura B.O","district":"West Tripura","state":"TRIPURA","circle":"North Eastern Circle","region":"North East - I Region"},{"pincode":"799212","office":"Ishanpur B.O","district":"West Tripura","state":"TRIPURA","circle":"North Eastern Circle","region":"North East - I Region"},{"pincode":"799212","office":"Uttar Dasgharia B.O","district":"West Tripura","state":"TRIPURA","circle":"North Eastern Circle","region":"North East - I Region"},{"pincode":"799101","office":"Gamakubari B.O","district":"Gomati","state":"TRIPURA","circle":"North Eastern Circle","region":"North East - I Region"},{"pincode":"799101","office":"Kurma B.O","district":"Gomati","state":"TRIPURA","circle":"North Eastern Circle","region":"North East - I Region"},{"pincode":"799101","office":"Nagrai B.O","district":"Gomati","state":"TRIPURA","circle":"North Eastern Circle","region":"North East - I Region"},{"pincode":"799101","office":"Palku B.O","district":"Gomati","state":"TRIPURA","circle":"North Eastern Circle","region":"North East - I Region"},{"pincode":"799101","office":"Rangamati B.O","district":"Gomati","state":"TRIPURA","circle":"North Eastern Circle","region":"North East - I Region"},{"pincode":"799157","office":"Puran Rajbari B.O","district":"South Tripura","state":"TRIPURA","circle":"North Eastern Circle","region":"North East - I Region"},{"pincode":"799157","office":"Siddhinagar B.O","district":"South Tripura","state":"TRIPURA","circle":"North Eastern Circle","region":"North East - I Region"},{"pincode":"799155","office":"Abhoyganj Bazar B.O","district":"South Tripura","state":"TRIPURA","circle":"North Eastern Circle","region":"North East - I Region"},{"pincode":"799155","office":"Paschim Pipariakhola B.O","district":"South Tripura","state":"TRIPURA","circle":"North Eastern Circle","region":"North East - I Region"},{"pincode":"799103","office":"Charilam B.O","district":"Sepahijala","state":"TRIPURA","circle":"North Eastern Circle","region":"North East - I Region"},{"pincode":"799103","office":"Latiacherra B.O","district":"Sepahijala","state":"TRIPURA","circle":"North Eastern Circle","region":"North East - I Region"},{"pincode":"799103","office":"South Charilam B.O","district":"Sepahijala","state":"TRIPURA","circle":"North Eastern Circle","region":"North East - I Region"},{"pincode":"799113","office":"Bagma B.O","district":"Gomati","state":"TRIPURA","circle":"North Eastern Circle","region":"North East - I Region"},{"pincode":"799114","office":"Raiyabari B.O","district":"Gomati","state":"TRIPURA","circle":"North Eastern Circle","region":"North East - I Region"},{"pincode":"799125","office":"Gangacherra B.O","district":"Gomati","state":"TRIPURA","circle":"North Eastern Circle","region":"North East - I Region"},{"pincode":"799104","office":"Karbook B.O","district":"Gomati","state":"TRIPURA","circle":"North Eastern Circle","region":"North East - I Region"},{"pincode":"799104","office":"Purba Manikya Dewan B.O","district":"Gomati","state":"TRIPURA","circle":"North Eastern Circle","region":"North East - I Region"},{"pincode":"799156","office":"Nalua B.O","district":"South Tripura","state":"TRIPURA","circle":"North Eastern Circle","region":"North East - I Region"},{"pincode":"799156","office":"South Krishnagar B.O","district":"South Tripura","state":"TRIPURA","circle":"North Eastern Circle","region":"North East - I Region"},{"pincode":"799141","office":"Debdaru Bazar B.O","district":"South Tripura","state":"TRIPURA","circle":"North Eastern Circle","region":"North East - I Region"},{"pincode":"799141","office":"Thakurcherra B.O","district":"South Tripura","state":"TRIPURA","circle":"North Eastern Circle","region":"North East - I Region"},{"pincode":"799105","office":"Dhuptali B.O","district":"Gomati","state":"TRIPURA","circle":"North Eastern Circle","region":"North East - I Region"},{"pincode":"799105","office":"Hadra B.O","district":"Gomati","state":"TRIPURA","circle":"North Eastern Circle","region":"North East - I Region"},{"pincode":"799105","office":"Kusumara B.O","district":"Gomati","state":"TRIPURA","circle":"North Eastern Circle","region":"North East - I Region"},{"pincode":"799143","office":"Bhuratali B.O","district":"South Tripura","state":"TRIPURA","circle":"North Eastern Circle","region":"North East - I Region"},{"pincode":"799143","office":"Bishnupur B.O","district":"South Tripura","state":"TRIPURA","circle":"North Eastern Circle","region":"North East - I Region"},{"pincode":"799143","office":"Poangbari B.O","district":"South Tripura","state":"TRIPURA","circle":"North Eastern Circle","region":"North East - I Region"},{"pincode":"799115","office":"Bagabassa B.O","district":"Sepahijala","state":"TRIPURA","circle":"North Eastern Circle","region":"North East - I Region"},{"pincode":"799115","office":"Jumerdhepa B.O","district":"Sepahijala","state":"TRIPURA","circle":"North Eastern Circle","region":"North East - I Region"},{"pincode":"799142","office":"Muhuri Ratanpur B.O","district":"South Tripura","state":"TRIPURA","circle":"North Eastern Circle","region":"North East - I Region"},{"pincode":"799145","office":"Chalitacherra B.O","district":"South Tripura","state":"TRIPURA","circle":"North Eastern Circle","region":"North East - I Region"},{"pincode":"799144","office":"Bagafa B.O","district":"South Tripura","state":"TRIPURA","circle":"North Eastern Circle","region":"North East - I Region"},{"pincode":"799131","office":"Durgapur B.O","district":"Sepahijala","state":"TRIPURA","circle":"North Eastern Circle","region":"North East - I Region"},{"pincode":"799131","office":"Khedabari B.O","district":"Sepahijala","state":"TRIPURA","circle":"North Eastern Circle","region":"North East - I Region"},{"pincode":"799132","office":"Maheshpur B.O","district":"Sepahijala","state":"TRIPURA","circle":"North Eastern Circle","region":"North East - I Region"},{"pincode":"799289","office":"Harincherra B.O","district":"Dhalai","state":"TRIPURA","circle":"North Eastern Circle","region":"North East - I Region"},{"pincode":"799289","office":"Kanchanpur Colony B.O","district":"Dhalai","state":"TRIPURA","circle":"North Eastern Circle","region":"North East - I Region"},{"pincode":"799289","office":"Lakraichowdhuripara B.O","district":"Dhalai","state":"TRIPURA","circle":"North Eastern Circle","region":"North East - I Region"},{"pincode":"799281","office":"Irani B.O","district":"Unakoti","state":"TRIPURA","circle":"North Eastern Circle","region":"North East - I Region"},{"pincode":"799281","office":"Rangauti B.O","district":"Unakoti","state":"TRIPURA","circle":"North Eastern Circle","region":"North East - I Region"},{"pincode":"799281","office":"Tripura Tillabazar B.O","district":"Unakoti","state":"TRIPURA","circle":"North Eastern Circle","region":"North East - I Region"},{"pincode":"799273","office":"Bindulal Karbaripara B.O","district":"Dhalai","state":"TRIPURA","circle":"North Eastern Circle","region":"North East - I Region"},{"pincode":"799273","office":"Durgacherra B.O","district":"Dhalai","state":"TRIPURA","circle":"North Eastern Circle","region":"North East - I Region"},{"pincode":"799273","office":"Manikpur B.O","district":"Dhalai","state":"TRIPURA","circle":"North Eastern Circle","region":"North East - I Region"},{"pincode":"799251","office":"Bakbaki B.O","district":"North Tripura","state":"TRIPURA","circle":"North Eastern Circle","region":"North East - I Region"},{"pincode":"799251","office":"Baruakandi B.O","district":"North Tripura","state":"TRIPURA","circle":"North Eastern Circle","region":"North East - I Region"},{"pincode":"799251","office":"Bhagyapur B.O","district":"North Tripura","state":"TRIPURA","circle":"North Eastern Circle","region":"North East - I Region"},{"pincode":"799251","office":"Ichaisonapur B.O","district":"North Tripura","state":"TRIPURA","circle":"North Eastern Circle","region":"North East - I Region"},{"pincode":"799251","office":"Nayapara N.D B.O","district":"North Tripura","state":"TRIPURA","circle":"North Eastern Circle","region":"North East - I Region"},{"pincode":"799251","office":"Paschimchandrapur B.O","district":"North Tripura","state":"TRIPURA","circle":"North Eastern Circle","region":"North East - I Region"},{"pincode":"799207","office":"Rajnagar Khowai B.O","district":"Khowai","state":"TRIPURA","circle":"North Eastern Circle","region":"North East - I Region"},{"pincode":"799262","office":"Kheranjuri B.O","district":"North Tripura","state":"TRIPURA","circle":"North Eastern Circle","region":"North East - I Region"},{"pincode":"799290","office":"Emrapassa B.O","district":"Unakoti","state":"TRIPURA","circle":"North Eastern Circle","region":"North East - I Region"},{"pincode":"799290","office":"Gakulnagar B.O","district":"Unakoti","state":"TRIPURA","circle":"North Eastern Circle","region":"North East - I Region"},{"pincode":"799290","office":"Rajkandi B.O","district":"Unakoti","state":"TRIPURA","circle":"North Eastern Circle","region":"North East - I Region"},{"pincode":"799290","office":"Ratacherra B.O","district":"Unakoti","state":"TRIPURA","circle":"North Eastern Circle","region":"North East - I Region"},{"pincode":"799290","office":"Tarapur B.O","district":"Unakoti","state":"TRIPURA","circle":"North Eastern Circle","region":"North East - I Region"},{"pincode":"799286","office":"Durga Chowmuhani BO","district":"Dhalai","state":"TRIPURA","circle":"North Eastern Circle","region":"North East - I Region"},{"pincode":"799269","office":"Hmungchuan B.O","district":"North Tripura","state":"TRIPURA","circle":"North Eastern Circle","region":"North East - I Region"},{"pincode":"799269","office":"Sabual B.O","district":"North Tripura","state":"TRIPURA","circle":"North Eastern Circle","region":"North East - I Region"},{"pincode":"799261","office":"Pearacherra B.O","district":"North Tripura","state":"TRIPURA","circle":"North Eastern Circle","region":"North East - I Region"},{"pincode":"799277","office":"Manuvelly B.O","district":"Unakoti","state":"TRIPURA","circle":"North Eastern Circle","region":"North East - I Region"},{"pincode":"799277","office":"Noorpur B.O","district":"Unakoti","state":"TRIPURA","circle":"North Eastern Circle","region":"North East - I Region"},{"pincode":"799277","office":"Sadhanasram B.O","district":"Unakoti","state":"TRIPURA","circle":"North Eastern Circle","region":"North East - I Region"},{"pincode":"799203","office":"Durgapur B.O","district":"Khowai","state":"TRIPURA","circle":"North Eastern Circle","region":"North East - I Region"},{"pincode":"799203","office":"Paschim Santinagar B.O","district":"Khowai","state":"TRIPURA","circle":"North Eastern Circle","region":"North East - I Region"},{"pincode":"799203","office":"Ramdayal Lendless Colony B.O","district":"Khowai","state":"TRIPURA","circle":"North Eastern Circle","region":"North East - I Region"},{"pincode":"799203","office":"Ratia B.O","district":"Khowai","state":"TRIPURA","circle":"North Eastern Circle","region":"North East - I Region"},{"pincode":"799203","office":"Tablabari B.O","district":"Khowai","state":"TRIPURA","circle":"North Eastern Circle","region":"North East - I Region"},{"pincode":"799285","office":"Garodtilla B.O","district":"Dhalai","state":"TRIPURA","circle":"North Eastern Circle","region":"North East - I Region"},{"pincode":"799285","office":"Maracherra B.O","district":"Dhalai","state":"TRIPURA","circle":"North Eastern Circle","region":"North East - I Region"},{"pincode":"799201","office":"Behalabari B.O","district":"Khowai","state":"TRIPURA","circle":"North Eastern Circle","region":"North East - I Region"},{"pincode":"799201","office":"Ganki B.O","district":"Khowai","state":"TRIPURA","circle":"North Eastern Circle","region":"North East - I Region"},{"pincode":"799201","office":"Samatal Padmabil B.O","district":"Khowai","state":"TRIPURA","circle":"North Eastern Circle","region":"North East - I Region"},{"pincode":"799264","office":"East Kanchanbari B.O","district":"Unakoti","state":"TRIPURA","circle":"North Eastern Circle","region":"North East - I Region"},{"pincode":"799264","office":"Pabiacherra B.O","district":"Unakoti","state":"TRIPURA","circle":"North Eastern Circle","region":"North East - I Region"},{"pincode":"799264","office":"South Unokoti B.O","district":"Unakoti","state":"TRIPURA","circle":"North Eastern Circle","region":"North East - I Region"},{"pincode":"799287","office":"Nagbangshi B.O","district":"Dhalai","state":"TRIPURA","circle":"North Eastern Circle","region":"North East - I Region"},{"pincode":"799287","office":"Srirampur Lambucherra B.O","district":"Dhalai","state":"TRIPURA","circle":"North Eastern Circle","region":"North East - I Region"},{"pincode":"799275","office":"East Masli B.O","district":"Dhalai","state":"TRIPURA","circle":"North Eastern Circle","region":"North East - I Region"},{"pincode":"799260","office":"Agnipassa B.O","district":"North Tripura","state":"TRIPURA","circle":"North Eastern Circle","region":"North East - I Region"},{"pincode":"799260","office":"Indurail B.O","district":"North Tripura","state":"TRIPURA","circle":"North Eastern Circle","region":"North East - I Region"},{"pincode":"799260","office":"Padmabil B.O","district":"North Tripura","state":"TRIPURA","circle":"North Eastern Circle","region":"North East - I Region"},{"pincode":"799260","office":"Pekucherr B.O","district":"North Tripura","state":"TRIPURA","circle":"North Eastern Circle","region":"North East - I Region"},{"pincode":"799260","office":"Tilthai Nutanbazar B.O","district":"North Tripura","state":"TRIPURA","circle":"North Eastern Circle","region":"North East - I Region"},{"pincode":"799253","office":"Dharmanagar Bazar B.O","district":"North Tripura","state":"TRIPURA","circle":"North Eastern Circle","region":"North East - I Region"},{"pincode":"799253","office":"East Huruah B.O","district":"North Tripura","state":"TRIPURA","circle":"North Eastern Circle","region":"North East - I Region"},{"pincode":"799253","office":"Kameswargaon B.O","district":"North Tripura","state":"TRIPURA","circle":"North Eastern Circle","region":"North East - I Region"},{"pincode":"799253","office":"Krishnapur B.O","district":"North Tripura","state":"TRIPURA","circle":"North Eastern Circle","region":"North East - I Region"},{"pincode":"799253","office":"Lalcherra Colony B.O","district":"North Tripura","state":"TRIPURA","circle":"North Eastern Circle","region":"North East - I Region"},{"pincode":"799284","office":"Jagabandhu Para B.O","district":"Dhalai","state":"TRIPURA","circle":"North Eastern Circle","region":"North East - I Region"},{"pincode":"799284","office":"Laxmipur B.O","district":"Dhalai","state":"TRIPURA","circle":"North Eastern Circle","region":"North East - I Region"},{"pincode":"799284","office":"PURBA KALYANSINGPARA B.O","district":"Dhalai","state":"TRIPURA","circle":"North Eastern Circle","region":"North East - I Region"},{"pincode":"799280","office":"Birchandranagar B.O","district":"Unakoti","state":"TRIPURA","circle":"North Eastern Circle","region":"North East - I Region"},{"pincode":"799280","office":"Dalugaon B.O","district":"Unakoti","state":"TRIPURA","circle":"North Eastern Circle","region":"North East - I Region"},{"pincode":"799205","office":"Ataromura B.O","district":"Khowai","state":"TRIPURA","circle":"North Eastern Circle","region":"North East - I Region"},{"pincode":"799205","office":"Barmura Project B.O","district":"Khowai","state":"TRIPURA","circle":"North Eastern Circle","region":"North East - I Region"},{"pincode":"799205","office":"Hadrai B.O","district":"Khowai","state":"TRIPURA","circle":"North Eastern Circle","region":"North East - I Region"},{"pincode":"799205","office":"Kalitilla B.O","district":"Khowai","state":"TRIPURA","circle":"North Eastern Circle","region":"North East - I Region"},{"pincode":"799205","office":"Karailong B.O","district":"Khowai","state":"TRIPURA","circle":"North Eastern Circle","region":"North East - I Region"},{"pincode":"799205","office":"Netajinagar B.O","district":"Khowai","state":"TRIPURA","circle":"North Eastern Circle","region":"North East - I Region"},{"pincode":"799266","office":"West Nalkata B.O","district":"Dhalai","state":"TRIPURA","circle":"North Eastern Circle","region":"North East - I Region"},{"pincode":"799266","office":"Purba Betcherra B.O","district":"Dhalai","state":"TRIPURA","circle":"North Eastern Circle","region":"North East - I Region"},{"pincode":"799010","office":"Agartala Secretariat S.O","district":"West Tripura","state":"TRIPURA","circle":"North Eastern Circle","region":"North East - I Region"},{"pincode":"799006","office":"Kunjaban S.O","district":"West Tripura","state":"TRIPURA","circle":"North Eastern Circle","region":"North East - I Region"},{"pincode":"799130","office":"Sekerkote S.O","district":"West Tripura","state":"TRIPURA","circle":"North Eastern Circle","region":"North East - I Region"},{"pincode":"799212","office":"Sidhai S.O","district":"West Tripura","state":"TRIPURA","circle":"North Eastern Circle","region":"North East - I Region"},{"pincode":"799156","office":"Hrishyamukh S.O","district":"South Tripura","state":"TRIPURA","circle":"North Eastern Circle","region":"North East - I Region"},{"pincode":"799141","office":"Jolaibari S.O","district":"South Tripura","state":"TRIPURA","circle":"North Eastern Circle","region":"North East - I Region"},{"pincode":"799251","office":"Chandrapur S.O (North Tripura)","district":"North Tripura","state":"TRIPURA","circle":"North Eastern Circle","region":"North East - I Region"},{"pincode":"799207","office":"Chebri S.O","district":"Khowai","state":"TRIPURA","circle":"North Eastern Circle","region":"North East - I Region"},{"pincode":"799286","office":"Halahali S.O","district":"Dhalai","state":"TRIPURA","circle":"North Eastern Circle","region":"North East - I Region"},{"pincode":"799203","office":"Kalyanpur S.O (West Tripura)","district":"Khowai","state":"TRIPURA","circle":"North Eastern Circle","region":"North East - I Region"},{"pincode":"799288","office":"Kanchanbari S.O","district":"Unakoti","state":"TRIPURA","circle":"North Eastern Circle","region":"North East - I Region"},{"pincode":"799270","office":"Kanchanpur S.O (North Tripura)","district":"North Tripura","state":"TRIPURA","circle":"North Eastern Circle","region":"North East - I Region"},{"pincode":"799202","office":"Khowai Court S.O","district":"Khowai","state":"TRIPURA","circle":"North Eastern Circle","region":"North East - I Region"},{"pincode":"799201","office":"Khowai S.O","district":"Khowai","state":"TRIPURA","circle":"North Eastern Circle","region":"North East - I Region"},{"pincode":"799278","office":"Salema S.O","district":"Dhalai","state":"TRIPURA","circle":"North Eastern Circle","region":"North East - I Region"},{"pincode":"799266","office":"Kanchancherra","district":"Dhalai","state":"TRIPURA","circle":"North Eastern Circle","region":"North East - I Region"},{"pincode":"799120","office":"Radhakishorepur H.O","district":"Gomati","state":"TRIPURA","circle":"North Eastern Circle","region":"North East - I Region"},{"pincode":"799009","office":"Durjaynagar B.O","district":"West Tripura","state":"TRIPURA","circle":"North Eastern Circle","region":"North East - I Region"},{"pincode":"799009","office":"Narayanpur B.O","district":"West Tripura","state":"TRIPURA","circle":"North Eastern Circle","region":"North East - I Region"},{"pincode":"799004","office":"Jogendranagar B.O","district":"West Tripura","state":"TRIPURA","circle":"North Eastern Circle","region":"North East - I Region"},{"pincode":"799004","office":"Nagicherra B.O","district":"West Tripura","state":"TRIPURA","circle":"North Eastern Circle","region":"North East - I Region"},{"pincode":"799003","office":"S.D.Mission Colony B.O","district":"West Tripura","state":"TRIPURA","circle":"North Eastern Circle","region":"North East - I Region"},{"pincode":"799015","office":"Tebaria B.O","district":"West Tripura","state":"TRIPURA","circle":"North Eastern Circle","region":"North East - I Region"},{"pincode":"799045","office":"Noabadi B.O","district":"West Tripura","state":"TRIPURA","circle":"North Eastern Circle","region":"North East - I Region"},{"pincode":"799102","office":"Boxonagar B.O","district":"Sepahijala","state":"TRIPURA","circle":"North Eastern Circle","region":"North East - I Region"},{"pincode":"799102","office":"Brajapur B.O","district":"Sepahijala","state":"TRIPURA","circle":"North Eastern Circle","region":"North East - I Region"},{"pincode":"799102","office":"Gazaria B.O","district":"Sepahijala","state":"TRIPURA","circle":"North Eastern Circle","region":"North East - I Region"},{"pincode":"799102","office":"Kaiyadhepa B.O","district":"Sepahijala","state":"TRIPURA","circle":"North Eastern Circle","region":"North East - I Region"},{"pincode":"799102","office":"Rokhia G.T Project B.O","district":"Sepahijala","state":"TRIPURA","circle":"North Eastern Circle","region":"North East - I Region"},{"pincode":"799007","office":"Banamalipur B.O","district":"West Tripura","state":"TRIPURA","circle":"North Eastern Circle","region":"North East - I Region"},{"pincode":"799210","office":"Bodhjungnagar B.O","district":"West Tripura","state":"TRIPURA","circle":"North Eastern Circle","region":"North East - I Region"},{"pincode":"799210","office":"Laifunga B.O","district":"West Tripura","state":"TRIPURA","circle":"North Eastern Circle","region":"North East - I Region"},{"pincode":"799210","office":"Lembucherra B.O","district":"West Tripura","state":"TRIPURA","circle":"North Eastern Circle","region":"North East - I Region"},{"pincode":"799006","office":"Kathalbagan B.O","district":"West Tripura","state":"TRIPURA","circle":"North Eastern Circle","region":"North East - I Region"},{"pincode":"799006","office":"Kunjabon Road B.O","district":"West Tripura","state":"TRIPURA","circle":"North Eastern Circle","region":"North East - I Region"},{"pincode":"799211","office":"Baikunthapur B.O","district":"West Tripura","state":"TRIPURA","circle":"North Eastern Circle","region":"North East - I Region"},{"pincode":"799211","office":"Chachubazar B.O","district":"West Tripura","state":"TRIPURA","circle":"North Eastern Circle","region":"North East - I Region"},{"pincode":"799211","office":"Kalacherra T.E. B.O","district":"West Tripura","state":"TRIPURA","circle":"North Eastern Circle","region":"North East - I Region"},{"pincode":"799211","office":"Kalkalia T.E. B.O","district":"West Tripura","state":"TRIPURA","circle":"North Eastern Circle","region":"North East - I Region"},{"pincode":"799211","office":"Taranagar B.O","district":"West Tripura","state":"TRIPURA","circle":"North Eastern Circle","region":"North East - I Region"},{"pincode":"799211","office":"Tarapur B.O","district":"West Tripura","state":"TRIPURA","circle":"North Eastern Circle","region":"North East - I Region"},{"pincode":"799002","office":"Town Rampur B.O","district":"West Tripura","state":"TRIPURA","circle":"North Eastern Circle","region":"North East - I Region"},{"pincode":"799130","office":"Paschim Gokulnagar B.O","district":"Sepahijala","state":"TRIPURA","circle":"North Eastern Circle","region":"North East - I Region"},{"pincode":"799011","office":"Jampuijala Colony B.O","district":"Sepahijala","state":"TRIPURA","circle":"North Eastern Circle","region":"North East - I Region"},{"pincode":"799101","office":"Ampinagar B.O","district":"Gomati","state":"TRIPURA","circle":"North Eastern Circle","region":"North East - I Region"},{"pincode":"799101","office":"Rangkhang B.O","district":"Gomati","state":"TRIPURA","circle":"North Eastern Circle","region":"North East - I Region"},{"pincode":"799157","office":"Gouranga Bazar B.O","district":"South Tripura","state":"TRIPURA","circle":"North Eastern Circle","region":"North East - I Region"},{"pincode":"799157","office":"South srirampur B.O","district":"South Tripura","state":"TRIPURA","circle":"North Eastern Circle","region":"North East - I Region"},{"pincode":"799155","office":"Dakshin Sonaicharri B.O","district":"South Tripura","state":"TRIPURA","circle":"North Eastern Circle","region":"North East - I Region"},{"pincode":"799114","office":"Pitra Bazar B.O","district":"Gomati","state":"TRIPURA","circle":"North Eastern Circle","region":"North East - I Region"},{"pincode":"799114","office":"Rajarbag B.O","district":"Gomati","state":"TRIPURA","circle":"North Eastern Circle","region":"North East - I Region"},{"pincode":"799114","office":"Uttar Brojendranagar B.O","district":"Gomati","state":"TRIPURA","circle":"North Eastern Circle","region":"North East - I Region"},{"pincode":"799125","office":"Paikhola B.O","district":"South Tripura","state":"TRIPURA","circle":"North Eastern Circle","region":"North East - I Region"},{"pincode":"799125","office":"Rajapur B.O","district":"South Tripura","state":"TRIPURA","circle":"North Eastern Circle","region":"North East - I Region"},{"pincode":"799125","office":"Tainani B.O","district":"Gomati","state":"TRIPURA","circle":"North Eastern Circle","region":"North East - I Region"},{"pincode":"799104","office":"Ghorakappa B.O","district":"Gomati","state":"TRIPURA","circle":"North Eastern Circle","region":"North East - I Region"},{"pincode":"799104","office":"Jalaya B.O","district":"Gomati","state":"TRIPURA","circle":"North Eastern Circle","region":"North East - I Region"},{"pincode":"799104","office":"Silacharri B.O","district":"Gomati","state":"TRIPURA","circle":"North Eastern Circle","region":"North East - I Region"},{"pincode":"799141","office":"Madhya Pillak B.O","district":"South Tripura","state":"TRIPURA","circle":"North Eastern Circle","region":"North East - I Region"},{"pincode":"799141","office":"Paschim Pillak B.O","district":"South Tripura","state":"TRIPURA","circle":"North Eastern Circle","region":"North East - I Region"},{"pincode":"799105","office":"Bazar Amtali B.O","district":"Gomati","state":"TRIPURA","circle":"North Eastern Circle","region":"North East - I Region"},{"pincode":"799105","office":"Taibandal B.O","district":"Sepahijala","state":"TRIPURA","circle":"North Eastern Circle","region":"North East - I Region"},{"pincode":"799105","office":"Upendranagar B.O","district":"Gomati","state":"TRIPURA","circle":"North Eastern Circle","region":"North East - I Region"},{"pincode":"799115","office":"Kemtali B.O","district":"Sepahijala","state":"TRIPURA","circle":"North Eastern Circle","region":"North East - I Region"},{"pincode":"799144","office":"Baikhora B.O","district":"South Tripura","state":"TRIPURA","circle":"North Eastern Circle","region":"North East - I Region"},{"pincode":"799144","office":"Urrat Takmacherra B.O","district":"South Tripura","state":"TRIPURA","circle":"North Eastern Circle","region":"North East - I Region"},{"pincode":"799132","office":"Bhabanipur B.O","district":"Sepahijala","state":"TRIPURA","circle":"North Eastern Circle","region":"North East - I Region"},{"pincode":"799132","office":"Kalikrishnagar B.O","district":"Sepahijala","state":"TRIPURA","circle":"North Eastern Circle","region":"North East - I Region"},{"pincode":"799131","office":"Kamalnagar B.O","district":"Sepahijala","state":"TRIPURA","circle":"North Eastern Circle","region":"North East - I Region"},{"pincode":"799132","office":"Manaipathar B.O","district":"Sepahijala","state":"TRIPURA","circle":"North Eastern Circle","region":"North East - I Region"},{"pincode":"799131","office":"Nidaya BO","district":"Sepahijala","state":"TRIPURA","circle":"North Eastern Circle","region":"North East - I Region"},{"pincode":"799131","office":"Rabindranagar Colony B.O","district":"Sepahijala","state":"TRIPURA","circle":"North Eastern Circle","region":"North East - I Region"},{"pincode":"799013","office":"Dakshin Maharani B.O","district":"Gomati","state":"TRIPURA","circle":"North Eastern Circle","region":"North East - I Region"},{"pincode":"799013","office":"Holakhet B.O","district":"Gomati","state":"TRIPURA","circle":"North Eastern Circle","region":"North East - I Region"},{"pincode":"799013","office":"Maharani B.O","district":"Gomati","state":"TRIPURA","circle":"North Eastern Circle","region":"North East - I Region"},{"pincode":"799289","office":"Chandraipara B.O","district":"Dhalai","state":"TRIPURA","circle":"North Eastern Circle","region":"North East - I Region"},{"pincode":"799289","office":"Ganganagar Tribalcolony B.O","district":"Dhalai","state":"TRIPURA","circle":"North Eastern Circle","region":"North East - I Region"},{"pincode":"799289","office":"HARIMANGALPARA B.O","district":"Dhalai","state":"TRIPURA","circle":"North Eastern Circle","region":"North East - I Region"},{"pincode":"799289","office":"PUSTARAIPARA B.O","district":"Dhalai","state":"TRIPURA","circle":"North Eastern Circle","region":"North East - I Region"},{"pincode":"799281","office":"Hiracherra B.O","district":"Unakoti","state":"TRIPURA","circle":"North Eastern Circle","region":"North East - I Region"},{"pincode":"799281","office":"Latiapur B.O","district":"Unakoti","state":"TRIPURA","circle":"North Eastern Circle","region":"North East - I Region"},{"pincode":"799273","office":"LALCHHARA B.O","district":"Dhalai","state":"TRIPURA","circle":"North Eastern Circle","region":"North East - I Region"},{"pincode":"799251","office":"Sakaibari B.O","district":"North Tripura","state":"TRIPURA","circle":"North Eastern Circle","region":"North East - I Region"},{"pincode":"799207","office":"Chankhala B.O","district":"Khowai","state":"TRIPURA","circle":"North Eastern Circle","region":"North East - I Region"},{"pincode":"799207","office":"Gouranga Tilla B.O","district":"Khowai","state":"TRIPURA","circle":"North Eastern Circle","region":"North East - I Region"},{"pincode":"799262","office":"Sanicherra B.O","district":"North Tripura","state":"TRIPURA","circle":"North Eastern Circle","region":"North East - I Region"},{"pincode":"799290","office":"Noagaon Bazar B.O","district":"Unakoti","state":"TRIPURA","circle":"North Eastern Circle","region":"North East - I Region"},{"pincode":"799286","office":"Abhanga B.O","district":"Dhalai","state":"TRIPURA","circle":"North Eastern Circle","region":"North East - I Region"},{"pincode":"799254","office":"Baithangbari B.O","district":"North Tripura","state":"TRIPURA","circle":"North Eastern Circle","region":"North East - I Region"},{"pincode":"799269","office":"Phuldengsai B.O","district":"North Tripura","state":"TRIPURA","circle":"North Eastern Circle","region":"North East - I Region"},{"pincode":"799277","office":"Bhadrapally B.O","district":"Unakoti","state":"TRIPURA","circle":"North Eastern Circle","region":"North East - I Region"},{"pincode":"799277","office":"Gulakpur T.E B.O","district":"Unakoti","state":"TRIPURA","circle":"North Eastern Circle","region":"North East - I Region"},{"pincode":"799277","office":"Rangrung B.O","district":"Unakoti","state":"TRIPURA","circle":"North Eastern Circle","region":"North East - I Region"},{"pincode":"799285","office":"Noagoan B.O","district":"Dhalai","state":"TRIPURA","circle":"North Eastern Circle","region":"North East - I Region"},{"pincode":"799285","office":"Ramdurlavpur B.O","district":"Dhalai","state":"TRIPURA","circle":"North Eastern Circle","region":"North East - I Region"},{"pincode":"799288","office":"Ujan Dodhpur B.O","district":"Unakoti","state":"TRIPURA","circle":"North Eastern Circle","region":"North East - I Region"},{"pincode":"799270","office":"Sibnagar B.O","district":"North Tripura","state":"TRIPURA","circle":"North Eastern Circle","region":"North East - I Region"},{"pincode":"799201","office":"Banbazar B.O","district":"Khowai","state":"TRIPURA","circle":"North Eastern Circle","region":"North East - I Region"},{"pincode":"799201","office":"East Bachaibari B.O","district":"Khowai","state":"TRIPURA","circle":"North Eastern Circle","region":"North East - I Region"},{"pincode":"799201","office":"Paharmora B.O","district":"Khowai","state":"TRIPURA","circle":"North Eastern Circle","region":"North East - I Region"},{"pincode":"799201","office":"Paschim Belcherra B.O","district":"Khowai","state":"TRIPURA","circle":"North Eastern Circle","region":"North East - I Region"},{"pincode":"799264","office":"Bhatisonaimuri B.O","district":"Unakoti","state":"TRIPURA","circle":"North Eastern Circle","region":"North East - I Region"},{"pincode":"799287","office":"Kamalpur Aerodrome B.O","district":"Dhalai","state":"TRIPURA","circle":"North Eastern Circle","region":"North East - I Region"},{"pincode":"799275","office":"Jamircherra B.O","district":"Dhalai","state":"TRIPURA","circle":"North Eastern Circle","region":"North East - I Region"},{"pincode":"799275","office":"Longtharai B.O","district":"Dhalai","state":"TRIPURA","circle":"North Eastern Circle","region":"North East - I Region"},{"pincode":"799279","office":"Zarultali B.O","district":"Unakoti","state":"TRIPURA","circle":"North Eastern Circle","region":"North East - I Region"},{"pincode":"799260","office":"Jalebassa B.O","district":"North Tripura","state":"TRIPURA","circle":"North Eastern Circle","region":"North East - I Region"},{"pincode":"799260","office":"North Padmabil B.O","district":"North Tripura","state":"TRIPURA","circle":"North Eastern Circle","region":"North East - I Region"},{"pincode":"799260","office":"Uptakhali B.O","district":"North Tripura","state":"TRIPURA","circle":"North Eastern Circle","region":"North East - I Region"},{"pincode":"799263","office":"Ugalcherra B.O","district":"Unakoti","state":"TRIPURA","circle":"North Eastern Circle","region":"North East - I Region"},{"pincode":"799253","office":"Dharmanagar College B.O","district":"North Tripura","state":"TRIPURA","circle":"North Eastern Circle","region":"North East - I Region"},{"pincode":"799253","office":"Dhupirbond B.O","district":"North Tripura","state":"TRIPURA","circle":"North Eastern Circle","region":"North East - I Region"},{"pincode":"799253","office":"Padmapur B.O","district":"North Tripura","state":"TRIPURA","circle":"North Eastern Circle","region":"North East - I Region"},{"pincode":"799253","office":"South Ganganagar B.O","district":"North Tripura","state":"TRIPURA","circle":"North Eastern Circle","region":"North East - I Region"},{"pincode":"799278","office":"Paschim Dalucherra B.O","district":"Dhalai","state":"TRIPURA","circle":"North Eastern Circle","region":"North East - I Region"},{"pincode":"799284","office":"KHEDERKOT B.O","district":"Dhalai","state":"TRIPURA","circle":"North Eastern Circle","region":"North East - I Region"},{"pincode":"799280","office":"Dhanbilash B.O","district":"Unakoti","state":"TRIPURA","circle":"North Eastern Circle","region":"North East - I Region"},{"pincode":"799205","office":"Maigonga B.O","district":"Khowai","state":"TRIPURA","circle":"North Eastern Circle","region":"North East - I Region"},{"pincode":"799205","office":"Rupacherra B.O","district":"Khowai","state":"TRIPURA","circle":"North Eastern Circle","region":"North East - I Region"},{"pincode":"799256","office":"Kacharicherra B.O","district":"North Tripura","state":"TRIPURA","circle":"North Eastern Circle","region":"North East - I Region"},{"pincode":"799266","office":"Karamcherra B.O","district":"Dhalai","state":"TRIPURA","circle":"North Eastern Circle","region":"North East - I Region"},{"pincode":"799005","office":"Abhoynagar S.O","district":"West Tripura","state":"TRIPURA","circle":"North Eastern Circle","region":"North East - I Region"},{"pincode":"799012","office":"Salbagan S.O","district":"West Tripura","state":"TRIPURA","circle":"North Eastern Circle","region":"North East - I Region"},{"pincode":"799157","office":"Anandapur S.O (South Tripura)","district":"South Tripura","state":"TRIPURA","circle":"North Eastern Circle","region":"North East - I Region"},{"pincode":"799155","office":"Beloniya S.O","district":"South Tripura","state":"TRIPURA","circle":"North Eastern Circle","region":"North East - I Region"},{"pincode":"799150","office":"Rajnagar S.O (South Tripura)","district":"South Tripura","state":"TRIPURA","circle":"North Eastern Circle","region":"North East - I Region"},{"pincode":"799145","office":"Sabroom S.O","district":"South Tripura","state":"TRIPURA","circle":"North Eastern Circle","region":"North East - I Region"},{"pincode":"799132","office":"Kathalia S.O","district":"Sepahijala","state":"TRIPURA","circle":"North Eastern Circle","region":"North East - I Region"},{"pincode":"799273","office":"Chailengta S.O","district":"Dhalai","state":"TRIPURA","circle":"North Eastern Circle","region":"North East - I Region"},{"pincode":"799262","office":"Churaibari S.O","district":"North Tripura","state":"TRIPURA","circle":"North Eastern Circle","region":"North East - I Region"},{"pincode":"799271","office":"Dasdabazar S.O","district":"North Tripura","state":"TRIPURA","circle":"North Eastern Circle","region":"North East - I Region"},{"pincode":"799290","office":"Fatikroy S.O","district":"Unakoti","state":"TRIPURA","circle":"North Eastern Circle","region":"North East - I Region"},{"pincode":"799261","office":"Kadamtala S.O (North Tripura)","district":"North Tripura","state":"TRIPURA","circle":"North Eastern Circle","region":"North East - I Region"},{"pincode":"799264","office":"Kumarghat S.O","district":"Unakoti","state":"TRIPURA","circle":"North Eastern Circle","region":"North East - I Region"},{"pincode":"799260","office":"Panisagar S.O","district":"North Tripura","state":"TRIPURA","circle":"North Eastern Circle","region":"North East - I Region"},{"pincode":"799282","office":"Gournagar SO","district":"Unakoti","state":"TRIPURA","circle":"North Eastern Circle","region":"North East - I Region"},{"pincode":"799009","office":"Nutannagar B.O","district":"West Tripura","state":"TRIPURA","circle":"North Eastern Circle","region":"North East - I Region"},{"pincode":"799004","office":"Gabordi B.O","district":"West Tripura","state":"TRIPURA","circle":"North Eastern Circle","region":"North East - I Region"},{"pincode":"799004","office":"Srinagar Kacharipara B.O","district":"West Tripura","state":"TRIPURA","circle":"North Eastern Circle","region":"North East - I Region"},{"pincode":"799004","office":"Town pratapgarh B.O","district":"West Tripura","state":"TRIPURA","circle":"North Eastern Circle","region":"North East - I Region"},{"pincode":"799004","office":"Jarul Bachai B.O","district":"West Tripura","state":"TRIPURA","circle":"North Eastern Circle","region":"North East - I Region"},{"pincode":"799003","office":"Badharghat B.O","district":"West Tripura","state":"TRIPURA","circle":"North Eastern Circle","region":"North East - I Region"},{"pincode":"799003","office":"Ranirkhamar B.O","district":"West Tripura","state":"TRIPURA","circle":"North Eastern Circle","region":"North East - I Region"},{"pincode":"799045","office":"Gurudas Colony B.O","district":"West Tripura","state":"TRIPURA","circle":"North Eastern Circle","region":"North East - I Region"},{"pincode":"799045","office":"Sanchindranagar Colony B.O","district":"West Tripura","state":"TRIPURA","circle":"North Eastern Circle","region":"North East - I Region"},{"pincode":"799102","office":"Dhajanagar B.O","district":"Sepahijala","state":"TRIPURA","circle":"North Eastern Circle","region":"North East - I Region"},{"pincode":"799102","office":"Golaghati B.O","district":"Sepahijala","state":"TRIPURA","circle":"North Eastern Circle","region":"North East - I Region"},{"pincode":"799102","office":"Kalamcherra B.O","district":"Sepahijala","state":"TRIPURA","circle":"North Eastern Circle","region":"North East - I Region"},{"pincode":"799102","office":"Kalasimura B.O","district":"Sepahijala","state":"TRIPURA","circle":"North Eastern Circle","region":"North East - I Region"},{"pincode":"799102","office":"Kamalasagar B.O","district":"Sepahijala","state":"TRIPURA","circle":"North Eastern Circle","region":"North East - I Region"},{"pincode":"799102","office":"Konabon B.O","district":"Sepahijala","state":"TRIPURA","circle":"North Eastern Circle","region":"North East - I Region"},{"pincode":"799102","office":"Madhupur B.O","district":"Sepahijala","state":"TRIPURA","circle":"North Eastern Circle","region":"North East - I Region"},{"pincode":"799102","office":"Purathalrajnagar B.O","district":"Sepahijala","state":"TRIPURA","circle":"North Eastern Circle","region":"North East - I Region"},{"pincode":"799210","office":"Fatikchhera B.O","district":"West Tripura","state":"TRIPURA","circle":"North Eastern Circle","region":"North East - I Region"},{"pincode":"799008","office":"Paschim Noabadi B.O","district":"West Tripura","state":"TRIPURA","circle":"North Eastern Circle","region":"North East - I Region"},{"pincode":"799006","office":"G.B.Hospital B.O","district":"West Tripura","state":"TRIPURA","circle":"North Eastern Circle","region":"North East - I Region"},{"pincode":"799211","office":"Madhuchoudhurypara B.O","district":"West Tripura","state":"TRIPURA","circle":"North Eastern Circle","region":"North East - I Region"},{"pincode":"799211","office":"Patnipara B.O","district":"West Tripura","state":"TRIPURA","circle":"North Eastern Circle","region":"North East - I Region"},{"pincode":"799211","office":"Uttar debendranagar B.O","district":"West Tripura","state":"TRIPURA","circle":"North Eastern Circle","region":"North East - I Region"},{"pincode":"799131","office":"Dhanirampur B.O","district":"Sepahijala","state":"TRIPURA","circle":"North Eastern Circle","region":"North East - I Region"},{"pincode":"799035","office":"Dinabandhupara B.O","district":"West Tripura","state":"TRIPURA","circle":"North Eastern Circle","region":"North East - I Region"},{"pincode":"799035","office":"Meghlipara B.O","district":"West Tripura","state":"TRIPURA","circle":"North Eastern Circle","region":"North East - I Region"},{"pincode":"799035","office":"Purba Noagaon B.O","district":"West Tripura","state":"TRIPURA","circle":"North Eastern Circle","region":"North East - I Region"},{"pincode":"799035","office":"Wakinagar B.O","district":"West Tripura","state":"TRIPURA","circle":"North Eastern Circle","region":"North East - I Region"},{"pincode":"799012","office":"Gandhigram B.O","district":"West Tripura","state":"TRIPURA","circle":"North Eastern Circle","region":"North East - I Region"},{"pincode":"799130","office":"Rayermura B.O","district":"West Tripura","state":"TRIPURA","circle":"North Eastern Circle","region":"North East - I Region"},{"pincode":"799130","office":"Viveknagar B.O","district":"West Tripura","state":"TRIPURA","circle":"North Eastern Circle","region":"North East - I Region"},{"pincode":"799212","office":"Balubon B.O","district":"West Tripura","state":"TRIPURA","circle":"North Eastern Circle","region":"North East - I Region"},{"pincode":"799011","office":"Kendraicherra B.O","district":"Sepahijala","state":"TRIPURA","circle":"North Eastern Circle","region":"North East - I Region"},{"pincode":"799011","office":"Sankumabari B.O","district":"Sepahijala","state":"TRIPURA","circle":"North Eastern Circle","region":"North East - I Region"},{"pincode":"799101","office":"Bampur B.O","district":"Gomati","state":"TRIPURA","circle":"North Eastern Circle","region":"North East - I Region"},{"pincode":"799101","office":"Chechuajamatiabari B.O","district":"Gomati","state":"TRIPURA","circle":"North Eastern Circle","region":"North East - I Region"},{"pincode":"799101","office":"Debbari B.O","district":"Gomati","state":"TRIPURA","circle":"North Eastern Circle","region":"North East - I Region"},{"pincode":"799101","office":"Dhanlekha B.O","district":"Gomati","state":"TRIPURA","circle":"North Eastern Circle","region":"North East - I Region"},{"pincode":"799101","office":"Malbassa B.O","district":"Gomati","state":"TRIPURA","circle":"North Eastern Circle","region":"North East - I Region"},{"pincode":"799155","office":"Belonia aerodrome B.O","district":"South Tripura","state":"TRIPURA","circle":"North Eastern Circle","region":"North East - I Region"},{"pincode":"799155","office":"Chittamara B.O","district":"South Tripura","state":"TRIPURA","circle":"North Eastern Circle","region":"North East - I Region"},{"pincode":"799155","office":"South Bharat Ch.Nagar B.O","district":"South Tripura","state":"TRIPURA","circle":"North Eastern Circle","region":"North East - I Region"},{"pincode":"799155","office":"Subashnagar B.O","district":"South Tripura","state":"TRIPURA","circle":"North Eastern Circle","region":"North East - I Region"},{"pincode":"799155","office":"Uttar Sonaicherri B.O","district":"South Tripura","state":"TRIPURA","circle":"North Eastern Circle","region":"North East - I Region"},{"pincode":"799103","office":"Bagmara B.O","district":"Sepahijala","state":"TRIPURA","circle":"North Eastern Circle","region":"North East - I Region"},{"pincode":"799103","office":"Barjala B.O","district":"Sepahijala","state":"TRIPURA","circle":"North Eastern Circle","region":"North East - I Region"},{"pincode":"799103","office":"Goliraibari B.O","district":"Sepahijala","state":"TRIPURA","circle":"North Eastern Circle","region":"North East - I Region"},{"pincode":"799103","office":"Pathaliaghat B.O","district":"Sepahijala","state":"TRIPURA","circle":"North Eastern Circle","region":"North East - I Region"},{"pincode":"799103","office":"Promodenagar B.O","district":"Sepahijala","state":"TRIPURA","circle":"North Eastern Circle","region":"North East - I Region"},{"pincode":"799103","office":"Ramnagar Bazar B.O","district":"Sepahijala","state":"TRIPURA","circle":"North Eastern Circle","region":"North East - I Region"},{"pincode":"799103","office":"Rangamala Bazar B.O","district":"Sepahijala","state":"TRIPURA","circle":"North Eastern Circle","region":"North East - I Region"},{"pincode":"799114","office":"Manikya B.O","district":"Gomati","state":"TRIPURA","circle":"North Eastern Circle","region":"North East - I Region"},{"pincode":"799114","office":"Rajnagar Colony B.O","district":"Gomati","state":"TRIPURA","circle":"North Eastern Circle","region":"North East - I Region"},{"pincode":"799125","office":"Paschim Paticherri Colony B.O","district":"Gomati","state":"TRIPURA","circle":"North Eastern Circle","region":"North East - I Region"},{"pincode":"799104","office":"Boalkhali B.O","district":"Dhalai","state":"TRIPURA","circle":"North Eastern Circle","region":"North East - I Region"},{"pincode":"799104","office":"Dumburnagar B.O","district":"Gomati","state":"TRIPURA","circle":"North Eastern Circle","region":"North East - I Region"},{"pincode":"799104","office":"Lebacherra B.O","district":"Gomati","state":"TRIPURA","circle":"North Eastern Circle","region":"North East - I Region"},{"pincode":"799104","office":"Uttar Chellagonj B.O","district":"Gomati","state":"TRIPURA","circle":"North Eastern Circle","region":"North East - I Region"},{"pincode":"799156","office":"Madhabnagar B.O","district":"South Tripura","state":"TRIPURA","circle":"North Eastern Circle","region":"North East - I Region"},{"pincode":"799156","office":"Samarendraganj B.O","district":"South Tripura","state":"TRIPURA","circle":"North Eastern Circle","region":"North East - I Region"},{"pincode":"799141","office":"Sakbari B.O","district":"South Tripura","state":"TRIPURA","circle":"North Eastern Circle","region":"North East - I Region"},{"pincode":"799105","office":"Chandul B.O","district":"Sepahijala","state":"TRIPURA","circle":"North Eastern Circle","region":"North East - I Region"},{"pincode":"799105","office":"Ichacherra B.O","district":"Gomati","state":"TRIPURA","circle":"North Eastern Circle","region":"North East - I Region"},{"pincode":"799105","office":"Kamrangatali B.O","district":"Sepahijala","state":"TRIPURA","circle":"North Eastern Circle","region":"North East - I Region"},{"pincode":"799105","office":"Mogpuskarini B.O","district":"Gomati","state":"TRIPURA","circle":"North Eastern Circle","region":"North East - I Region"},{"pincode":"799105","office":"Silghati B.O","district":"Gomati","state":"TRIPURA","circle":"North Eastern Circle","region":"North East - I Region"},{"pincode":"799143","office":"Amlighat B.O","district":"South Tripura","state":"TRIPURA","circle":"North Eastern Circle","region":"North East - I Region"},{"pincode":"799143","office":"Dakshin Manubankul B.O","district":"South Tripura","state":"TRIPURA","circle":"North Eastern Circle","region":"North East - I Region"},{"pincode":"799143","office":"Srinagar B.O","district":"South Tripura","state":"TRIPURA","circle":"North Eastern Circle","region":"North East - I Region"},{"pincode":"799115","office":"Bardwal B.O","district":"Sepahijala","state":"TRIPURA","circle":"North Eastern Circle","region":"North East - I Region"},{"pincode":"799115","office":"Chandigarh B.O","district":"Sepahijala","state":"TRIPURA","circle":"North Eastern Circle","region":"North East - I Region"},{"pincode":"799115","office":"Nalchar B.O","district":"Sepahijala","state":"TRIPURA","circle":"North Eastern Circle","region":"North East - I Region"},{"pincode":"799115","office":"West Nalchar B.O","district":"Sepahijala","state":"TRIPURA","circle":"North Eastern Circle","region":"North East - I Region"},{"pincode":"799145","office":"Baishnabpur B.O","district":"South Tripura","state":"TRIPURA","circle":"North Eastern Circle","region":"North East - I Region"},{"pincode":"799145","office":"Bijoynagar B.O","district":"South Tripura","state":"TRIPURA","circle":"North Eastern Circle","region":"North East - I Region"},{"pincode":"799145","office":"Doulbari B.O","district":"South Tripura","state":"TRIPURA","circle":"North Eastern Circle","region":"North East - I Region"},{"pincode":"799145","office":"Harina Bazar B.O","district":"South Tripura","state":"TRIPURA","circle":"North Eastern Circle","region":"North East - I Region"},{"pincode":"799145","office":"Jalefa Bazar B.O","district":"South Tripura","state":"TRIPURA","circle":"North Eastern Circle","region":"North East - I Region"},{"pincode":"799144","office":"Kathaliacherra B.O","district":"South Tripura","state":"TRIPURA","circle":"North Eastern Circle","region":"North East - I Region"},{"pincode":"799144","office":"Lowgang B.O","district":"South Tripura","state":"TRIPURA","circle":"North Eastern Circle","region":"North East - I Region"},{"pincode":"799144","office":"Uttar Debipur B.O","district":"South Tripura","state":"TRIPURA","circle":"North Eastern Circle","region":"North East - I Region"},{"pincode":"799131","office":"Dhanpur B.O","district":"Sepahijala","state":"TRIPURA","circle":"North Eastern Circle","region":"North East - I Region"},{"pincode":"799131","office":"Kulubari B.O","district":"Sepahijala","state":"TRIPURA","circle":"North Eastern Circle","region":"North East - I Region"},{"pincode":"799131","office":"Matinagar B.O","district":"Sepahijala","state":"TRIPURA","circle":"North Eastern Circle","region":"North East - I Region"},{"pincode":"799132","office":"Nirvoypur B.O","district":"Sepahijala","state":"TRIPURA","circle":"North Eastern Circle","region":"North East - I Region"},{"pincode":"799289","office":"Kamalacherra B.O","district":"Dhalai","state":"TRIPURA","circle":"North Eastern Circle","region":"North East - I Region"},{"pincode":"799289","office":"Sikaribari B.O","district":"Dhalai","state":"TRIPURA","circle":"North Eastern Circle","region":"North East - I Region"},{"pincode":"799289","office":"BALUCHHARA B.O","district":"Dhalai","state":"TRIPURA","circle":"North Eastern Circle","region":"North East - I Region"},{"pincode":"799273","office":"Natinmanu B.O","district":"Dhalai","state":"TRIPURA","circle":"North Eastern Circle","region":"North East - I Region"},{"pincode":"799273","office":"DEBCHHARA B.O","district":"Dhalai","state":"TRIPURA","circle":"North Eastern Circle","region":"North East - I Region"},{"pincode":"799251","office":"Dighalbak B.O","district":"North Tripura","state":"TRIPURA","circle":"North Eastern Circle","region":"North East - I Region"},{"pincode":"799251","office":"Ichailalcherra B.O","district":"North Tripura","state":"TRIPURA","circle":"North Eastern Circle","region":"North East - I Region"},{"pincode":"799251","office":"Pratyekroy B.O","district":"North Tripura","state":"TRIPURA","circle":"North Eastern Circle","region":"North East - I Region"},{"pincode":"799251","office":"Sonarurbassa B.O","district":"North Tripura","state":"TRIPURA","circle":"North Eastern Circle","region":"North East - I Region"},{"pincode":"799207","office":"Baijalbari B.O","district":"Khowai","state":"TRIPURA","circle":"North Eastern Circle","region":"North East - I Region"},{"pincode":"799207","office":"Ramchandraghat B.O","district":"Khowai","state":"TRIPURA","circle":"North Eastern Circle","region":"North East - I Region"},{"pincode":"799207","office":"Sonatala B.O","district":"Khowai","state":"TRIPURA","circle":"North Eastern Circle","region":"North East - I Region"},{"pincode":"799207","office":"RAMKRISHNABARI B.O","district":"Khowai","state":"TRIPURA","circle":"North Eastern Circle","region":"North East - I Region"},{"pincode":"799207","office":"JAGNA KOBRABARI (PART) B.O","district":"Khowai","state":"TRIPURA","circle":"North Eastern Circle","region":"North East - I Region"},{"pincode":"799271","office":"Barhaldi B.O","district":"North Tripura","state":"TRIPURA","circle":"North Eastern Circle","region":"North East - I Region"},{"pincode":"799271","office":"Kalapania B.O","district":"North Tripura","state":"TRIPURA","circle":"North Eastern Circle","region":"North East - I Region"},{"pincode":"799290","office":"Paschimratacherra B.O","district":"Unakoti","state":"TRIPURA","circle":"North Eastern Circle","region":"North East - I Region"},{"pincode":"799290","office":"Saidarpar B.O","district":"Unakoti","state":"TRIPURA","circle":"North Eastern Circle","region":"North East - I Region"},{"pincode":"799290","office":"Uttar Radhanagar B.O","district":"Unakoti","state":"TRIPURA","circle":"North Eastern Circle","region":"North East - I Region"},{"pincode":"799269","office":"Belianchief B.O","district":"North Tripura","state":"TRIPURA","circle":"North Eastern Circle","region":"North East - I Region"},{"pincode":"799269","office":"Kangrai B.O","district":"North Tripura","state":"TRIPURA","circle":"North Eastern Circle","region":"North East - I Region"},{"pincode":"799269","office":"Sailo B.O","district":"North Tripura","state":"TRIPURA","circle":"North Eastern Circle","region":"North East - I Region"},{"pincode":"799261","office":"Kurit B.O","district":"North Tripura","state":"TRIPURA","circle":"North Eastern Circle","region":"North East - I Region"},{"pincode":"799261","office":"Ranibari B.O","district":"North Tripura","state":"TRIPURA","circle":"North Eastern Circle","region":"North East - I Region"},{"pincode":"799277","office":"Ichabpur B.O","district":"Unakoti","state":"TRIPURA","circle":"North Eastern Circle","region":"North East - I Region"},{"pincode":"799277","office":"Kalishahan B.O","district":"Unakoti","state":"TRIPURA","circle":"North Eastern Circle","region":"North East - I Region"},{"pincode":"799277","office":"Samrurpar B.O","district":"Unakoti","state":"TRIPURA","circle":"North Eastern Circle","region":"North East - I Region"},{"pincode":"799277","office":"Sreerampur B.O","district":"Unakoti","state":"TRIPURA","circle":"North Eastern Circle","region":"North East - I Region"},{"pincode":"799277","office":"Tapaspalli B.O","district":"Unakoti","state":"TRIPURA","circle":"North Eastern Circle","region":"North East - I Region"},{"pincode":"799203","office":"Kalyanpur T. E B.O","district":"Khowai","state":"TRIPURA","circle":"North Eastern Circle","region":"North East - I Region"},{"pincode":"799203","office":"Paschim Kalyanpur B.O","district":"Khowai","state":"TRIPURA","circle":"North Eastern Circle","region":"North East - I Region"},{"pincode":"799203","office":"Uttat Pulinpur B.O","district":"Khowai","state":"TRIPURA","circle":"North Eastern Circle","region":"North East - I Region"},{"pincode":"799285","office":"Chotosarma B.O","district":"Dhalai","state":"TRIPURA","circle":"North Eastern Circle","region":"North East - I Region"},{"pincode":"799288","office":"Dengdung B.O","district":"Unakoti","state":"TRIPURA","circle":"North Eastern Circle","region":"North East - I Region"},{"pincode":"799288","office":"Dudhpur B.O","district":"Unakoti","state":"TRIPURA","circle":"North Eastern Circle","region":"North East - I Region"},{"pincode":"799270","office":"Satnala B.O","district":"North Tripura","state":"TRIPURA","circle":"North Eastern Circle","region":"North East - I Region"},{"pincode":"799201","office":"Agagartilla B.O","district":"Khowai","state":"TRIPURA","circle":"North Eastern Circle","region":"North East - I Region"},{"pincode":"799201","office":"Asharambari B.O","district":"Khowai","state":"TRIPURA","circle":"North Eastern Circle","region":"North East - I Region"},{"pincode":"799201","office":"Bachaibari B.O","district":"Khowai","state":"TRIPURA","circle":"North Eastern Circle","region":"North East - I Region"},{"pincode":"799201","office":"Champahaor B.O","district":"Khowai","state":"TRIPURA","circle":"North Eastern Circle","region":"North East - I Region"},{"pincode":"799201","office":"Gakulbari B.O","district":"Khowai","state":"TRIPURA","circle":"North Eastern Circle","region":"North East - I Region"},{"pincode":"799201","office":"Karingicherra B.O","district":"Khowai","state":"TRIPURA","circle":"North Eastern Circle","region":"North East - I Region"},{"pincode":"799201","office":"Paschim Laxmicherra B.O","district":"Khowai","state":"TRIPURA","circle":"North Eastern Circle","region":"North East - I Region"},{"pincode":"799201","office":"Ratanpurbazar B.O","district":"Khowai","state":"TRIPURA","circle":"North Eastern Circle","region":"North East - I Region"},{"pincode":"799201","office":"Singicherra B.O","district":"Khowai","state":"TRIPURA","circle":"North Eastern Circle","region":"North East - I Region"},{"pincode":"799204","office":"Balarambazar B.O","district":"Dhalai","state":"TRIPURA","circle":"North Eastern Circle","region":"North East - I Region"},{"pincode":"799204","office":"Nalicherra B.O","district":"Dhalai","state":"TRIPURA","circle":"North Eastern Circle","region":"North East - I Region"},{"pincode":"799264","office":"Notting Chedrra B.O","district":"Unakoti","state":"TRIPURA","circle":"North Eastern Circle","region":"North East - I Region"},{"pincode":"799264","office":"Sayedabari B.O","district":"Unakoti","state":"TRIPURA","circle":"North Eastern Circle","region":"North East - I Region"},{"pincode":"799275","office":"Karatichesdrra B.O","district":"Dhalai","state":"TRIPURA","circle":"North Eastern Circle","region":"North East - I Region"},{"pincode":"799279","office":"Chantail B.O","district":"Unakoti","state":"TRIPURA","circle":"North Eastern Circle","region":"North East - I Region"},{"pincode":"799279","office":"Deora Cherra B.O","district":"Unakoti","state":"TRIPURA","circle":"North Eastern Circle","region":"North East - I Region"},{"pincode":"799260","office":"Deocherra B.O","district":"North Tripura","state":"TRIPURA","circle":"North Eastern Circle","region":"North East - I Region"},{"pincode":"799260","office":"Juri R.F B.O","district":"North Tripura","state":"TRIPURA","circle":"North Eastern Circle","region":"North East - I Region"},{"pincode":"799260","office":"Tilthai B.O","district":"North Tripura","state":"TRIPURA","circle":"North Eastern Circle","region":"North East - I Region"},{"pincode":"799260","office":"West Panisagar B.O","district":"North Tripura","state":"TRIPURA","circle":"North Eastern Circle","region":"North East - I Region"},{"pincode":"799263","office":"Dhanicherra B.O","district":"Unakoti","state":"TRIPURA","circle":"North Eastern Circle","region":"North East - I Region"},{"pincode":"799263","office":"Govidabari B.O","district":"Unakoti","state":"TRIPURA","circle":"North Eastern Circle","region":"North East - I Region"},{"pincode":"799263","office":"Karaicherra B.O","district":"Unakoti","state":"TRIPURA","circle":"North Eastern Circle","region":"North East - I Region"},{"pincode":"799263","office":"Machmara B.O","district":"Unakoti","state":"TRIPURA","circle":"North Eastern Circle","region":"North East - I Region"},{"pincode":"799263","office":"Nabincherra B.O","district":"Unakoti","state":"TRIPURA","circle":"North Eastern Circle","region":"North East - I Region"},{"pincode":"799253","office":"Tripura Ganganagar B.O","district":"North Tripura","state":"TRIPURA","circle":"North Eastern Circle","region":"North East - I Region"},{"pincode":"799253","office":"Zaithang B.O","district":"North Tripura","state":"TRIPURA","circle":"North Eastern Circle","region":"North East - I Region"},{"pincode":"799278","office":"Kachucherra B.O","district":"Dhalai","state":"TRIPURA","circle":"North Eastern Circle","region":"North East - I Region"},{"pincode":"799284","office":"DANGAMAPARA B.O","district":"Dhalai","state":"TRIPURA","circle":"North Eastern Circle","region":"North East - I Region"},{"pincode":"799284","office":"RATANNAGAR B.O","district":"Dhalai","state":"TRIPURA","circle":"North Eastern Circle","region":"North East - I Region"},{"pincode":"799280","office":"Fultali B.O","district":"Unakoti","state":"TRIPURA","circle":"North Eastern Circle","region":"North East - I Region"},{"pincode":"799280","office":"Jagannathpur B.O","district":"Unakoti","state":"TRIPURA","circle":"North Eastern Circle","region":"North East - I Region"},{"pincode":"799205","office":"Brahmacherra B.O","district":"Khowai","state":"TRIPURA","circle":"North Eastern Circle","region":"North East - I Region"},{"pincode":"799205","office":"Chakmaghat B.O","district":"Khowai","state":"TRIPURA","circle":"North Eastern Circle","region":"North East - I Region"},{"pincode":"799205","office":"Nunacherra B.O","district":"Khowai","state":"TRIPURA","circle":"North Eastern Circle","region":"North East - I Region"},{"pincode":"799256","office":"Khedacherra B.O","district":"North Tripura","state":"TRIPURA","circle":"North Eastern Circle","region":"North East - I Region"},{"pincode":"799014","office":"Agartala ONGC S.O","district":"West Tripura","state":"TRIPURA","circle":"North Eastern Circle","region":"North East - I Region"},{"pincode":"799015","office":"Narayanpur Bazar SO","district":"West Tripura","state":"TRIPURA","circle":"North Eastern Circle","region":"North East - I Region"},{"pincode":"799102","office":"Bishalgarh S.O","district":"Sepahijala","state":"TRIPURA","circle":"North Eastern Circle","region":"North East - I Region"},{"pincode":"799210","office":"Kamalghat S.O","district":"West Tripura","state":"TRIPURA","circle":"North Eastern Circle","region":"North East - I Region"},{"pincode":"799035","office":"Ranirbazar S.O","district":"West Tripura","state":"TRIPURA","circle":"North Eastern Circle","region":"North East - I Region"},{"pincode":"799114","office":"Gakulpur S.O","district":"Gomati","state":"TRIPURA","circle":"North Eastern Circle","region":"North East - I Region"},{"pincode":"799125","office":"Garjee S.O","district":"Gomati","state":"TRIPURA","circle":"North Eastern Circle","region":"North East - I Region"},{"pincode":"799115","office":"Melaghar S.O","district":"Sepahijala","state":"TRIPURA","circle":"North Eastern Circle","region":"North East - I Region"},{"pincode":"799144","office":"Santirbazar S.O","district":"South Tripura","state":"TRIPURA","circle":"North Eastern Circle","region":"North East - I Region"},{"pincode":"799013","office":"Matabari S.O","district":"Gomati","state":"TRIPURA","circle":"North Eastern Circle","region":"North East - I Region"},{"pincode":"799287","office":"Manikbhander S.O","district":"Dhalai","state":"TRIPURA","circle":"North Eastern Circle","region":"North East - I Region"},{"pincode":"799284","office":"Sarma S.O","district":"Dhalai","state":"TRIPURA","circle":"North Eastern Circle","region":"North East - I Region"},{"pincode":"799004","office":"Anandanagar B.O","district":"West Tripura","state":"TRIPURA","circle":"North Eastern Circle","region":"North East - I Region"},{"pincode":"799004","office":"Purba Pratapgarh B.O","district":"West Tripura","state":"TRIPURA","circle":"North Eastern Circle","region":"North East - I Region"},{"pincode":"799004","office":"Dhupcherra B.O","district":"West Tripura","state":"TRIPURA","circle":"North Eastern Circle","region":"North East - I Region"},{"pincode":"799003","office":"Bhattapukur B.O","district":"West Tripura","state":"TRIPURA","circle":"North Eastern Circle","region":"North East - I Region"},{"pincode":"799045","office":"Belbari B.O","district":"West Tripura","state":"TRIPURA","circle":"North Eastern Circle","region":"North East - I Region"},{"pincode":"799045","office":"Mdhabbari B.O","district":"West Tripura","state":"TRIPURA","circle":"North Eastern Circle","region":"North East - I Region"},{"pincode":"799045","office":"Bisrambari B.O.","district":"West Tripura","state":"TRIPURA","circle":"North Eastern Circle","region":"North East - I Region"},{"pincode":"799102","office":"Krishnakishorenagar B.O","district":"Sepahijala","state":"TRIPURA","circle":"North Eastern Circle","region":"North East - I Region"},{"pincode":"799102","office":"Nabasantiganj Bazar B.O","district":"Sepahijala","state":"TRIPURA","circle":"North Eastern Circle","region":"North East - I Region"},{"pincode":"799102","office":"Purba Gokulnagar B.O","district":"Sepahijala","state":"TRIPURA","circle":"North Eastern Circle","region":"North East - I Region"},{"pincode":"799102","office":"Rohimpur B.O","district":"Sepahijala","state":"TRIPURA","circle":"North Eastern Circle","region":"North East - I Region"},{"pincode":"799008","office":"Ramachandranagar B.O","district":"West Tripura","state":"TRIPURA","circle":"North Eastern Circle","region":"North East - I Region"},{"pincode":"799006","office":"Indranagar B.O","district":"West Tripura","state":"TRIPURA","circle":"North Eastern Circle","region":"North East - I Region"},{"pincode":"799006","office":"Noagaon Krishnagar B.O","district":"West Tripura","state":"TRIPURA","circle":"North Eastern Circle","region":"North East - I Region"},{"pincode":"799211","office":"Bamutia B.O","district":"West Tripura","state":"TRIPURA","circle":"North Eastern Circle","region":"North East - I Region"},{"pincode":"799211","office":"Barkathalia B.O","district":"West Tripura","state":"TRIPURA","circle":"North Eastern Circle","region":"North East - I Region"},{"pincode":"799211","office":"Subalsing B.O","district":"West Tripura","state":"TRIPURA","circle":"North Eastern Circle","region":"North East - I Region"},{"pincode":"799211","office":"Thamakari B.O","district":"West Tripura","state":"TRIPURA","circle":"North Eastern Circle","region":"North East - I Region"},{"pincode":"799002","office":"Barjala B.O","district":"West Tripura","state":"TRIPURA","circle":"North Eastern Circle","region":"North East - I Region"},{"pincode":"799035","office":"Durganagar B.O","district":"West Tripura","state":"TRIPURA","circle":"North Eastern Circle","region":"North East - I Region"},{"pincode":"799035","office":"Sonamani sepaipara B.O","district":"West Tripura","state":"TRIPURA","circle":"North Eastern Circle","region":"North East - I Region"},{"pincode":"799212","office":"Simna Colony B.O","district":"West Tripura","state":"TRIPURA","circle":"North Eastern Circle","region":"North East - I Region"},{"pincode":"799212","office":"Sundartilla B.O","district":"West Tripura","state":"TRIPURA","circle":"North Eastern Circle","region":"North East - I Region"},{"pincode":"799011","office":"Ujan Ghaniamara B.O","district":"Sepahijala","state":"TRIPURA","circle":"North Eastern Circle","region":"North East - I Region"},{"pincode":"799011","office":"Takarjala B.O","district":"Sepahijala","state":"TRIPURA","circle":"North Eastern Circle","region":"North East - I Region"},{"pincode":"799101","office":"Chellagong B.O","district":"Gomati","state":"TRIPURA","circle":"North Eastern Circle","region":"North East - I Region"},{"pincode":"799101","office":"Paharpur B.O","district":"Gomati","state":"TRIPURA","circle":"North Eastern Circle","region":"North East - I Region"},{"pincode":"799101","office":"Sarbong B.O","district":"Gomati","state":"TRIPURA","circle":"North Eastern Circle","region":"North East - I Region"},{"pincode":"799157","office":"Dimatali B.O","district":"South Tripura","state":"TRIPURA","circle":"North Eastern Circle","region":"North East - I Region"},{"pincode":"799155","office":"Baspadua B.O","district":"South Tripura","state":"TRIPURA","circle":"North Eastern Circle","region":"North East - I Region"},{"pincode":"799155","office":"Matai B.O","district":"South Tripura","state":"TRIPURA","circle":"North Eastern Circle","region":"North East - I Region"},{"pincode":"799103","office":"Chechrimile B.O","district":"Sepahijala","state":"TRIPURA","circle":"North Eastern Circle","region":"North East - I Region"},{"pincode":"799103","office":"Tekshapara B.O","district":"Sepahijala","state":"TRIPURA","circle":"North Eastern Circle","region":"North East - I Region"},{"pincode":"799113","office":"East Bagabassa B.O","district":"Gomati","state":"TRIPURA","circle":"North Eastern Circle","region":"North East - I Region"},{"pincode":"799114","office":"Killarbazar B.O","district":"Gomati","state":"TRIPURA","circle":"North Eastern Circle","region":"North East - I Region"},{"pincode":"799114","office":"Thelakum B.O","district":"Gomati","state":"TRIPURA","circle":"North Eastern Circle","region":"North East - I Region"},{"pincode":"799125","office":"Takmacherra B.O","district":"South Tripura","state":"TRIPURA","circle":"North Eastern Circle","region":"North East - I Region"},{"pincode":"799104","office":"Barbil B.O","district":"Gomati","state":"TRIPURA","circle":"North Eastern Circle","region":"North East - I Region"},{"pincode":"799141","office":"Kalashi Bazar B.O","district":"South Tripura","state":"TRIPURA","circle":"North Eastern Circle","region":"North East - I Region"},{"pincode":"799141","office":"Kwaifung B.O","district":"South Tripura","state":"TRIPURA","circle":"North Eastern Circle","region":"North East - I Region"},{"pincode":"799105","office":"East Mirza B.O","district":"Gomati","state":"TRIPURA","circle":"North Eastern Circle","region":"North East - I Region"},{"pincode":"799105","office":"Kishoreganj B.O","district":"Gomati","state":"TRIPURA","circle":"North Eastern Circle","region":"North East - I Region"},{"pincode":"799105","office":"Palatana B.O","district":"Gomati","state":"TRIPURA","circle":"North Eastern Circle","region":"North East - I Region"},{"pincode":"799105","office":"Rani B.O","district":"Gomati","state":"TRIPURA","circle":"North Eastern Circle","region":"North East - I Region"},{"pincode":"799143","office":"Guachand B.O","district":"South Tripura","state":"TRIPURA","circle":"North Eastern Circle","region":"North East - I Region"},{"pincode":"799143","office":"Sindukpathar B.O","district":"South Tripura","state":"TRIPURA","circle":"North Eastern Circle","region":"North East - I Region"},{"pincode":"799115","office":"Lakshmandhepa B.O","district":"Sepahijala","state":"TRIPURA","circle":"North Eastern Circle","region":"North East - I Region"},{"pincode":"799115","office":"Urmai B.O","district":"Sepahijala","state":"TRIPURA","circle":"North Eastern Circle","region":"North East - I Region"},{"pincode":"799142","office":"Charakbai B.O","district":"South Tripura","state":"TRIPURA","circle":"North Eastern Circle","region":"North East - I Region"},{"pincode":"799150","office":"Kasari B.O","district":"South Tripura","state":"TRIPURA","circle":"North Eastern Circle","region":"North East - I Region"},{"pincode":"799145","office":"Ludhua B.O","district":"South Tripura","state":"TRIPURA","circle":"North Eastern Circle","region":"North East - I Region"},{"pincode":"799145","office":"Rupaicherri B.O","district":"South Tripura","state":"TRIPURA","circle":"North Eastern Circle","region":"North East - I Region"},{"pincode":"799145","office":"Sonaicherri B.O","district":"South Tripura","state":"TRIPURA","circle":"North Eastern Circle","region":"North East - I Region"},{"pincode":"799144","office":"Betaga B.O","district":"South Tripura","state":"TRIPURA","circle":"North Eastern Circle","region":"North East - I Region"},{"pincode":"799144","office":"East Bagafa B.O","district":"South Tripura","state":"TRIPURA","circle":"North Eastern Circle","region":"North East - I Region"},{"pincode":"799144","office":"Kanchannagar B.O","district":"South Tripura","state":"TRIPURA","circle":"North Eastern Circle","region":"North East - I Region"},{"pincode":"799144","office":"Manpather B.O","district":"South Tripura","state":"TRIPURA","circle":"North Eastern Circle","region":"North East - I Region"},{"pincode":"799144","office":"Purba Manu B.O","district":"South Tripura","state":"TRIPURA","circle":"North Eastern Circle","region":"North East - I Region"},{"pincode":"799144","office":"Radhakishoreganj B.O","district":"South Tripura","state":"TRIPURA","circle":"North Eastern Circle","region":"North East - I Region"},{"pincode":"799131","office":"Bejimara B.O","district":"Sepahijala","state":"TRIPURA","circle":"North Eastern Circle","region":"North East - I Region"},{"pincode":"799013","office":"Fulkumari B.O","district":"Gomati","state":"TRIPURA","circle":"North Eastern Circle","region":"North East - I Region"},{"pincode":"799013","office":"Jamjuri B.O","district":"Gomati","state":"TRIPURA","circle":"North Eastern Circle","region":"North East - I Region"},{"pincode":"799013","office":"Lakshipati B.O","district":"Gomati","state":"TRIPURA","circle":"North Eastern Circle","region":"North East - I Region"},{"pincode":"799289","office":"CHAKMAPARA B.O","district":"Dhalai","state":"TRIPURA","circle":"North Eastern Circle","region":"North East - I Region"},{"pincode":"799289","office":"BATABARI B.O","district":"Dhalai","state":"TRIPURA","circle":"North Eastern Circle","region":"North East - I Region"},{"pincode":"799273","office":"Chawmanu B.O","district":"Dhalai","state":"TRIPURA","circle":"North Eastern Circle","region":"North East - I Region"},{"pincode":"799251","office":"Gobindapur B.O","district":"North Tripura","state":"TRIPURA","circle":"North Eastern Circle","region":"North East - I Region"},{"pincode":"799251","office":"Kalacherra B.O","district":"North Tripura","state":"TRIPURA","circle":"North Eastern Circle","region":"North East - I Region"},{"pincode":"799262","office":"Balicherra B.O","district":"North Tripura","state":"TRIPURA","circle":"North Eastern Circle","region":"North East - I Region"},{"pincode":"799262","office":"Fulbari B.O","district":"North Tripura","state":"TRIPURA","circle":"North Eastern Circle","region":"North East - I Region"},{"pincode":"799271","office":"Garchirampara B.O","district":"North Tripura","state":"TRIPURA","circle":"North Eastern Circle","region":"North East - I Region"},{"pincode":"799271","office":"Sakhan Serhmun B.O","district":"North Tripura","state":"TRIPURA","circle":"North Eastern Circle","region":"North East - I Region"},{"pincode":"799271","office":"Tuichama B.O","district":"North Tripura","state":"TRIPURA","circle":"North Eastern Circle","region":"North East - I Region"},{"pincode":"799290","office":"Fatikcherra B.O","district":"Unakoti","state":"TRIPURA","circle":"North Eastern Circle","region":"North East - I Region"},{"pincode":"799290","office":"SAMARUHALA RF B.O","district":"Unakoti","state":"TRIPURA","circle":"North Eastern Circle","region":"North East - I Region"},{"pincode":"799286","office":"Mahavir T.E. B.O","district":"Dhalai","state":"TRIPURA","circle":"North Eastern Circle","region":"North East - I Region"},{"pincode":"799286","office":"Baralutma B.O","district":"Dhalai","state":"TRIPURA","circle":"North Eastern Circle","region":"North East - I Region"},{"pincode":"799286","office":"Chengkap B.O","district":"Dhalai","state":"TRIPURA","circle":"North Eastern Circle","region":"North East - I Region"},{"pincode":"799286","office":"Jamthing B.O","district":"Dhalai","state":"TRIPURA","circle":"North Eastern Circle","region":"North East - I Region"},{"pincode":"799254","office":"Jubarajnagar B.O","district":"North Tripura","state":"TRIPURA","circle":"North Eastern Circle","region":"North East - I Region"},{"pincode":"799254","office":"Paschim Radhapur B.O","district":"North Tripura","state":"TRIPURA","circle":"North Eastern Circle","region":"North East - I Region"},{"pincode":"799254","office":"Rajnagar Laxmipur B.O","district":"North Tripura","state":"TRIPURA","circle":"North Eastern Circle","region":"North East - I Region"},{"pincode":"799269","office":"Kalagong B.O","district":"North Tripura","state":"TRIPURA","circle":"North Eastern Circle","region":"North East - I Region"},{"pincode":"799269","office":"Tlangsang B.O","district":"North Tripura","state":"TRIPURA","circle":"North Eastern Circle","region":"North East - I Region"},{"pincode":"799269","office":"Konpui B.O","district":"North Tripura","state":"TRIPURA","circle":"North Eastern Circle","region":"North East - I Region"},{"pincode":"799269","office":"Chhimluang B.O","district":"North Tripura","state":"TRIPURA","circle":"North Eastern Circle","region":"North East - I Region"},{"pincode":"799261","office":"Amtilla B.O","district":"North Tripura","state":"TRIPURA","circle":"North Eastern Circle","region":"North East - I Region"},{"pincode":"799261","office":"Premtala B.O","district":"North Tripura","state":"TRIPURA","circle":"North Eastern Circle","region":"North East - I Region"},{"pincode":"799261","office":"Rakhalgang B.O","district":"North Tripura","state":"TRIPURA","circle":"North Eastern Circle","region":"North East - I Region"},{"pincode":"799261","office":"Tarakpur B.O","district":"North Tripura","state":"TRIPURA","circle":"North Eastern Circle","region":"North East - I Region"},{"pincode":"799277","office":"Chandipur B.O","district":"Unakoti","state":"TRIPURA","circle":"North Eastern Circle","region":"North East - I Region"},{"pincode":"799277","office":"Jamtolibari B.O","district":"Unakoti","state":"TRIPURA","circle":"North Eastern Circle","region":"North East - I Region"},{"pincode":"799203","office":"Dakshin Promode L. L.Colony B.O","district":"Khowai","state":"TRIPURA","circle":"North Eastern Circle","region":"North East - I Region"},{"pincode":"799203","office":"Moharcherra B.O","district":"Khowai","state":"TRIPURA","circle":"North Eastern Circle","region":"North East - I Region"},{"pincode":"799285","office":"Singibill B.O","district":"Dhalai","state":"TRIPURA","circle":"North Eastern Circle","region":"North East - I Region"},{"pincode":"799288","office":"Laljuri East B.O","district":"Unakoti","state":"TRIPURA","circle":"North Eastern Circle","region":"North East - I Region"},{"pincode":"799288","office":"Masauli B.O","district":"Unakoti","state":"TRIPURA","circle":"North Eastern Circle","region":"North East - I Region"},{"pincode":"799270","office":"Joyasree B.O","district":"North Tripura","state":"TRIPURA","circle":"North Eastern Circle","region":"North East - I Region"},{"pincode":"799270","office":"Laljuri B.O","district":"North Tripura","state":"TRIPURA","circle":"North Eastern Circle","region":"North East - I Region"},{"pincode":"799270","office":"Suknacherra B.O","district":"North Tripura","state":"TRIPURA","circle":"North Eastern Circle","region":"North East - I Region"},{"pincode":"799201","office":"Khowai T. E B.O","district":"Khowai","state":"TRIPURA","circle":"North Eastern Circle","region":"North East - I Region"},{"pincode":"799287","office":"Kuchainala B.O","district":"Dhalai","state":"TRIPURA","circle":"North Eastern Circle","region":"North East - I Region"},{"pincode":"799275","office":"Dhumacherra B.O","district":"Dhalai","state":"TRIPURA","circle":"North Eastern Circle","region":"North East - I Region"},{"pincode":"799275","office":"Sindhukumarpara B.O","district":"Dhalai","state":"TRIPURA","circle":"North Eastern Circle","region":"North East - I Region"},{"pincode":"799279","office":"Goldharpur B.O","district":"Unakoti","state":"TRIPURA","circle":"North Eastern Circle","region":"North East - I Region"},{"pincode":"799279","office":"Kirtantali B.O","district":"Unakoti","state":"TRIPURA","circle":"North Eastern Circle","region":"North East - I Region"},{"pincode":"799260","office":"Janata College B.O","district":"North Tripura","state":"TRIPURA","circle":"North Eastern Circle","region":"North East - I Region"},{"pincode":"799260","office":"Rowabazar B.O","district":"North Tripura","state":"TRIPURA","circle":"North Eastern Circle","region":"North East - I Region"},{"pincode":"799263","office":"Andharcherra B.O","district":"Unakoti","state":"TRIPURA","circle":"North Eastern Circle","region":"North East - I Region"},{"pincode":"799263","office":"Krishnatilla B.O","district":"Unakoti","state":"TRIPURA","circle":"North Eastern Circle","region":"North East - I Region"},{"pincode":"799263","office":"Ramgunapara B.O","district":"Unakoti","state":"TRIPURA","circle":"North Eastern Circle","region":"North East - I Region"},{"pincode":"799253","office":"Algapur B.O","district":"North Tripura","state":"TRIPURA","circle":"North Eastern Circle","region":"North East - I Region"},{"pincode":"799253","office":"Bagbassa B.O","district":"North Tripura","state":"TRIPURA","circle":"North Eastern Circle","region":"North East - I Region"},{"pincode":"799253","office":"East Kamesawar B.O","district":"North Tripura","state":"TRIPURA","circle":"North Eastern Circle","region":"North East - I Region"},{"pincode":"799253","office":"Radhapur B.O","district":"North Tripura","state":"TRIPURA","circle":"North Eastern Circle","region":"North East - I Region"},{"pincode":"799278","office":"Maharani Bus Stop B.O","district":"Dhalai","state":"TRIPURA","circle":"North Eastern Circle","region":"North East - I Region"},{"pincode":"799278","office":"Mechuria B.O","district":"Dhalai","state":"TRIPURA","circle":"North Eastern Circle","region":"North East - I Region"},{"pincode":"799278","office":"Mendihaor B.O","district":"Dhalai","state":"TRIPURA","circle":"North Eastern Circle","region":"North East - I Region"},{"pincode":"799284","office":"Bhagirathpara B.O","district":"Dhalai","state":"TRIPURA","circle":"North Eastern Circle","region":"North East - I Region"},{"pincode":"799284","office":"Bullongbassa B.O","district":"Dhalai","state":"TRIPURA","circle":"North Eastern Circle","region":"North East - I Region"},{"pincode":"799284","office":"Dalapatipara B.O","district":"Dhalai","state":"TRIPURA","circle":"North Eastern Circle","region":"North East - I Region"},{"pincode":"799284","office":"Ranipukur B.O","district":"Dhalai","state":"TRIPURA","circle":"North Eastern Circle","region":"North East - I Region"},{"pincode":"799280","office":"Balehar B.O","district":"Unakoti","state":"TRIPURA","circle":"North Eastern Circle","region":"North East - I Region"},{"pincode":"799280","office":"Pechardahar B.O","district":"Unakoti","state":"TRIPURA","circle":"North Eastern Circle","region":"North East - I Region"},{"pincode":"799205","office":"Khasiamangal B.O","district":"Khowai","state":"TRIPURA","circle":"North Eastern Circle","region":"North East - I Region"},{"pincode":"799205","office":"Mongtukupara B.O","district":"Khowai","state":"TRIPURA","circle":"North Eastern Circle","region":"North East - I Region"},{"pincode":"799205","office":"Nabakumar Rankhal Para B.O","district":"Khowai","state":"TRIPURA","circle":"North Eastern Circle","region":"North East - I Region"},{"pincode":"799205","office":"Uttar Gakulnagar B.O","district":"Khowai","state":"TRIPURA","circle":"North Eastern Circle","region":"North East - I Region"},{"pincode":"799256","office":"Narendranagar B.O","district":"North Tripura","state":"TRIPURA","circle":"North Eastern Circle","region":"North East - I Region"},{"pincode":"799282","office":"Chinibagan B.O","district":"Unakoti","state":"TRIPURA","circle":"North Eastern Circle","region":"North East - I Region"},{"pincode":"799046","office":"NIT Agartala S.O","district":"West Tripura","state":"TRIPURA","circle":"North Eastern Circle","region":"North East - I Region"},{"pincode":"799045","office":"Birendranagar S.O","district":"West Tripura","state":"TRIPURA","circle":"North Eastern Circle","region":"North East - I Region"},{"pincode":"799007","office":"Dhaleswar S.O","district":"West Tripura","state":"TRIPURA","circle":"North Eastern Circle","region":"North East - I Region"},{"pincode":"799002","office":"Ramnagar S.O (West Tripura)","district":"West Tripura","state":"TRIPURA","circle":"North Eastern Circle","region":"North East - I Region"},{"pincode":"799022","office":"Tripura University S.O","district":"West Tripura","state":"TRIPURA","circle":"North Eastern Circle","region":"North East - I Region"},{"pincode":"799104","office":"Jatanbari S.O","district":"Gomati","state":"TRIPURA","circle":"North Eastern Circle","region":"North East - I Region"},{"pincode":"799143","office":"Manubazar S.O","district":"South Tripura","state":"TRIPURA","circle":"North Eastern Circle","region":"North East - I Region"},{"pincode":"799153","office":"Radhanagar S.O (West Tripura)","district":"South Tripura","state":"TRIPURA","circle":"North Eastern Circle","region":"North East - I Region"},{"pincode":"799113","office":"Tepania S.O","district":"Gomati","state":"TRIPURA","circle":"North Eastern Circle","region":"North East - I Region"},{"pincode":"799254","office":"Halflongcherra S.O","district":"North Tripura","state":"TRIPURA","circle":"North Eastern Circle","region":"North East - I Region"},{"pincode":"799204","office":"Kulaibazar S.O","district":"Dhalai","state":"TRIPURA","circle":"North Eastern Circle","region":"North East - I Region"},{"pincode":"799253","office":"Rajbari S.O","district":"North Tripura","state":"TRIPURA","circle":"North Eastern Circle","region":"North East - I Region"},{"pincode":"799004","office":"Renters Colony B.O","district":"West Tripura","state":"TRIPURA","circle":"North Eastern Circle","region":"North East - I Region"},{"pincode":"799003","office":"Charipara B.O","district":"West Tripura","state":"TRIPURA","circle":"North Eastern Circle","region":"North East - I Region"},{"pincode":"799003","office":"Siddhi Ashram B.O","district":"West Tripura","state":"TRIPURA","circle":"North Eastern Circle","region":"North East - I Region"},{"pincode":"799045","office":"Ashigarh B.O","district":"West Tripura","state":"TRIPURA","circle":"North Eastern Circle","region":"North East - I Region"},{"pincode":"799045","office":"Shantinagar B.O","district":"West Tripura","state":"TRIPURA","circle":"North Eastern Circle","region":"North East - I Region"},{"pincode":"799045","office":"Brigudaspara B.O","district":"West Tripura","state":"TRIPURA","circle":"North Eastern Circle","region":"North East - I Region"},{"pincode":"799045","office":"Janmejoynagar B.O","district":"West Tripura","state":"TRIPURA","circle":"North Eastern Circle","region":"North East - I Region"},{"pincode":"799045","office":"Mandainagar B.O","district":"West Tripura","state":"TRIPURA","circle":"North Eastern Circle","region":"North East - I Region"},{"pincode":"799045","office":"Radhamohanpur B.O","district":"West Tripura","state":"TRIPURA","circle":"North Eastern Circle","region":"North East - I Region"},{"pincode":"799102","office":"Harishnagar T.E. B.O","district":"Sepahijala","state":"TRIPURA","circle":"North Eastern Circle","region":"North East - I Region"},{"pincode":"799102","office":"Putia B.O","district":"Sepahijala","state":"TRIPURA","circle":"North Eastern Circle","region":"North East - I Region"},{"pincode":"799102","office":"Sepahijala B.O","district":"Sepahijala","state":"TRIPURA","circle":"North Eastern Circle","region":"North East - I Region"},{"pincode":"799102","office":"Sutarmura B.O","district":"Sepahijala","state":"TRIPURA","circle":"North Eastern Circle","region":"North East - I Region"},{"pincode":"799210","office":"Kalibazar B.O","district":"West Tripura","state":"TRIPURA","circle":"North Eastern Circle","region":"North East - I Region"},{"pincode":"799210","office":"Harendranagar T. B.O","district":"West Tripura","state":"TRIPURA","circle":"North Eastern Circle","region":"North East - I Region"},{"pincode":"799008","office":"Old Agartala B.O","district":"West Tripura","state":"TRIPURA","circle":"North Eastern Circle","region":"North East - I Region"},{"pincode":"799008","office":"Paschim Champamur B.O","district":"West Tripura","state":"TRIPURA","circle":"North Eastern Circle","region":"North East - I Region"},{"pincode":"799008","office":"Reshambagan B.O","district":"West Tripura","state":"TRIPURA","circle":"North Eastern Circle","region":"North East - I Region"},{"pincode":"799211","office":"Bijoynagar Bazar B.O","district":"West Tripura","state":"TRIPURA","circle":"North Eastern Circle","region":"North East - I Region"},{"pincode":"799211","office":"Dighalia Bazar B.O","district":"West Tripura","state":"TRIPURA","circle":"North Eastern Circle","region":"North East - I Region"},{"pincode":"799002","office":"Krishnanagar B.O","district":"West Tripura","state":"TRIPURA","circle":"North Eastern Circle","region":"North East - I Region"},{"pincode":"799002","office":"Paschim Bhubanban B.O","district":"West Tripura","state":"TRIPURA","circle":"North Eastern Circle","region":"North East - I Region"},{"pincode":"799035","office":"Majlishpur B.O","district":"West Tripura","state":"TRIPURA","circle":"North Eastern Circle","region":"North East - I Region"},{"pincode":"799130","office":"Amtali B.O","district":"West Tripura","state":"TRIPURA","circle":"North Eastern Circle","region":"North East - I Region"},{"pincode":"799130","office":"Champamura Bazar B.O","district":"West Tripura","state":"TRIPURA","circle":"North Eastern Circle","region":"North East - I Region"},{"pincode":"799212","office":"Simna B.O","district":"West Tripura","state":"TRIPURA","circle":"North Eastern Circle","region":"North East - I Region"},{"pincode":"799212","office":"Sonaram Bazar B.O","district":"West Tripura","state":"TRIPURA","circle":"North Eastern Circle","region":"North East - I Region"},{"pincode":"799011","office":"Kanakraipara B.O","district":"Sepahijala","state":"TRIPURA","circle":"North Eastern Circle","region":"North East - I Region"},{"pincode":"799157","office":"Chottakhola B.O","district":"South Tripura","state":"TRIPURA","circle":"North Eastern Circle","region":"North East - I Region"},{"pincode":"799101","office":"Dakshin taidu B.O","district":"Gomati","state":"TRIPURA","circle":"North Eastern Circle","region":"North East - I Region"},{"pincode":"799101","office":"Mahuamillan B.O","district":"Gomati","state":"TRIPURA","circle":"North Eastern Circle","region":"North East - I Region"},{"pincode":"799101","office":"Taidubari B.O","district":"Gomati","state":"TRIPURA","circle":"North Eastern Circle","region":"North East - I Region"},{"pincode":"799157","office":"Gabtali B.O","district":"South Tripura","state":"TRIPURA","circle":"North Eastern Circle","region":"North East - I Region"},{"pincode":"799155","office":"Barpathari B.O","district":"South Tripura","state":"TRIPURA","circle":"North Eastern Circle","region":"North East - I Region"},{"pincode":"799155","office":"Debipur B.O","district":"South Tripura","state":"TRIPURA","circle":"North Eastern Circle","region":"North East - I Region"},{"pincode":"799155","office":"Sarasima B.O","district":"South Tripura","state":"TRIPURA","circle":"North Eastern Circle","region":"North East - I Region"},{"pincode":"799155","office":"Uttar Bharat Ch Nagar B.O","district":"South Tripura","state":"TRIPURA","circle":"North Eastern Circle","region":"North East - I Region"},{"pincode":"799103","office":"Amarendranagar B.O","district":"Sepahijala","state":"TRIPURA","circle":"North Eastern Circle","region":"North East - I Region"},{"pincode":"799103","office":"Padmanagar B.O","district":"Sepahijala","state":"TRIPURA","circle":"North Eastern Circle","region":"North East - I Region"},{"pincode":"799113","office":"Garjanmura B.O","district":"Gomati","state":"TRIPURA","circle":"North Eastern Circle","region":"North East - I Region"},{"pincode":"799114","office":"Khilpara B.O","district":"Gomati","state":"TRIPURA","circle":"North Eastern Circle","region":"North East - I Region"},{"pincode":"799113","office":"Kupilong B.O","district":"Gomati","state":"TRIPURA","circle":"North Eastern Circle","region":"North East - I Region"},{"pincode":"799114","office":"Salgarah B.O","district":"Gomati","state":"TRIPURA","circle":"North Eastern Circle","region":"North East - I Region"},{"pincode":"799125","office":"Kalabon B.O","district":"Gomati","state":"TRIPURA","circle":"North Eastern Circle","region":"North East - I Region"},{"pincode":"799104","office":"Paticherri B.O","district":"Gomati","state":"TRIPURA","circle":"North Eastern Circle","region":"North East - I Region"},{"pincode":"799104","office":"Raima B.O","district":"Dhalai","state":"TRIPURA","circle":"North Eastern Circle","region":"North East - I Region"},{"pincode":"799104","office":"Suknacherri B.O","district":"Gomati","state":"TRIPURA","circle":"North Eastern Circle","region":"North East - I Region"},{"pincode":"799104","office":"Tirthamukh B.O","district":"Gomati","state":"TRIPURA","circle":"North Eastern Circle","region":"North East - I Region"},{"pincode":"799104","office":"Tuichama B.O","district":"Gomati","state":"TRIPURA","circle":"North Eastern Circle","region":"North East - I Region"},{"pincode":"799141","office":"Dakshin Hichacherri B.O","district":"South Tripura","state":"TRIPURA","circle":"North Eastern Circle","region":"North East - I Region"},{"pincode":"799105","office":"Jitendranagar B.O","district":"Gomati","state":"TRIPURA","circle":"North Eastern Circle","region":"North East - I Region"},{"pincode":"799105","office":"Mohanbhog B.O","district":"Sepahijala","state":"TRIPURA","circle":"North Eastern Circle","region":"North East - I Region"},{"pincode":"799105","office":"Paschim Mogpuskarini B.O","district":"Gomati","state":"TRIPURA","circle":"North Eastern Circle","region":"North East - I Region"},{"pincode":"799105","office":"Samukcherra B.O","district":"Gomati","state":"TRIPURA","circle":"North Eastern Circle","region":"North East - I Region"},{"pincode":"799143","office":"Dakshin Fulcherri B.O","district":"South Tripura","state":"TRIPURA","circle":"North Eastern Circle","region":"North East - I Region"},{"pincode":"799143","office":"Magurcherra B.O","district":"South Tripura","state":"TRIPURA","circle":"North Eastern Circle","region":"North East - I Region"},{"pincode":"799143","office":"Satchand B.O","district":"South Tripura","state":"TRIPURA","circle":"North Eastern Circle","region":"North East - I Region"},{"pincode":"799115","office":"Battali B.O","district":"Sepahijala","state":"TRIPURA","circle":"North Eastern Circle","region":"North East - I Region"},{"pincode":"799115","office":"Chowmouhani B.O","district":"Sepahijala","state":"TRIPURA","circle":"North Eastern Circle","region":"North East - I Region"},{"pincode":"799115","office":"Durlavnarayan B.O","district":"Sepahijala","state":"TRIPURA","circle":"North Eastern Circle","region":"North East - I Region"},{"pincode":"799115","office":"Khas Chowmouhani B.O","district":"Sepahijala","state":"TRIPURA","circle":"North Eastern Circle","region":"North East - I Region"},{"pincode":"799115","office":"Rudijala B.O","district":"Sepahijala","state":"TRIPURA","circle":"North Eastern Circle","region":"North East - I Region"},{"pincode":"799115","office":"Telkajla B.O","district":"Sepahijala","state":"TRIPURA","circle":"North Eastern Circle","region":"North East - I Region"},{"pincode":"799153","office":"Rangamura B.O","district":"South Tripura","state":"TRIPURA","circle":"North Eastern Circle","region":"North East - I Region"},{"pincode":"799145","office":"Harbatali B.O","district":"South Tripura","state":"TRIPURA","circle":"North Eastern Circle","region":"North East - I Region"},{"pincode":"799145","office":"Kathalcherri B.O","district":"South Tripura","state":"TRIPURA","circle":"North Eastern Circle","region":"North East - I Region"},{"pincode":"799145","office":"Ludhua Tea Estate B.O","district":"South Tripura","state":"TRIPURA","circle":"North Eastern Circle","region":"North East - I Region"},{"pincode":"799144","office":"Laxmicherra B.O","district":"South Tripura","state":"TRIPURA","circle":"North Eastern Circle","region":"North East - I Region"},{"pincode":"799131","office":"Induria B.O","district":"Sepahijala","state":"TRIPURA","circle":"North Eastern Circle","region":"North East - I Region"},{"pincode":"799132","office":"Jatrapur B.O","district":"Sepahijala","state":"TRIPURA","circle":"North Eastern Circle","region":"North East - I Region"},{"pincode":"799013","office":"Abani Reangpara B.O","district":"Gomati","state":"TRIPURA","circle":"North Eastern Circle","region":"North East - I Region"},{"pincode":"799013","office":"Dakshin Chandrapur B.O","district":"Gomati","state":"TRIPURA","circle":"North Eastern Circle","region":"North East - I Region"},{"pincode":"799013","office":"Joalikhamar B.O","district":"Gomati","state":"TRIPURA","circle":"North Eastern Circle","region":"North East - I Region"},{"pincode":"799013","office":"Murapara B.O","district":"Gomati","state":"TRIPURA","circle":"North Eastern Circle","region":"North East - I Region"},{"pincode":"799289","office":"Karnamunipara B.O","district":"Dhalai","state":"TRIPURA","circle":"North Eastern Circle","region":"North East - I Region"},{"pincode":"799273","office":"Laldingabari B.O","district":"Dhalai","state":"TRIPURA","circle":"North Eastern Circle","region":"North East - I Region"},{"pincode":"799251","office":"Huruah B.O","district":"North Tripura","state":"TRIPURA","circle":"North Eastern Circle","region":"North East - I Region"},{"pincode":"799251","office":"Raghna B.O","district":"North Tripura","state":"TRIPURA","circle":"North Eastern Circle","region":"North East - I Region"},{"pincode":"799251","office":"Thana Road B.O","district":"North Tripura","state":"TRIPURA","circle":"North Eastern Circle","region":"North East - I Region"},{"pincode":"799207","office":"Bharatsardarbari B.O","district":"Khowai","state":"TRIPURA","circle":"North Eastern Circle","region":"North East - I Region"},{"pincode":"799207","office":"Paglabari B.O","district":"Khowai","state":"TRIPURA","circle":"North Eastern Circle","region":"North East - I Region"},{"pincode":"799207","office":"Uttarchebri B.O","district":"Khowai","state":"TRIPURA","circle":"North Eastern Circle","region":"North East - I Region"},{"pincode":"799271","office":"Anandabazar B.O","district":"North Tripura","state":"TRIPURA","circle":"North Eastern Circle","region":"North East - I Region"},{"pincode":"799290","office":"Ganganagar B.O","district":"Unakoti","state":"TRIPURA","circle":"North Eastern Circle","region":"North East - I Region"},{"pincode":"799290","office":"Teghari B.O","district":"Unakoti","state":"TRIPURA","circle":"North Eastern Circle","region":"North East - I Region"},{"pincode":"799286","office":"Apareshkar B.O","district":"Dhalai","state":"TRIPURA","circle":"North Eastern Circle","region":"North East - I Region"},{"pincode":"799286","office":"Katalutma B.O","district":"Dhalai","state":"TRIPURA","circle":"North Eastern Circle","region":"North East - I Region"},{"pincode":"799254","office":"Balidhum B.O","district":"North Tripura","state":"TRIPURA","circle":"North Eastern Circle","region":"North East - I Region"},{"pincode":"799254","office":"Dewanpassa B.O","district":"North Tripura","state":"TRIPURA","circle":"North Eastern Circle","region":"North East - I Region"},{"pincode":"799269","office":"Hmunpui B.O","district":"North Tripura","state":"TRIPURA","circle":"North Eastern Circle","region":"North East - I Region"},{"pincode":"799261","office":"Brajendranagar B.O","district":"North Tripura","state":"TRIPURA","circle":"North Eastern Circle","region":"North East - I Region"},{"pincode":"799261","office":"Kalagangar Par B.O","district":"North Tripura","state":"TRIPURA","circle":"North Eastern Circle","region":"North East - I Region"},{"pincode":"799261","office":"Sarala B.O","district":"North Tripura","state":"TRIPURA","circle":"North Eastern Circle","region":"North East - I Region"},{"pincode":"799203","office":"Barmaidan Bazar B.O","district":"Khowai","state":"TRIPURA","circle":"North Eastern Circle","region":"North East - I Region"},{"pincode":"799203","office":"Dwarikapur B.O","district":"Khowai","state":"TRIPURA","circle":"North Eastern Circle","region":"North East - I Region"},{"pincode":"799203","office":"Ghilatali B.O","district":"Khowai","state":"TRIPURA","circle":"North Eastern Circle","region":"North East - I Region"},{"pincode":"799203","office":"Paschim Kunjaban B.O","district":"Khowai","state":"TRIPURA","circle":"North Eastern Circle","region":"North East - I Region"},{"pincode":"799285","office":"Bagaicherri B.O","district":"Dhalai","state":"TRIPURA","circle":"North Eastern Circle","region":"North East - I Region"},{"pincode":"799285","office":"Baligaon B.O","district":"Dhalai","state":"TRIPURA","circle":"North Eastern Circle","region":"North East - I Region"},{"pincode":"799285","office":"Fulcherri B.O","district":"Dhalai","state":"TRIPURA","circle":"North Eastern Circle","region":"North East - I Region"},{"pincode":"799288","office":"Nepaltilla B.O","district":"Unakoti","state":"TRIPURA","circle":"North Eastern Circle","region":"North East - I Region"},{"pincode":"799288","office":"Taraninagar B.O","district":"Unakoti","state":"TRIPURA","circle":"North Eastern Circle","region":"North East - I Region"},{"pincode":"799201","office":"Belcherra B.O","district":"Khowai","state":"TRIPURA","circle":"North Eastern Circle","region":"North East - I Region"},{"pincode":"799201","office":"Subashpark B.O","district":"Khowai","state":"TRIPURA","circle":"North Eastern Circle","region":"North East - I Region"},{"pincode":"799264","office":"Darchai B.O","district":"Unakoti","state":"TRIPURA","circle":"North Eastern Circle","region":"North East - I Region"},{"pincode":"799275","office":"Demchedrra Colony B.O","district":"Dhalai","state":"TRIPURA","circle":"North Eastern Circle","region":"North East - I Region"},{"pincode":"799275","office":"Mainerma B.O","district":"Dhalai","state":"TRIPURA","circle":"North Eastern Circle","region":"North East - I Region"},{"pincode":"799275","office":"Maslicherra B.O","district":"Dhalai","state":"TRIPURA","circle":"North Eastern Circle","region":"North East - I Region"},{"pincode":"799260","office":"Bilthai B.O","district":"North Tripura","state":"TRIPURA","circle":"North Eastern Circle","region":"North East - I Region"},{"pincode":"799260","office":"Jalabazar B.O","district":"North Tripura","state":"TRIPURA","circle":"North Eastern Circle","region":"North East - I Region"},{"pincode":"799260","office":"Rahumcherra B.O","district":"North Tripura","state":"TRIPURA","circle":"North Eastern Circle","region":"North East - I Region"},{"pincode":"799260","office":"Ujan Sailenbari B.O","district":"North Tripura","state":"TRIPURA","circle":"North Eastern Circle","region":"North East - I Region"},{"pincode":"799260","office":"Noagang B.O","district":"North Tripura","state":"TRIPURA","circle":"North Eastern Circle","region":"North East - I Region"},{"pincode":"799263","office":"Nalkata B.O","district":"Unakoti","state":"TRIPURA","circle":"North Eastern Circle","region":"North East - I Region"},{"pincode":"799253","office":"Kakrirpar B.O","district":"North Tripura","state":"TRIPURA","circle":"North Eastern Circle","region":"North East - I Region"},{"pincode":"799205","office":"Golabari B.O","district":"Khowai","state":"TRIPURA","circle":"North Eastern Circle","region":"North East - I Region"},{"pincode":"799205","office":"Howaibari B.O","district":"Khowai","state":"TRIPURA","circle":"North Eastern Circle","region":"North East - I Region"},{"pincode":"799205","office":"Maharanipur B.O","district":"Khowai","state":"TRIPURA","circle":"North Eastern Circle","region":"North East - I Region"},{"pincode":"799256","office":"Piplacherra B.O","district":"North Tripura","state":"TRIPURA","circle":"North Eastern Circle","region":"North East - I Region"},{"pincode":"799282","office":"Bhagabannagar B.O","district":"Unakoti","state":"TRIPURA","circle":"North Eastern Circle","region":"North East - I Region"},{"pincode":"799266","office":"Betcherra B.O","district":"Dhalai","state":"TRIPURA","circle":"North Eastern Circle","region":"North East - I Region"},{"pincode":"799250","office":"Dharmanagar H.O","district":"North Tripura","state":"TRIPURA","circle":"North Eastern Circle","region":"North East - I Region"},{"pincode":"799009","office":"Agartala Aerodrome S.O","district":"West Tripura","state":"TRIPURA","circle":"North Eastern Circle","region":"North East - I Region"},{"pincode":"799004","office":"Agartala College S.O","district":"West Tripura","state":"TRIPURA","circle":"North Eastern Circle","region":"North East - I Region"},{"pincode":"799003","office":"Arundhutinagar S.O","district":"West Tripura","state":"TRIPURA","circle":"North Eastern Circle","region":"North East - I Region"},{"pincode":"799008","office":"Khayerpur S.O","district":"West Tripura","state":"TRIPURA","circle":"North Eastern Circle","region":"North East - I Region"},{"pincode":"799211","office":"Mohanpur S.O (West Tripura)","district":"West Tripura","state":"TRIPURA","circle":"North Eastern Circle","region":"North East - I Region"},{"pincode":"799011","office":"Jampuijala SO","district":"Sepahijala","state":"TRIPURA","circle":"North Eastern Circle","region":"North East - I Region"},{"pincode":"799101","office":"Amarpur S.O (South Tripura)","district":"Gomati","state":"TRIPURA","circle":"North Eastern Circle","region":"North East - I Region"},{"pincode":"799103","office":"Bishramganj S.O","district":"Sepahijala","state":"TRIPURA","circle":"North Eastern Circle","region":"North East - I Region"},{"pincode":"799105","office":"Kakraban S.O","district":"Gomati","state":"TRIPURA","circle":"North Eastern Circle","region":"North East - I Region"},{"pincode":"799142","office":"Muhuripur S.O","district":"South Tripura","state":"TRIPURA","circle":"North Eastern Circle","region":"North East - I Region"},{"pincode":"799131","office":"Sonamura S.O","district":"Sepahijala","state":"TRIPURA","circle":"North Eastern Circle","region":"North East - I Region"},{"pincode":"799289","office":"Ambassa S.O","district":"Dhalai","state":"TRIPURA","circle":"North Eastern Circle","region":"North East - I Region"},{"pincode":"799281","office":"Baburbazar S.O","district":"Unakoti","state":"TRIPURA","circle":"North Eastern Circle","region":"North East - I Region"},{"pincode":"799269","office":"Jampui S.O","district":"North Tripura","state":"TRIPURA","circle":"North Eastern Circle","region":"North East - I Region"},{"pincode":"799277","office":"Kailashahar S.O","district":"Unakoti","state":"TRIPURA","circle":"North Eastern Circle","region":"North East - I Region"},{"pincode":"799285","office":"Kamalpur S.O (Dhalai)","district":"Dhalai","state":"TRIPURA","circle":"North Eastern Circle","region":"North East - I Region"},{"pincode":"799275","office":"Manughat S.O","district":"Dhalai","state":"TRIPURA","circle":"North Eastern Circle","region":"North East - I Region"},{"pincode":"799279","office":"Paiturbazar S.O","district":"Unakoti","state":"TRIPURA","circle":"North Eastern Circle","region":"North East - I Region"},{"pincode":"799277","office":"Panichowkibazar S.O","district":"Unakoti","state":"TRIPURA","circle":"North Eastern Circle","region":"North East - I Region"},{"pincode":"799263","office":"Pecharthal S.O","district":"Unakoti","state":"TRIPURA","circle":"North Eastern Circle","region":"North East - I Region"},{"pincode":"799280","office":"Sonamukhi S.O (North Tripura)","district":"Unakoti","state":"TRIPURA","circle":"North Eastern Circle","region":"North East - I Region"},{"pincode":"799205","office":"Teliamura S.O","district":"Khowai","state":"TRIPURA","circle":"North Eastern Circle","region":"North East - I Region"},{"pincode":"799256","office":"Tripura Damcherra S.O","district":"North Tripura","state":"TRIPURA","circle":"North Eastern Circle","region":"North East - I Region"}]